name,address,lat,lng,type
Migros-Supermarkt - Affoltern a. A.,"Oberdorfstrasse 4, Affoltern am Albis",47.2784382,8.4538412,Migros
Migros-Supermarkt - Muri AG,"Kirchenfeldstrasse 8, Muri",47.2720122,8.3418444,Migros
Migros-Supermarkt - Zug - Metalli,"Baarerstrasse 22, Zug",47.1731333,8.5182252,Migros
Migros-Supermarkt - Baar,"Bahnhofstrasse 5, Baar",47.1955556,8.525,Migros
Migros-Supermarkt - Zug Herti,"Hertizentrum 10, Zug",47.1780321,8.5059051,Migros
Migros-Supermarkt - Steinhausen - Zugerland,"Hinterbergstrasse 40, Steinhausen",47.1924775,8.4769179,Migros
Migros-Supermarkt - Cham - Neudorf,"Zugerstrasse 15/17, Cham",47.18240730000001,8.461297,Migros
Migros-Supermarkt - Rotkreuz,"Buonaserstrasse 1, Risch-Rotkreuz",47.1412273,8.4287147,Migros
Migros-Supermarkt - Steinhausen Dorf,"Bahnhofstrasse 2, Steinhausen",47.1970572,8.4849262,Migros
Migros-Supermarkt - Hochdorf - Seetal-Center,"Hauptstrasse 5, Hochdorf",47.1656512,8.2919178,Migros
Migros-Supermarkt - Zug - Grabenstrasse,"Grabenstrasse 5, Zug",47.1652756,8.515132,Migros
Migros-Supermarkt - Root,"Bahnhofstrasse 11b, Root",47.1179287,8.3919455,Migros
Migros-Supermarkt - Hünenberg Dorf,"Maihölzli 5, Hünenberg",47.17504,8.427463,Migros
Migros-Supermarkt - Grienbachstrasse Zug,"Grienbachstrasse 11, Zug",47.1841158,8.522753,Migros
Migros Food Corner - Zug - Metalli,"Baarerstrasse 22, Zug",47.1731163,8.5182469,Migros
Seetal-Center Hochdorf,"Hauptstrasse 5, Hochdorf",47.1658333,8.2916667,Migros
Coop Supermarkt Sins,"Luzernerstrasse 3, Sins",47.1908576,8.3959023,Migros
Coop Supermarkt Affoltern am Albis,"Büelstrasse 15, Affoltern am Albis",47.2738709,8.445676299999999,Coop
Coop Supermarkt Baar Gotthard,"Poststrasse 3, Baar",47.1951121,8.5238544,Coop
Coop Supermarkt Muri AG,"Seetalstrasse 1, Muri",47.2728429,8.341126899999999,Coop
Coop Supermarkt Rotkreuz,"Luzernerstrasse 8, Rotkreuz",47.1407392,8.427121999999999,Coop
Coop Supermarkt Zug Neustadt,"Baarerstrasse 6, Zug",47.1709556,8.5164337,Coop
Coop Supermarkt Baar Oberdorf,"Oberdorfstrasse 6A, Baar",47.19560509999999,8.529992,Coop
Coop Supermarkt Cham Seehof,"Zugerstrasse 14, Cham",47.181466,8.461554399999999,Coop
Coop Supermarkt Zug Bahnhof,"Bahnhof SBB, Zug",47.1734068,8.5155047,Coop
Coop Supermarkt Root,"Bahnhofstrasse 17, Root",47.1177186,8.3919201,Coop
Coop Supermarkt Steinhausen,"Bahnhofstrasse 7, Steinhausen",47.196404,8.4826204,Coop
Coop Supermarkt Obfelden,"Ottenbacherstrasse 23, Obfelden",47.266924,8.4242246,Coop
Coop Supermarkt Eschenbach LU,"Oberhof 5, Eschenbach",47.1336873,8.3196588,Coop
Coop Supermarkt Hochdorf,"Bellevuestrasse 6, Hochdorf",47.1689547,8.2886334,Coop
Coop Supermarkt Sins,"Luzernerstrasse 3, Sins",47.1908576,8.3959023,Coop
Coop Supermarkt Hünenberg,"Eichengasse 1A, Hünenberg",47.1754867,8.426347699999999,Coop
Migros-Supermarkt - Affoltern a. A.,"Oberdorfstrasse 4, Affoltern am Albis",47.2784382,8.4538412,Coop
Coop Center Neustadt-Passage,"Baarerstrasse 4, Zug",47.1708717,8.516426,Coop
Migros-Supermarkt - Cham - Neudorf,"Zugerstrasse 15/17, Cham",47.18240730000001,8.461297,Coop
Coop Pronto Shop mit Tankstelle Baar Zugerstrasse,"Zugerstrasse 64, Baar",47.18483029999999,8.5201764,Coop
ALDI SUISSE,"Industriestrasse 5, Affoltern am Albis",47.2727428,8.447017899999999,Coop
Coop Pronto Shop mit Tankstelle Hochdorf,"Alte Urswilstrasse 1, Hochdorf",47.1655439,8.290035,Coop
Coop Pronto Shop mit Tankstelle Cham,"Hinterbergstrasse 6, Cham",47.186643,8.475304800000002,Coop
Coop Pronto Shop mit Tankstelle Rotkreuz,"Blegistrasse 2, Rotkreuz",47.1477556,8.434031599999999,Coop
Coop Pronto Shop mit Tankstelle Muri,"Luzernerstrasse 33, Muri",47.2712871,8.3433801,Coop
Coop Pronto Shop mit Tankstelle Affoltern am Albis,"Im Wängli 6, Affoltern am Albis",47.2840263,8.453483199999999,Coop
Lidl Schweiz,"Aarauerstrasse 36, Muri",47.2794,8.336179999999999,Lidl
Lidl Schweiz,"Huwil 2, Römerswil",47.16401,8.277809999999999,Lidl
Lidl Schweiz,"Gotthardstrasse 2, Zug",47.17228739999999,8.5174525,Lidl
Lidl Schweiz,"Centralweg 3, Affoltern am Albis",47.2780069,8.4530301,Lidl
Lidl Schweiz,"Sagistrasse 10, Baar",47.1850661,8.5185,Lidl
Lidl Schweiz,"Hinterbergstrasse 19, Cham",47.1879802,8.47784,Lidl
ALDI SUISSE,"Obermühleweid 1, Cham",47.18565659999999,8.4556594,Lidl
Migros-Supermarkt - Affoltern a. A.,"Oberdorfstrasse 4, Affoltern am Albis",47.2784382,8.4538412,Lidl
ALDI SUISSE,"Oberdorfstrasse 9, Baar",47.1963426,8.5300228,Lidl
ALDI SUISSE,"Gwärbstrasse 4, Honau",47.1316178,8.403156899999999,Lidl
Volg Rifferswil,"Dorfpl. 1, Rifferswil",47.2426328,8.4960576,Lidl
ALDI SUISSE,"Alte Steinhauserstrasse 10, Cham",47.1873752,8.4757201,Lidl
Denner Partner,"Albisstrasse 8, Kappel am Albis",47.229772,8.5272296,Lidl
Denner Partner,"Luzernerstrasse 10, Muri",47.2724083,8.3417698,Denner
Denner Discount,"Sunneblick 31, Rotkreuz",47.1447896,8.4312639,Denner
Denner Discount,"Jonentalstrasse 1, Affoltern am Albis",47.2771601,8.4548399,Denner
Denner Discount,"Hauptstrasse 5, Hochdorf",47.1658087,8.2914701,Denner
Denner Discount,"Zugerstrasse 15 / 17, Cham",47.1817324,8.461333100000001,Denner
Denner Express,"Baarerstrasse 8, Zug",47.1712187,8.5165791,Denner
Denner Partner,"Luzernstrasse 18, Eschenbach",47.130796,8.3221615,Denner
Denner Discount,"Zürichstrasse 51, Affoltern am Albis",47.27613119999999,8.450270699999999,Denner
Denner Partner,"Albisstrasse 8, Kappel am Albis",47.229772,8.5272296,Denner
Denner Discount,"Oberdorfstrasse 6A, Baar",47.1958475,8.529828300000002,Denner
Denner Discount,"Zugerstrasse 47, Steinhausen",47.1917599,8.4884749,Denner
Denner Discount,"Hertizentrum 10, Zug",47.1780404,8.505821,Denner
Denner Discount,"Baarerstrasse 22, Zug",47.1734097,8.5170712,Denner
Denner Discount,"Hinterbergstrasse 40, Steinhausen",47.191997,8.477761,Denner
Seetal-Center Hochdorf,"Hauptstrasse 5, Hochdorf",47.1658333,8.2916667,Denner
Coop Supermarkt Cham Seehof,"Zugerstrasse 14, Cham",47.181466,8.461554399999999,Denner
ALDI SUISSE,"Obermühleweid 1, Cham",47.18565659999999,8.4556594,Aldi
ALDI SUISSE,"Alte Steinhauserstrasse 10, Cham",47.1873752,8.4757201,Aldi
ALDI SUISSE,"Gwärbstrasse 4, Honau",47.1316178,8.403156899999999,Aldi
ALDI SUISSE,"Oberdorfstrasse 9, Baar",47.1963426,8.5300228,Aldi
ALDI SUISSE,"Industriestrasse 5, Affoltern am Albis",47.2727428,8.447017899999999,Aldi
Lidl Schweiz,"Gotthardstrasse 2, Zug",47.17228739999999,8.5174525,Aldi
Hochdorf EKZ,"Hauptstrasse 5, Hochdorf",47.1661132,8.291483699999999,Aldi
Lidl Schweiz,"Centralweg 3, Affoltern am Albis",47.2780069,8.4530301,Aldi
Muris Market,"Luzernerstrasse 32, Muri",47.2707121,8.3430165,Aldi
Migros-Supermarkt - Baar,"Bahnhofstrasse 5, Baar",47.1955556,8.525,Aldi
Migros-Supermarkt - Cham - Neudorf,"Zugerstrasse 15/17, Cham",47.18240730000001,8.461297,Aldi
Migros-Supermarkt - Muri AG,"Kirchenfeldstrasse 8, Muri",47.2720122,8.3418444,Aldi
Lidl Schweiz,"Hinterbergstrasse 19, Cham",47.1879802,8.47784,Aldi
Coop Supermarkt Baar Oberdorf,"Oberdorfstrasse 6A, Baar",47.19560509999999,8.529992,Aldi
Denner Partner,"Albisstrasse 8, Kappel am Albis",47.229772,8.5272296,Aldi
Denner Partner,"Luzernerstrasse 10, Muri",47.2724083,8.3417698,Aldi
Lidl Schweiz,"Sagistrasse 10, Baar",47.1850661,8.5185,Aldi
Coop Supermarkt Cham Seehof,"Zugerstrasse 14, Cham",47.181466,8.461554399999999,Aldi
OTTO'S AG,"Stationsstrasse 3, Baldegg",47.1858483,8.279531799999999,Aldi
Volg Oberrüti,"Bahnhofstrasse 1, Oberrüti",47.1663693,8.395169,Aldi
Migros-Supermarkt - Unterägeri,"Zugerstrasse 32, Unterägeri",47.1380884,8.5795338,Migros
Migros-Supermarkt - Horgen - Schinzenhof,"Alte Landstrasse 24, Horgen",47.2604576,8.5973844,Migros
Migros-Supermarkt - Langnau a. A.,"Hintere Grundstrasse 2, Langnau am Albis",47.2913358,8.5378606,Migros
VOI Horgen,"Seestrasse 288, Horgen",47.2549206,8.612023899999999,Migros
Coop Supermarkt Langnau am Albis,"Höflistrasse 7, Langnau am Albis",47.2892437,8.5397724,Coop
Coop Supermarkt Horgen Waldegg,"Einsiedlerstrasse 301, Horgen",47.2454475,8.6079657,Coop
Coop Supermarkt Horgen Leue-Huus,"Zugerstrasse 35, Horgen",47.2592149,8.5987718,Coop
Coop Supermarkt Oberrieden,"Alte Landstrasse 26, Oberrieden",47.2782701,8.575498099999999,Coop
Coop Supermarkt Menzingen,"Carmelweg 1, Menzingen",47.1788523,8.588193,Coop
Coop Supermarkt Feldmeilen,"General-Wille-Strasse 65, Meilen",47.2795598,8.6153894,Coop
Coop Supermarkt Herrliberg,"Forchstrasse 45, Herrliberg",47.2862776,8.612815399999999,Coop
Coop Supermarkt Unterägeri Chilematt,"Waldheimstrasse 2, Unterägeri",47.13778610000001,8.5813355,Coop
Coop Supermarkt Oberägeri,"Hauptstrasse 15, Oberägeri",47.1350159,8.6129973,Coop
Coop Pronto Shop Horgen am Bahnhof,"Bahnhofstrasse 8, Horgen",47.2610931,8.597208000000002,Coop
SPAR Supermarkt Mettmenstetten,"Bahnhofstrasse 6/8, Mettmenstetten",47.2437599,8.4616419,Coop
Coop Pronto Shop mit Tankstelle Baar Sihlbruggstrasse,"Sihlbruggstrasse 152, Baar",47.2158993,8.5737694,Coop
Coop Pronto Shop mit Tankstelle Thalwil,"Seestrasse 67, Thalwil",47.2887054,8.5739479,Coop
Migros-Supermarkt - Unterägeri,"Zugerstrasse 32, Unterägeri",47.1380884,8.5795338,Coop
Lidl,"Gattikonerstrasse 135, Gattikon",47.28296,8.54392,Lidl
Lidl Schweiz,"Seestrasse 83 / 93, Horgen",47.2630694,8.591273600000001,Lidl
Aldi SUISSE,"General-Wille-Strasse 144, Meilen",47.2773348,8.617614999999999,Lidl
Lädeli und Werkstatt Tanne,"Alte Dorfstrasse 1, Langnau am Albis",47.2879624,8.5424696,Lidl
Denner Discount,"Zugerstrasse 32 / 34, Unterägeri",47.138071,8.5789168,Denner
Denner Discount,"Einkaufszentrum Schinzenhof, Dorfpl. 2, Horgen",47.259952,8.598059,Denner
Denner Discount,"Seestrasse 338, Horgen",47.2533677,8.6189602,Denner
Denner Express,"Neudorfstrasse 33, Menzingen",47.1768253,8.5933805,Denner
Denner Discount,"General-Wille-Strasse 144, Feldmeilen",47.2775352,8.6175988,Denner
Denner Express,"Hintere Grundstrasse 2, Langnau am Albis",47.2910976,8.5375936,Denner
Migros-Supermarkt - Horgen - Schinzenhof,"Alte Landstrasse 24, Horgen",47.2604576,8.5973844,Denner
Coop Supermarkt Baar Gotthard,"Poststrasse 3, Baar",47.1951121,8.5238544,Denner
Migros-Supermarkt - Cham - Neudorf,"Zugerstrasse 15/17, Cham",47.18240730000001,8.461297,Denner
Prima Herrliberg,"Rennweg 4, Herrliberg",47.2857847,8.6174876,Denner
Migros-Supermarkt - Zug Herti,"Hertizentrum 10, Zug",47.1780321,8.5059051,Denner
SPAR,"Buonaserstrasse 17, Risch-Rotkreuz",47.1412079,8.4308474,Denner
Coop Supermarkt Zug Neustadt,"Baarerstrasse 6, Zug",47.1709556,8.5164337,Denner
ALDI SUISSE,"Oberdorfstrasse 9, Baar",47.1963426,8.5300228,Denner
Migros-Supermarkt - Unterägeri,"Zugerstrasse 32, Unterägeri",47.1380884,8.5795338,Denner
Lidl Schweiz,"Hinterbergstrasse 19, Cham",47.1879802,8.47784,Denner
Coop Supermarkt Baar Oberdorf,"Oberdorfstrasse 6A, Baar",47.19560509999999,8.529992,Denner
Migros-Supermarkt - Langnau a. A.,"Hintere Grundstrasse 2, Langnau am Albis",47.2913358,8.5378606,Denner
SPAR Grocery Store Hünenberg,"Luzernerstrasse 101, Hünenberg",47.1734741,8.4490879,Denner
Coop Supermarkt Unterägeri Chilematt,"Waldheimstrasse 2, Unterägeri",47.13778610000001,8.5813355,Denner
Herti Mall,"Hertizentrum 10, Zug",47.1779576,8.5057368,Denner
Aldi SUISSE,"General-Wille-Strasse 144, Meilen",47.2773348,8.617614999999999,Denner
Coop Supermarkt Langnau am Albis,"Höflistrasse 7, Langnau am Albis",47.2892437,8.5397724,Denner
Coop Pronto Shop mit Tankstelle Baar Zugerstrasse,"Zugerstrasse 64, Baar",47.18483029999999,8.5201764,Denner
Volg Zug,"Oberallmendstrasse 24, Zug",47.18263899999999,8.5240227,Denner
Aldi SUISSE,"General-Wille-Strasse 144, Meilen",47.2773348,8.617614999999999,Aldi
Migros-Supermarkt - Horgen - Schinzenhof,"Alte Landstrasse 24, Horgen",47.2604576,8.5973844,Aldi
Coop Supermarkt Feldmeilen,"General-Wille-Strasse 65, Meilen",47.2795598,8.6153894,Aldi
Denner Discount,"General-Wille-Strasse 144, Feldmeilen",47.2775352,8.6175988,Aldi
Lidl Schweiz,"Seestrasse 83 / 93, Horgen",47.2630694,8.591273600000001,Aldi
Migros-Supermarkt - Meilen,"Rosengartenstrasse 10, Meilen",47.2684278,8.6453106,Migros
Migros-Supermarkt - Männedorf,"Alte Landstrasse 262, Männedorf",47.25284389999999,8.6959135,Migros
Migros-Supermarkt - Wädenswil,"Oberdorfstrasse 27-31, Wädenswil",47.2290391,8.667934899999999,Migros
Migros-Supermarkt - Richterswil,"Schützengass 4, Richterswil",47.2063432,8.705254499999999,Migros
Migros-Supermarkt - Wädenswil Zürisee Center,"Rütistrasse 1, Wädenswil",47.2350755,8.6374847,Migros
Migros-Supermarkt - Stäfa,"Goethestrasse 18, Stäfa",47.2408051,8.7242593,Migros
Migros-Supermarkt - Schindellegi,"Pfäffikonerstrasse 19, Schindellegi",47.1758732,8.7130995,Migros
Migros-Supermarkt - Wollerau Märt Roospark,"Roosstrasse 23, Wollerau",47.1919,8.7217431,Migros
Coop Supermarkt Wädenswil,"Zugerstrasse 6, Wädenswil",47.2303015,8.6724502,Coop
Coop Supermarkt Richterswil Obermatt,"Obermattstrasse 7, Richterswil",47.2038682,8.683904,Coop
Coop Supermarkt Meilen,"Dorfstrasse 140, Meilen",47.26866810000001,8.646594,Coop
Coop Supermarkt Uetikon,"Bergstrasse 93, Uetikon am See",47.2626851,8.677137199999999,Coop
Coop Supermarkt Wollerau,"Bahnhofstrasse 20, Wollerau",47.195209,8.7231056,Coop
Coop Supermarkt Stäfa,"Kronenstrasse 4, Stäfa",47.2414913,8.7244373,Coop
Coop Supermarkt Männedorf,"Dammstrasse 18, Männedorf",47.2554261,8.6898834,Coop
Coop Supermarkt Au Wädenswil,"Alte Landstrasse 26, Au ZH",47.2421349,8.6554706,Coop
Coop Supermarkt Richterswil Poststrasse,"Poststrasse 14B, Richterswil",47.2083291,8.7058053,Coop
Coop Supermarkt Wädenswil di alt Fabrik,"Florhofstrasse 9, Wädenswil",47.2306389,8.6699631,Coop
Migros-Supermarkt - Meilen,"Rosengartenstrasse 10, Meilen",47.2684278,8.6453106,Coop
Coop Supermarkt Männedorf Post,"Bahnhofstrasse 24, Männedorf",47.2527167,8.6929505,Coop
Migros-Supermarkt - Stäfa,"Goethestrasse 18, Stäfa",47.2408051,8.7242593,Coop
Coop Pronto Shop mit Tankstelle Richterswil,"Obermattstrasse 1, Richterswil",47.2034465,8.685186999999999,Coop
Coop Supermarkt Männedorf Bahnhof,"Bahnhofstrasse 24B, Männedorf",47.2528286,8.6929493,Coop
TAKE Express Shop,"Zugerstrasse 2, Wädenswil",47.2298757,8.673272599999999,Coop
Coop Pronto Shop mit Tankstelle Meilen,"Seestrasse 931, Meilen",47.2647859,8.6606123,Coop
Lidl Schweiz,"Hügsamstrasse 11, Samstagern",47.19606,8.67986,Lidl
Lidl Schweiz,"Steinacherstrasse 147, Wädenswil",47.23659,8.63606,Lidl
Volg Samstagern,"Stationsstrasse 40, Samstagern",47.1922905,8.680644899999999,Lidl
Migros-Supermarkt - Wädenswil,"Oberdorfstrasse 27-31, Wädenswil",47.2290391,8.667934899999999,Lidl
ALDI SUISSE,"Seestrasse 302/304, Wädenswil",47.2464746,8.646444899999999,Lidl
ALDI SUISSE,"Seestrasse 61, Männedorf",47.2572967,8.6833697,Lidl
Volg Männedorf,"Allenbergstrasse 2, Männedorf",47.256799,8.704022499999999,Lidl
ALDI SUISSE,"Zugerstrasse 1, Richterswil",47.2050777,8.7066964,Lidl
Denner Partner,"Schulhausstrasse 3/5, Oetwil am See",47.2711859,8.720855499999999,Denner
Denner Express,"Kreuzstrasse 4, Stäfa",47.240211,8.724529,Denner
Denner Express,"Marktgasse 18, Meilen",47.2692391,8.642732,Denner
Denner Discount,"Oberdorfstrasse 21, Wädenswil",47.2283082,8.668846799999999,Denner
Denner Discount,"Rosengartenstrasse 4, Richterswil",47.210037,8.703776,Denner
Denner Discount,"Wächlenstrasse 1, Wollerau",47.1963227,8.722434699999999,Denner
Denner Bibite,"Roosstrasse 23, Wollerau",47.1920587,8.7214998,Denner
Denner Discount,"Zentrum Leue, Alte Landstrasse 260-264, Männedorf",47.2529901,8.6960436,Denner
Migros-Supermarkt - Wollerau Märt Roospark,"Roosstrasse 23, Wollerau",47.1919,8.7217431,Denner
Coop Supermarkt Stäfa,"Kronenstrasse 4, Stäfa",47.2414913,8.7244373,Denner
Prima Meilen Dorf,"Dorfstrasse 78, Meilen",47.26979679999999,8.6425304,Denner
ALDI SUISSE,"Häldelistrasse 11, Stäfa",47.2414782,8.7184364,Denner
ALDI SUISSE,"Zugerstrasse 1, Richterswil",47.2050777,8.7066964,Aldi
ALDI SUISSE,"Häldelistrasse 11, Stäfa",47.2414782,8.7184364,Aldi
ALDI SUISSE,"Seestrasse 302/304, Wädenswil",47.2464746,8.646444899999999,Aldi
ALDI SUISSE,"Seestrasse 61, Männedorf",47.2572967,8.6833697,Aldi
Coop Supermarkt Männedorf,"Dammstrasse 18, Männedorf",47.2554261,8.6898834,Aldi
Migros-Supermarkt - Schindellegi,"Pfäffikonerstrasse 19, Schindellegi",47.1758732,8.7130995,Aldi
Migros-Supermarkt - Wädenswil,"Oberdorfstrasse 27-31, Wädenswil",47.2290391,8.667934899999999,Aldi
Coop Supermarkt Meilen,"Dorfstrasse 140, Meilen",47.26866810000001,8.646594,Aldi
Prima Meilen Dorf,"Dorfstrasse 78, Meilen",47.26979679999999,8.6425304,Aldi
Denner Discount,"Wächlenstrasse 1, Wollerau",47.1963227,8.722434699999999,Aldi
Lidl Schweiz,"Steinacherstrasse 147, Wädenswil",47.23659,8.63606,Aldi
avec,"Seestrasse 314, Au ZH",47.2467974,8.643348,Aldi
Volg Männedorf,"Allenbergstrasse 2, Männedorf",47.256799,8.704022499999999,Aldi
Migros-Supermarkt - Hombrechtikon,"Rütistrasse 16, Hombrechtikon",47.25190689999999,8.7695935,Migros
Migros-Supermarkt - Einsiedeln,"Eisenbahnstrasse 2, Einsiedeln",47.1287165,8.7460364,Migros
Migros-Supermarkt - Rapperswil - Sonnenhof,"Zürcherstrasse 4, Rapperswil-Jona",47.2294502,8.8213855,Migros
Migros-Supermarkt - Rapperswil - Zentrum,"u. Bahnhofstrasse 19, Rapperswil-Jona",47.2256951,8.8182107,Migros
Migros-Supermarkt - Pfäffikon - Seedammcenter,"Gwattstrasse 11, Pfäffikon",47.2004028,8.793173699999999,Migros
Coop Supermarkt Bubikon,"Ritterhausstrasse 3, Bubikon",47.27004849999999,8.8235466,Coop
Coop Supermarkt Hombrechtikon,"Blattenstrasse 2, Hombrechtikon",47.25312,8.7733173,Coop
Coop Supermarkt Pfäffikon SZ Etzelstrasse,"Etzelstrasse 14, Pfäffikon",47.20058340000001,8.778340199999999,Coop
Coop Supermarkt Pfäffikon SZ Seedamm,"Gwattstrasse 15, Pfäffikon",47.2006991,8.7941667,Coop
Coop Supermarkt Rapperswil Bahnhof,"u. Bahnhofstrasse 2, Rapperswil-Jona",47.2254105,8.8180932,Coop
Migros-Supermarkt - Schindellegi,"Pfäffikonerstrasse 19, Schindellegi",47.1758732,8.7130995,Coop
Coop Supermarkt Einsiedeln,"Schwanenstrasse 2, Einsiedeln",47.12690019999999,8.7458177,Coop
Coop Supermarkt Rapperswil,"Jägerweg 22, Rapperswil-Jona",47.2273412,8.8221325,Coop
Coop Supermarkt Pfäffikon Bahnhof,"Bahnweg 2, Pfäffikon",47.2028867,8.7788147,Coop
Coop Supermarkt Einsiedeln Wissmüli Markt K.,"Zürichstrasse 44, Einsiedeln",47.1328731,8.7448184,Coop
Coop Supermarkt Altendorf,"Zürcherstrasse 109b, Altendorf",47.1991801,8.8108577,Coop
Migros-Supermarkt - Horgen - Schinzenhof,"Alte Landstrasse 24, Horgen",47.2604576,8.5973844,Coop
Migros-Supermarkt - Hombrechtikon,"Rütistrasse 16, Hombrechtikon",47.25190689999999,8.7695935,Coop
Coop Pronto Shop mit Tankstelle Altendorf,"Zürcherstrasse 72, Altendorf",47.1938114,8.8174418,Coop
JUMBO Einsiedeln Wissmüli Markt K.,"Zürichstrasse 44, Einsiedeln",47.1324383,8.7451106,Coop
Coop Pronto Shop mit Tankstelle Einsiedeln,"Zürichstrasse 75, Einsiedeln",47.1392195,8.746207799999999,Coop
Migros-Supermarkt - Einsiedeln,"Eisenbahnstrasse 2, Einsiedeln",47.1287165,8.7460364,Coop
Lidl Schweiz,"Zürcherstrasse 68, Altendorf",47.19354999999999,8.81873,Lidl
Lidl Schweiz,"Zürichstrasse 73, Einsiedeln",47.13825,8.745949999999999,Lidl
Lidl Schweiz,"Obere Bahnhofstrasse 58-62, Rapperswil-Jona",47.22817,8.820230000000002,Lidl
Coop Supermarkt Pfäffikon Bahnhof,"Bahnweg 2, Pfäffikon",47.2028867,8.7788147,Lidl
ALDI SUISSE,"Firststrasse 19, Feusisberg",47.1898888,8.7400171,Lidl
ALDI SUISSE,"Häldelistrasse 11, Stäfa",47.2414782,8.7184364,Lidl
Denner Partner,"Im Zentrum 10, Hombrechtikon",47.25210089999999,8.7683602,Denner
Denner Express,"Dorfpl. 2, Altendorf",47.19205729999999,8.8298996,Denner
Denner Discount,"Ufenaustrasse 2, Freienbach",47.2035562,8.765935899999999,Denner
Denner Discount,"Zürichstrasse, Heidenbühl 2, Einsiedeln",47.1310516,8.743656699999999,Denner
Denner Discount,"Einkaufszentrum, Eisenbahnstrasse 2, Einsiedeln",47.128711,8.745946,Denner
Denner Discount,"Seedamm-Center, Freienbach",47.2009196,8.7928872,Denner
Denner Discount,"Zürcherstrasse 4, Rapperswil-Jona",47.2291956,8.820672499999999,Denner
Migros-Supermarkt - Männedorf,"Alte Landstrasse 262, Männedorf",47.25284389999999,8.6959135,Denner
Migros-Supermarkt - Einsiedeln,"Eisenbahnstrasse 2, Einsiedeln",47.1287165,8.7460364,Denner
Lidl Schweiz,"Zürcherstrasse 68, Altendorf",47.19354999999999,8.81873,Denner
Coop Supermarkt Pfäffikon SZ Seedamm,"Gwattstrasse 15, Pfäffikon",47.2006991,8.7941667,Denner
Lidl Schweiz,"Zürichstrasse 73, Einsiedeln",47.13825,8.745949999999999,Denner
ALDI SUISSE,"Firststrasse 19, Feusisberg",47.1898888,8.7400171,Denner
Volg Oetwil am See,"Willikonerstrasse 7, Oetwil am See",47.2702522,8.7214248,Denner
ALDI SUISSE,"Firststrasse 19, Feusisberg",47.1898888,8.7400171,Aldi
Coop Supermarkt Pfäffikon Bahnhof,"Bahnweg 2, Pfäffikon",47.2028867,8.7788147,Aldi
Lidl Schweiz,"Zürichstrasse 73, Einsiedeln",47.13825,8.745949999999999,Aldi
SPAR mini Rapperswil,"Oberseestrasse 58, Rapperswil-Jona",47.222824,8.8286546,Aldi
Lidl Schweiz,"Zürcherstrasse 68, Altendorf",47.19354999999999,8.81873,Aldi
ALIGRO Rapperswil-Jona,"Rütistrasse 155, Rapperswil-Jona",47.243775,8.8291944,Aldi
Migros-Supermarkt - Rüti ZH,"Bandwiesstrasse 6, Rüti",47.2580223,8.849253599999999,Migros
Migros-Supermarkt - Lachen,"Feldstrasse 6, Lachen",47.1915957,8.855888,Migros
Migros-Supermarkt - Wald ZH,"Bahnhofstrasse 20, Wald",47.2748977,8.9147502,Migros
Migros-Supermarkt - Eschenbach,"Rickenstrasse 12, Eschenbach",47.2410666,8.9240471,Migros
Migros-Supermarkt - Jona - Stadttor,"Molkereistrasse 5, Jona SG",47.231463,8.837396,Migros
VOI Siebnen,"Glarnerstrasse 36, Siebnen",47.1753904,8.900339599999999,Migros
Coop Supermarkt Bubikon,"Ritterhausstrasse 3, Bubikon",47.27004849999999,8.8235466,Migros
Coop Supermarkt Siebnen,"Stockbergstrasse 1, Schübelbach",47.1752568,8.9023399,Coop
Coop Supermarkt Wald ZH,"Bahnhofstrasse 33, Wald",47.2738257,8.9146733,Coop
Coop Supermarkt Lachen,"Feldstrasse 6, Lachen",47.191856,8.8553584,Coop
Coop Supermarkt Jona Eisenhof,"Allmeindstrasse 17, Jona SG",47.2314719,8.836679799999999,Coop
Coop Supermarkt Rüti,"Bandwiesstrasse 11, Rüti",47.25740330000001,8.8500132,Coop
Coop Supermarkt Jona Center,"St. Gallerstrasse 120, Jona SG",47.22969740000001,8.8489071,Coop
Coop Supermarkt Tann-Dürnten,"Abernstrasse 9, Tann ZH",47.2680291,8.8527212,Coop
Coop Supermarkt Eschenbach SG,"Obergass 15, Eschenbach",47.2408161,8.919815999999999,Coop
Migros-Supermarkt - Rüti ZH,"Bandwiesstrasse 6, Rüti",47.2580223,8.849253599999999,Coop
Migros-Supermarkt - Jona - Stadttor,"Molkereistrasse 5, Jona SG",47.231463,8.837396,Coop
Migros-Supermarkt - Rapperswil - Zentrum,"u. Bahnhofstrasse 19, Rapperswil-Jona",47.2256951,8.8182107,Coop
Migros-Supermarkt - Lachen,"Feldstrasse 6, Lachen",47.1915957,8.855888,Coop
Migros-Supermarkt - Wädenswil,"Oberdorfstrasse 27-31, Wädenswil",47.2290391,8.667934899999999,Coop
SPAR,"Forchstrasse 4, Esslingen ZH",47.287565,8.710875999999999,Coop
Denner Discount,"Oberdorfstrasse 21, Wädenswil",47.2283082,8.668846799999999,Coop
Lidl Schweiz,"Zürcherstrasse 68, Altendorf",47.19354999999999,8.81873,Coop
Denner Discount,"Bandwiesstrasse 1b, Rüti",47.2585402,8.849602299999999,Coop
Drüegg Bioladen,"Gerbestrasse 6, Wädenswil",47.22953099999999,8.673058,Coop
Lidl Schweiz,"Feldlistrasse 5, Jona SG",47.2292284,8.8470804,Lidl
Lidl Schweiz,"Zürcherstrasse 29c, Siebnen",47.17568,8.89388,Lidl
Denner Discount,"Glarnerstrasse 43, Siebnen",47.1758941,8.901967899999999,Lidl
Migros-Supermarkt - Jona - Stadttor,"Molkereistrasse 5, Jona SG",47.231463,8.837396,Lidl
Migros-Supermarkt - Rüti ZH,"Bandwiesstrasse 6, Rüti",47.2580223,8.849253599999999,Lidl
ALDI SUISSE,"Spitalstrasse 60, Rüti",47.2607967,8.839585399999999,Lidl
Coop Supermarkt Siebnen,"Stockbergstrasse 1, Schübelbach",47.1752568,8.9023399,Lidl
SPAR Supermarkt Rüti,"Ferrachstrasse 58, Rüti",47.2558954,8.856414299999999,Lidl
Engin Markt,"Stachelhofstrasse 3, Siebnen",47.1746777,8.9134727,Lidl
Denner Partner,"Laupenstrasse 8, Wald",47.2732089,8.9127247,Denner
Denner Partner,"Rickenstrasse 8, Eschenbach",47.2405665,8.9230264,Denner
Denner Discount,"Glarnerstrasse 43, Siebnen",47.1758941,8.901967899999999,Denner
Denner Discount,"Dorfstrasse 44, Rüti",47.2599294,8.8531616,Denner
Denner Discount,"Molkereistrasse 3, Jona SG",47.2313999,8.837416,Denner
Denner Discount,"Obersee-Center, Feldstrasse 6, Lachen",47.191883,8.855827999999999,Denner
Denner Discount,"Bandwiesstrasse 1b, Rüti",47.2585402,8.849602299999999,Denner
Lidl Schweiz,"Feldlistrasse 5, Jona SG",47.2292284,8.8470804,Denner
Migros-Supermarkt - Eschenbach,"Rickenstrasse 12, Eschenbach",47.2410666,8.9240471,Denner
Coop Supermarkt Jona Eisenhof,"Allmeindstrasse 17, Jona SG",47.2314719,8.836679799999999,Denner
Migros-Supermarkt - Lachen,"Feldstrasse 6, Lachen",47.1915957,8.855888,Denner
Coop Supermarkt Siebnen,"Stockbergstrasse 1, Schübelbach",47.1752568,8.9023399,Denner
Coop Supermarkt Lachen,"Feldstrasse 6, Lachen",47.191856,8.8553584,Denner
ALDI SUISSE,"Stachelhofstrasse 4, Siebnen",47.1753335,8.9123743,Denner
Dubach food Richterswil,"Schützengass 3, Richterswil",47.20614339999999,8.705269099999999,Denner
Prima Uetikon am See,"Bergstrasse 195, Uetikon am See",47.2672959,8.6753497,Denner
ALDI SUISSE,"Spitalstrasse 60, Rüti",47.2607967,8.839585399999999,Aldi
ALDI SUISSE,"Stachelhofstrasse 4, Siebnen",47.1753335,8.9123743,Aldi
Lidl Schweiz,"Zürcherstrasse 29c, Siebnen",47.17568,8.89388,Aldi
SPAR Supermarkt Wangen,"Bahnhofstrasse 12, Wangen",47.1897317,8.896500699999999,Aldi
Lidl Schweiz,"Feldlistrasse 5, Jona SG",47.2292284,8.8470804,Aldi
Engin Markt,"Stachelhofstrasse 3, Siebnen",47.1746777,8.9134727,Aldi
Migros-Supermarkt - Uznach - Frohsinn,"Zürcherstrasse 25, Uznach",47.2262636,8.980858,Migros
Migros-Supermarkt - Reichenburg,"Gewerbestrasse 4, Reichenburg",47.1723969,8.969543999999999,Migros
Migros-Partner - Kaltbrunn,"Uznacherstrasse 1, Kaltbrunn",47.2133878,9.024597499999999,Migros
Coop Supermarkt Rüti,"Bandwiesstrasse 11, Rüti",47.25740330000001,8.8500132,Migros
migrolino Wald,"Rütistrasse 29, Wald",47.273745,8.9119989,Migros
Coop Supermarkt Wald ZH,"Bahnhofstrasse 33, Wald",47.2738257,8.9146733,Migros
Coop Supermarkt Uznach Linthpark,"Burgerfeldstrasse 15, Uznach",47.2252616,8.9696164,Coop
Coop Supermarkt Reichenburg,"Kantonsstrasse 60, Reichenburg",47.1674786,8.9799641,Coop
Coop Supermarkt Gommiswald,"Rickenstrasse 25, Gommiswald",47.2333588,9.0204542,Coop
Migros-Supermarkt - Eschenbach,"Rickenstrasse 12, Eschenbach",47.2410666,8.9240471,Coop
SPAR Supermarkt Schmerikon,"Seegarten, Schmerikon",47.22590539999999,8.9490065,Coop
Migros-Supermarkt - Rapperswil - Sonnenhof,"Zürcherstrasse 4, Rapperswil-Jona",47.2294502,8.8213855,Coop
Migros-Supermarkt - Pfäffikon - Seedammcenter,"Gwattstrasse 11, Pfäffikon",47.2004028,8.793173699999999,Coop
Migros-Supermarkt - Uznach - Frohsinn,"Zürcherstrasse 25, Uznach",47.2262636,8.980858,Coop
VOI Siebnen,"Glarnerstrasse 36, Siebnen",47.1753904,8.900339599999999,Coop
ALDI SUISSE,"Spitalstrasse 60, Rüti",47.2607967,8.839585399999999,Coop
Denner Partner,"Schufelistrasse 2, Buttikon",47.1733846,8.9573998,Denner
Denner Partner,"Hauptstrasse 8, Bilten",47.1506013,9.0204627,Denner
Denner Satellit,"Dorfpl. 15, Gommiswald",47.2297629,9.0232053,Denner
Denner Discount,"Burgerfeldstrasse 15, Uznach",47.2254788,8.969557199999999,Denner
Coop Supermarkt Uznach Linthpark,"Burgerfeldstrasse 15, Uznach",47.2252616,8.9696164,Denner
Coop Supermarkt Gommiswald,"Rickenstrasse 25, Gommiswald",47.2333588,9.0204542,Denner
ALDI SUISSE,"Wiesentalstrasse 2, Uznach",47.2288377,8.965242,Denner
ALDI SUISSE,"Wiesentalstrasse 2, Uznach",47.2288377,8.965242,Aldi
Migros-Supermarkt - Uznach - Frohsinn,"Zürcherstrasse 25, Uznach",47.2262636,8.980858,Aldi
Migros-Supermarkt - Niederurnen,"Ziegelbrückstrasse 21, Niederurnen",47.12842630000001,9.056007,Migros
Migros-Supermarkt - Ebnat-Kappel,"Kapplerstrasse 16, Ebnat-Kappel",47.2650768,9.1206959,Migros
migrolino Siebnen,"Glarnerstrasse 77, Schübelbach",47.1761464,8.9076498,Migros
migrolino Schmerikon Bahnhof,"Bahnhofstrasse 2, Schmerikon",47.2251397,8.9432946,Migros
SPAR Supermarkt Weesen,"Hauptstrasse 6, Weesen",47.1334958,9.0949204,Migros
migrolino Schmerikon,"St. Gallerstrasse 75a, Schmerikon",47.2301382,8.9619365,Migros
Coop Supermarkt Niederurnen,"Ziegelbrückstrasse 16, Niederurnen",47.1271993,9.0554349,Migros
Coop Supermarkt Niederurnen,"Ziegelbrückstrasse 16, Niederurnen",47.1271993,9.0554349,Coop
Coop Supermarkt Ebnat-Kappel,"Gillstrasse 2, Ebnat-Kappel",47.2653472,9.121483,Coop
Migros-Supermarkt - Niederurnen,"Ziegelbrückstrasse 21, Niederurnen",47.12842630000001,9.056007,Coop
Coop Pronto Shop Glarnerland Raststätte,"Nideracher 1, Niederurnen",47.13761230000001,9.049589,Coop
SPAR Supermarkt Weesen,"Hauptstrasse 6, Weesen",47.1334958,9.0949204,Coop
Migros-Supermarkt - Ebnat-Kappel,"Kapplerstrasse 16, Ebnat-Kappel",47.2650768,9.1206959,Coop
EUROSPAR Schänis,"Biltnerstrasse 30, Schänis",47.15569860000001,9.0379808,Coop
Denner Partner,"Schufelistrasse 2, Buttikon",47.1733846,8.9573998,Coop
ALDI SUISSE,"Stachelhofstrasse 4, Siebnen",47.1753335,8.9123743,Coop
ALDI SUISSE,"Wiesentalstrasse 2, Uznach",47.2288377,8.965242,Coop
Engin Markt,"Stachelhofstrasse 3, Siebnen",47.1746777,8.9134727,Coop
CCV Casimiro Vieira Lebensmittel,"Zürcherstrasse 75, Uznach",47.2278509,8.9708446,Coop
Lidl Schweiz,"Säumergutstrasse 1, Schänis",47.1550129,9.0389096,Lidl
ALDI SUISSE,"Säumergutstrasse 3, Schänis",47.1553166,9.039966,Lidl
ALDI SUISSE,"Wiesentalstrasse 2, Uznach",47.2288377,8.965242,Lidl
Coop Supermarkt Gommiswald,"Rickenstrasse 25, Gommiswald",47.2333588,9.0204542,Lidl
Denner Partner,"Oberdorf 14, Schänis",47.1587986,9.0448785,Denner
Denner Discount,"Brugghof 7, Brugghof-Markt, Brugghof 7, Niederurnen",47.13062499999999,9.0583469,Denner
Lidl Schweiz,"Säumergutstrasse 1, Schänis",47.1550129,9.0389096,Denner
ALDI SUISSE,"Säumergutstrasse 3, Schänis",47.1553166,9.039966,Aldi
Lidl Schweiz,"Säumergutstrasse 1, Schänis",47.1550129,9.0389096,Aldi
Coop Supermarkt Nesslau,"Hauptstrasse 31, Nesslau",47.2255016,9.1995585,Migros
Coop Supermarkt Ebnat-Kappel,"Gillstrasse 2, Ebnat-Kappel",47.2653472,9.121483,Migros
Coop Supermarkt Nesslau,"Hauptstrasse 31, Nesslau",47.2255016,9.1995585,Coop
maxi,"Dorfstrasse 35, Amden",47.1495179,9.1440519,Coop
Migros-Supermarkt - Adliswil,"Albisstrasse 10, Adliswil",47.3111111,8.5252778,Migros
Migros-Supermarkt - Zürich - Limmatplatz,"Limmatstrasse 152, Zürich",47.38546299999999,8.531409199999999,Migros
Migros-Supermarkt - Zürich - Altstetten Neumarkt,"Neumarkt Altstetten, Altstetterstrasse 145, Zürich",47.3881781,8.486922,Migros
Migros-Supermarkt - Zürich - Albisriederplatz,"Badenerstrasse 376, Zürich",47.3791083,8.5087575,Migros
Migros-Supermarkt - Zürich - Wollishofen,"Etzelstrasse 3, Zürich",47.34472220000001,8.53,Migros
Migros Supermarket Zürich Schmiede Wiedikon,"Birmensdorferstrasse 140, Zürich",47.3700773,8.520128399999999,Migros
Migros-Supermarkt - Zürich - Pünt,"Albisriederstrasse 365, Zürich",47.3752654,8.485693099999999,Migros
Migros-Supermarkt - Zürich - Wiedikon M-Märt,"Birmensdorferstrasse 320, Zürich",47.3699559,8.508720799999999,Migros
Migros-Supermarkt - Bremgarten AG,"Zufikerstrasse 2, Bremgarten",47.352066,8.3498773,Migros
Migros-Supermarkt - Wohlen,"Bahnhofstrasse 7, Wohlen",47.3491497,8.272886999999999,Migros
Migros-Supermarkt - Uitikon-Waldegg,"Zürcherstrasse 8, Uitikon",47.3684463,8.4628667,Migros
Migros-Supermarkt - Zürich - Leimbach Sihlbogen,"Leimbachstrasse 23, Zürich",47.33600999999999,8.5188204,Migros
Migros-Supermarkt - Zürich - Brunaupark,"BRUNAUPARK, Giesshübelstrasse 65, Zürich",47.35838589999999,8.517647199999999,Migros
Migros,"Tessinerpl. 10, Zürich",47.36413049999999,8.5310291,Migros
Migros-Supermarkt - Birmensdorf,"Zürcherstrasse 15, Birmensdorf",47.3543045,8.4368112,Migros
Migros-Supermarkt - Urdorf - Spitzacker,"Birmensdorferstrasse 87, Urdorf",47.3850391,8.4217389,Migros
Migros Supermarket Zürich Wengihof,"Wengistrasse 7, Zürich",47.3749769,8.5230961,Migros
Migros-Supermarkt - Berikon - Mutschellen,"Bellikerstrasse 13, Berikon",47.3636141,8.3660605,Migros
Migros-Supermarkt - Zürich - Herdern,"Pfingstweidstrasse 101, Zürich",47.3902225,8.508951999999999,Migros
Migros-Supermarkt - Zürich - Stockerstrasse M-Express,"Stockerstrasse 47, Zürich",47.3683369,8.5341796,Migros
Migros-Supermarkt - Zürich - Altstetten M-Express,"Hohlstrasse 600, Zürich",47.3913612,8.4877977,Migros
Migros-Supermarkt - Zürich - Puls 5 M-Express,"Hardturmstrasse 11, Zürich",47.391336,8.518552999999999,Migros
Migros-Supermarkt - Zürich - HB Sihlquai,"Sihlpassage, Zürich",47.3784015,8.535615,Migros
Lärche-Märt,"Schachenstrasse 115, Bonstetten",47.32531549999999,8.4723525,Migros
MIGROS Markthalle,"Altstetterstrasse 133, Zürich",47.3890135,8.486950499999999,Migros
VOI Zürich - Leimbach,"Ankenweid 10, Zürich",47.3298113,8.5153465,Migros
VOI Zürich - In der Ey,"Letzigraben 239, Zürich",47.3705521,8.4927394,Migros
Migros,"Albisriederstrasse 253, Zürich",47.37834460000001,8.4938786,Migros
Coop Supermarkt Zürich Stauffacher,"Badenerstrasse 15, Zürich",47.37349589999999,8.5306239,Coop
Coop Supermarkt Zürich Wiedikon,"Birmensdorferstrasse 200, Zürich",47.370688,8.5160521,Coop
Coop Supermarkt Zürich Wollishofen,"Alte Kalchbühlstrasse 15, Zürich",47.340166,8.5305216,Coop
Coop Supermarkt Zürich Letzipark,"Baslerstrasse 50, Zürich",47.3859855,8.499333,Coop
Coop Supermarkt Zürich Altstetten,"Badenerstrasse 650, Zürich",47.3873629,8.4887157,Coop
Coop Supermarkt Zürich Sihlcity Supermarkt,"Kalanderpl. 1, Zürich",47.3576232,8.5231751,Coop
Coop Supermarkt Zürich Triemli,"In der Ey 85, Zürich",47.370577,8.4921401,Coop
Coop Supermarkt Zürich Lochergut,"Badenerstrasse 244, Zürich",47.3757357,8.517332999999999,Coop
Coop Supermarkt Zürich Albisriederplatz,"Badenerstrasse 333, Zürich",47.3777615,8.5112322,Coop
Coop Supermarkt Zürich A-Park,"Albisriederstrasse 334, Zürich",47.3761905,8.4870812,Coop
Coop Supermarkt Zürich Friesenberg,"Friesenbergpl. 3, Zürich",47.3611712,8.5065159,Coop
Coop Supermarkt Bremgarten,"Sonnengutstrasse 2, Bremgarten",47.35163379999999,8.3482326,Coop
Coop Supermarkt Zürich Josefstrasse,"Röntgenstrasse 48, Zürich",47.38479760000001,8.5272308,Coop
Coop Supermarkt Zürich Lindenplatz,"Lindenpl. 6, Zürich",47.3876386,8.4853846,Coop
Coop Supermarkt Zürich Hohlstrasse,"Hohlstrasse 35, Zürich",47.3771017,8.526581,Coop
Coop Supermarkt Adliswil,"Poststrasse 3, Adliswil",47.3130348,8.525553,Coop
Coop Supermarkt Zürich Leimbach,"Leimbachstrasse 200, Zürich",47.3262298,8.5143126,Coop
Coop Supermarkt Zürich Suteracher,"Am Suteracher 14, Zürich",47.389955,8.4720952,Coop
Coop Supermarkt Wohlen,"Alte Bahnhofstrasse 2, Wohlen",47.3502336,8.2704758,Coop
Coop Supermarkt Bonstetten,"Im Heumoos 25, Bonstetten",47.3242617,8.4687693,Coop
Coop Supermarkt Zürich Manessehof,"Uetlibergstrasse 20, Zürich",47.3648791,8.5210603,Coop
Coop Supermarkt Zürich Gutstrasse,"Gutstrasse 159, Zürich",47.3737036,8.502472599999999,Coop
Coop Supermarkt Zürich Wollishofen Seestr.,"Seestrasse 339, Zürich",47.3472506,8.5330098,Coop
Coop Supermarkt Uitikon Waldegg,"Waldegg CH, Zürcherstrasse 1, Uitikon",47.3677796,8.461761599999999,Coop
Coop Supermarkt Birmensdorf,"Zürcherstrasse 13a, Birmensdorf",47.3537676,8.4368392,Coop
Coop Supermarkt Zürich Enge Bahnhof,"Tessinerpl. 10, Zürich",47.3645195,8.5308191,Coop
Coop Supermarkt Prime 2,"Maschinenstrasse 10, Zürich",47.3875062,8.5174018,Coop
Coop Supermarkt Stallikon,"Sellenbüren 61, Stallikon",47.3428345,8.483062,Coop
Coop Supermarkt Berikon,"Beri-Märt, Bahnhofstrasse 3, Berikon",47.3617778,8.3678741,Coop
Coop Supermarkt Zürich Talwiesenstrasse,"Birmensdorferstrasse 310, Zürich",47.3699283,8.5091023,Coop
Coop Supermarkt Zürich Kalandergasse,"Kalandergasse 4, Zürich",47.359146,8.5228009,Coop
Coop Pronto Shop Zürich Prime Tower,"Hardstrasse 221, Zürich",47.3863992,8.5176807,Coop
Coop Supermarkt Zürich Militärstrasse,"Militärstrasse 106, Zürich",47.3793208,8.528788700000002,Coop
Coop Supermarkt Zürich Europaallee Passage,"Europaallee 5, Zürich",47.37783599999999,8.534764599999999,Coop
Coop Supermarkt Zürich Puls 5,"Giessereistrasse 18, Zürich",47.3907648,8.518288499999999,Coop
Coop Pronto Shop Zürich Badenerstrasse 120,"Badenerstrasse 120, Zürich",47.3744557,8.5240428,Coop
Coop Supermarkt Zürich Zollstrasse,"Zollstrasse 42, Zürich",47.38049549999999,8.534856,Coop
Coop Supermarkt Zürich Westlink,"Vulkanpl., Zürich",47.3921018,8.4901313,Coop
Coop Pronto Shop Zürich Wiedikon,"Birmensdorferstrasse 55, Zürich",47.3713653,8.525133499999999,Coop
Coop Pronto Shop Zürich Stauffacher,"Badenerstrasse 44, Zürich",47.3734124,8.5284011,Coop
Migros-Supermarkt - Zürich - Albisriederplatz,"Badenerstrasse 376, Zürich",47.3791083,8.5087575,Coop
Coop Supermarkt Zürich Hard Turm Park,"Pfingstweidstrasse 106, Zürich",47.3911184,8.508009699999999,Coop
Migros Supermarket Zürich Schmiede Wiedikon,"Birmensdorferstrasse 140, Zürich",47.3700773,8.520128399999999,Coop
Coop Pronto Shop Zürich am Bahnhof Enge,"Tessinerpl. 3, Zürich",47.3644142,8.5322192,Coop
Migros-Supermarkt - Zürich - Pünt,"Albisriederstrasse 365, Zürich",47.3752654,8.485693099999999,Coop
Coop Pronto Shop Zürich Kiss,"Badenerstrasse 575, Zürich",47.3846747,8.4958213,Coop
Coop Pronto,"Hohlstrasse 461, Zürich",47.3878017,8.4986327,Coop
Coop Pronto Shop Zürich Hohlstrasse,"Hohlstrasse 560, Zürich",47.3909986,8.489169,Coop
Migros-Supermarkt - Birmensdorf,"Zürcherstrasse 15, Birmensdorf",47.3543045,8.4368112,Coop
Coop Pronto Shop Zürich Löwenstrasse,"Löwenstrasse 7, Zürich",47.3733669,8.534484299999999,Coop
Migros-Supermarkt - Zürich - Limmatplatz,"Limmatstrasse 152, Zürich",47.38546299999999,8.531409199999999,Coop
Coop Pronto Shop mit Tankstelle Bremgarten,"Badenerstrasse 2, Bremgarten",47.355061,8.3501315,Coop
Migros-Supermarkt - Bremgarten AG,"Zufikerstrasse 2, Bremgarten",47.352066,8.3498773,Coop
Coop Supermarkt Zürich Hard Turm Park,"Pfingstweidstrasse 106, Zürich",47.391181,8.507968,Coop
Lidl Schweiz,"Soodring 25, Adliswil",47.3195264,8.5202713,Lidl
Lidl Schweiz,"Grubenstrasse 28, Zürich",47.3617687,8.51472,Lidl
Lidl,"Pflanzschulstrasse 7, Zürich",47.3754231,8.519397699999999,Lidl
Lidl Schweiz,"Alte Bremgartenstrasse 10b, Rudolfstetten-Friedlisberg",47.36864000000001,8.3802097,Lidl
ALDI SUISSE,"Hohlstrasse 473, Zürich",47.3883187,8.4967741,Lidl
Migros-Supermarkt - Zürich - Limmatplatz,"Limmatstrasse 152, Zürich",47.38546299999999,8.531409199999999,Lidl
ALDI SUISSE,"Soodring 36, Adliswil",47.316118,8.520560999999999,Lidl
Migros Supermarket Zürich Schmiede Wiedikon,"Birmensdorferstrasse 140, Zürich",47.3700773,8.520128399999999,Lidl
Coop Supermarkt Zürich Hohlstrasse,"Hohlstrasse 35, Zürich",47.3771017,8.526581,Lidl
Migros-Supermarkt - Zürich - Puls 5 M-Express,"Hardturmstrasse 11, Zürich",47.391336,8.518552999999999,Lidl
ALDI SUISSE,"Zollstrasse 58, Zürich",47.3808365,8.5331893,Lidl
Migros-Supermarkt - Adliswil,"Albisstrasse 10, Adliswil",47.3111111,8.5252778,Lidl
Coop Supermarkt Zürich Lochergut,"Badenerstrasse 244, Zürich",47.3757357,8.517332999999999,Lidl
ALDI SUISSE,"Bernstrasse 378, Dietikon",47.3855111,8.3957628,Lidl
Denner Express,"Josefstrasse 92, Zürich",47.383201,8.5309636,Denner
Denner Discount,"Fierzgasse 18, Zürich",47.3838772,8.531965699999999,Denner
Denner Express,"Uetlibergstrasse 102, Zürich",47.3618221,8.5177626,Denner
Denner Express,"Sihlhallenstrasse 5/7, Zürich",47.3795631,8.5270919,Denner
Denner Express,"Lindenpl. 4, Zürich",47.3872504,8.4860262,Denner
Denner Discount,"Tiefackerstrasse 20, Adliswil",47.3153539,8.530547199999999,Denner
Denner Express,"Wengistrasse 7, Zürich",47.3748794,8.523428299999999,Denner
Denner Discount,"Werdstrasse 36, Zürich",47.3728511,8.5296261,Denner
Denner Discount,"Birmensdorferstrasse 406, Zürich",47.3692138,8.503050499999999,Denner
Denner Express,"Soodstrasse 52, Adliswil",47.320401,8.521865,Denner
Denner Satellit,"Isenlaufstrasse 2, Bremgarten",47.3465381,8.3402746,Denner
Denner Discount,"Florastrasse 10 Ladenzentrum Bahnhof, Adliswil",47.3122946,8.5243374,Denner
Denner Discount,"Alte Bahnhofstrasse 27, Wohlen",47.3500933,8.2696273,Denner
Denner Express,"Molkenstrasse 8, Zürich",47.3766312,8.5272316,Denner
Denner Discount,"Limmatstrasse 152, Zürich",47.3857949,8.5319332,Denner
Denner Discount,"Einkaufszentrum, Bellikerstrasse 15, Berikon",47.3638497,8.366189,Denner
Denner Discount,"Areal Sternen, Zürcherstrasse 110, Birmensdorf",47.35967489999999,8.4540341,Denner
Denner Discount,"Bremgarterstrasse 48, Wohlen",47.3471108,8.2905898,Denner
Denner Discount,"Badenerstrasse 621, Zürich",47.3857711,8.492477599999999,Denner
Denner Discount,"Etzelstrasse 6, Zürich",47.344521,8.5308089,Denner
Denner Discount,"Bockhornstrasse 1, Zürich",47.3759661,8.4840007,Denner
Denner Express,"Badenerstrasse 296, Zürich",47.3770882,8.5134391,Denner
Denner Discount,"Zugerstrasse 3, Bremgarten",47.350069,8.3456882,Denner
Denner Discount,"Giesshübelstrasse 65, Zürich",47.358222,8.517876,Denner
Denner Discount,"Letzigraben 120, Zürich",47.3765282,8.4974426,Denner
Denner Discount,"Birmensdorferstrasse 320, Zürich",47.3700753,8.5087137,Denner
Denner Discount,"Einkaufszentrum, Zufikerstrasse 2, Bremgarten",47.352699,8.349618999999999,Denner
Denner Discount,"im OG, Altstetterstrasse 145, Zürich",47.3884662,8.486958999999999,Denner
Denner Discount,"Birmensdorferstrasse 79 Einkaufszentrum Spitzacker, Urdorf",47.3850777,8.422424,Denner
Denner Discount,"Limmatstrasse 275, Zürich",47.3887665,8.5250706,Denner
Denner Discount,"Baslerstrasse 50, Zürich",47.38592480000001,8.499636299999999,Denner
Denner Discount,"Bachmattstrasse 59, Zürich",47.3890517,8.483677000000002,Denner
Migros-Supermarkt - Urdorf - Spitzacker,"Birmensdorferstrasse 87, Urdorf",47.3850391,8.4217389,Denner
Coop Supermarkt Zürich Talwiesenstrasse,"Birmensdorferstrasse 310, Zürich",47.3699283,8.5091023,Denner
Denner Discount,"Hohlstrasse 610, Zürich",47.3919223,8.4848562,Denner
Migros Supermarket Zürich Wengihof,"Wengistrasse 7, Zürich",47.3749769,8.5230961,Denner
Migros-Supermarkt - Zürich - Wollishofen,"Etzelstrasse 3, Zürich",47.34472220000001,8.53,Denner
ALDI SUISSE,"Hohlstrasse 473, Zürich",47.3883187,8.4967741,Denner
Coop Supermarkt Zürich Letzipark,"Baslerstrasse 50, Zürich",47.3859855,8.499333,Denner
Migros-Supermarkt - Zürich - Limmatplatz,"Limmatstrasse 152, Zürich",47.38546299999999,8.531409199999999,Denner
Migros-Supermarkt - Bremgarten AG,"Zufikerstrasse 2, Bremgarten",47.352066,8.3498773,Denner
Migros Supermarket Zürich Schmiede Wiedikon,"Birmensdorferstrasse 140, Zürich",47.3700773,8.520128399999999,Denner
Migros-Supermarkt - Zürich - Wiedikon M-Märt,"Birmensdorferstrasse 320, Zürich",47.3699559,8.508720799999999,Denner
Coop Supermarkt Zürich Stauffacher,"Badenerstrasse 15, Zürich",47.37349589999999,8.5306239,Denner
Coop Supermarkt Wohlen,"Alte Bahnhofstrasse 2, Wohlen",47.3502336,8.2704758,Denner
Coop Supermarkt Zürich Wollishofen,"Alte Kalchbühlstrasse 15, Zürich",47.340166,8.5305216,Denner
Coop Supermarkt Bremgarten,"Sonnengutstrasse 2, Bremgarten",47.35163379999999,8.3482326,Denner
migrolino Bremgarten,"Zürcherstrasse 8, Bremgarten",47.3513448,8.3457318,Denner
ALDI SUISSE,"Badenerstrasse 565, Zürich",47.3837812,8.4975848,Denner
ALDI SUISSE,"Dietlimoosplatz 1, Adliswil",47.3221605,8.529346199999999,Denner
ALDI SUISSE,"Dietlimoosplatz 1, Adliswil",47.3221605,8.529346199999999,Aldi
ALDI SUISSE,"Badenerstrasse 565, Zürich",47.3837812,8.4975848,Aldi
ALDI SUISSE,"Birmensdorferstrasse 313, Zürich",47.3695917,8.509188199999999,Aldi
ALDI SUISSE,"Hohlstrasse 473, Zürich",47.3883187,8.4967741,Aldi
ALDI SUISSE,"Zollstrasse 58, Zürich",47.3808365,8.5331893,Aldi
ALDI SUISSE,"Lägernstrasse 5, Wohlen",47.35840349999999,8.2727524,Aldi
ALDI SUISSE,"Soodring 36, Adliswil",47.316118,8.520560999999999,Aldi
ALDI SUISSE,"Bernstrasse 378, Dietikon",47.3855111,8.3957628,Aldi
ALDI SUISSE,"Albisstrasse 81, Zürich",47.3409069,8.5306032,Aldi
ALDI SUISSE,"Mythenquai 353, Zürich",47.3454539,8.534685999999999,Aldi
Coop Supermarkt Zürich Letzipark,"Baslerstrasse 50, Zürich",47.3859855,8.499333,Aldi
Migros-Supermarkt - Zürich - Leimbach Sihlbogen,"Leimbachstrasse 23, Zürich",47.33600999999999,8.5188204,Aldi
Lidl Schweiz,"Soodring 25, Adliswil",47.3195264,8.5202713,Aldi
Denner Discount,"Tiefackerstrasse 20, Adliswil",47.3153539,8.530547199999999,Aldi
SPAR,"Freilagerstrasse 51, Zürich",47.3800427,8.4896586,Aldi
Lidl Schweiz,"Alte Bremgartenstrasse 10b, Rudolfstetten-Friedlisberg",47.36864000000001,8.3802097,Aldi
Migros-Supermarkt - Adliswil,"Albisstrasse 10, Adliswil",47.3111111,8.5252778,Aldi
Migros Supermarket Zürich Schmiede Wiedikon,"Birmensdorferstrasse 140, Zürich",47.3700773,8.520128399999999,Aldi
Coop Supermarkt Zürich Hohlstrasse,"Hohlstrasse 35, Zürich",47.3771017,8.526581,Aldi
Denner Express,"Josefstrasse 92, Zürich",47.383201,8.5309636,Aldi
Aggarwal AG,"Kernstrasse 27, Zürich",47.376115,8.5242097,Aldi
Migros-Supermarkt - Zürich - Limmatplatz,"Limmatstrasse 152, Zürich",47.38546299999999,8.531409199999999,Aldi
Coop Supermarkt Zürich Gutstrasse,"Gutstrasse 159, Zürich",47.3737036,8.502472599999999,Aldi
Migros-Supermarkt - Zürich - HB Sihlquai,"Sihlpassage, Zürich",47.3784015,8.535615,Aldi
Coop Supermarkt Zürich Puls 5,"Giessereistrasse 18, Zürich",47.3907648,8.518288499999999,Aldi
Denner Discount,"Florastrasse 10 Ladenzentrum Bahnhof, Adliswil",47.3122946,8.5243374,Aldi
Coop Supermarkt Zürich Stauffacher,"Badenerstrasse 15, Zürich",47.37349589999999,8.5306239,Aldi
Coop Supermarkt Zürich Wollishofen,"Alte Kalchbühlstrasse 15, Zürich",47.340166,8.5305216,Aldi
Volg,"Staldenstrasse 3, Arni",47.3188896,8.4198875,Aldi
Migros-Supermarkt - Wohlen,"Bahnhofstrasse 7, Wohlen",47.3491497,8.272886999999999,Aldi
Denner Discount,"Bockhornstrasse 1, Zürich",47.3759661,8.4840007,Aldi
Coop Supermarkt Zürich Lochergut,"Badenerstrasse 244, Zürich",47.3757357,8.517332999999999,Aldi
Denner Discount,"Limmatstrasse 275, Zürich",47.3887665,8.5250706,Aldi
Coop Supermarkt Zürich Europaallee Passage,"Europaallee 5, Zürich",47.37783599999999,8.534764599999999,Aldi
Lidl,"Pflanzschulstrasse 7, Zürich",47.3754231,8.519397699999999,Aldi
Migros,"Löwenstrasse 31-35 2. und 3. OG, Zürich",47.37538319999999,8.5360797,Migros
Migros-Supermarkt - Zürich - Rigiplatz,"Winterthurerstrasse 2/4, Zürich",47.3860283,8.548558,Migros
Migros-Supermarkt - Zürich - Witikon-Zentrum,"Witikonerstr. 293, Zürich",47.35909299999999,8.5856,Migros
Migros-Supermarkt - Zürich - Hauptbahnhof,"Hauptbahnhof, Zürich",47.3779303,8.5391097,Migros
Migros-Supermarkt - Zürich - Kreuzplatz,"Kreuzpl. 20, Zürich",47.3645128,8.5537736,Migros
Migros-Supermarkt - Zollikon - Dorf,"Rotfluhstrasse 100, Zollikon",47.33785350000001,8.5763169,Migros
Migros-Supermarkt - Zumikon,"Dorfstrasse 17, Zumikon",47.3365527,8.618935000000002,Migros
Migros-Supermarkt - Küsnacht ZH,"Zürichstrasse 149, Küsnacht",47.3185082,8.5819262,Migros
Migros-Supermarkt - Thalwil,"Alte Landstrasse 130, Thalwil",47.2943495,8.563848799999999,Migros
Migros-Supermarkt - Erlenbach - Erlibacher Märt,"Bahnhofstrasse 42, Erlenbach",47.3070228,8.590430999999999,Migros
Migros Supermarket Zürich Stadelhofen,"Falkenstrasse 19/21, Zürich",47.3654649,8.5479404,Migros
Migros-Supermarkt - Zürich - Toblerplatz,"Toblerstrasse 73, Zürich",47.37936819999999,8.5595208,Migros
Migros-Supermarkt - Zürich - Höschgasse,"Seefeldstrasse 111/113, Zürich",47.3583352,8.5540826,Migros
Migros-Supermarkt - Zürich - Burgwies,"Forchstrasse 260, Zürich",47.3576042,8.5716275,Migros
Migros-Supermarkt - Rüschlikon Parkside,"Zürcherstrasse 4, Rüschlikon",47.3000908,8.548938399999999,Migros
Migros-Supermarket - Zürich - ShopVilleMärt,"Shop Ville Zürich Hauptbahnhof, Zürich",47.3771228,8.5394461,Migros
Migros Daily Take Away - Daily Zürich-Zollstrasse,"Zollstrasse 6, Zürich",47.3798176,8.5369492,Migros
Coop Supermarkt City Zürich St. Annahof Food,"Bahnhofstrasse 57, Zürich",47.372955,8.5378441,Migros
Coop Supermarkt Erlenbach,"Seestrasse 17, Erlenbach",47.3069341,8.5892955,Migros
Coop Supermarkt City Zürich St. Annahof Food,"Bahnhofstrasse 57, Zürich",47.372955,8.5378441,Coop
Coop Supermarket Zurich Train Station ShopVille,"Halle, Löwenstrasse, Zürich",47.3778272,8.540287,Coop
Coop Supermarkt Zürich Bahnhofbrücke,"Bahnhofbrücke 1, Zürich",47.3764584,8.5423575,Coop
Coop Supermarkt Zürich Witikonerstrasse,"Witikonerstr. 409, Zürich",47.36022639999999,8.5946717,Coop
Coop Supermarkt Zürich Fluntern,"Zürichbergstrasse 75, Zürich",47.3764152,8.5595933,Coop
Coop Supermarkt Zürich Rigiplatz,"Universitätstrasse 101, Zürich",47.3839528,8.5481199,Coop
Coop Supermarkt Zürich Seefeld,"Seefeldstrasse 123, Zürich",47.3580373,8.5547665,Coop
Coop Supermarkt Zürich Römerhof,"Klosbachstrasse 104, Zürich",47.36788809999999,8.5608275,Coop
Coop Supermarkt Zürich Universitätstrasse,"Universitätstrasse 73, Zürich",47.3825178,8.548044899999999,Coop
Coop Supermarkt Thalwil,"Florastrasse 1, Thalwil",47.2965946,8.5622002,Coop
Coop Supermarkt Zürich Bärengasse,"Bärengasse 16, Zürich",47.3700619,8.537119299999999,Coop
Coop Supermarkt Zürich Tiefenbrunnen,"Seefeldstrasse 199, Zürich",47.3533001,8.5589637,Coop
Coop Supermarkt,"Stadelhoferstrasse 10, Zürich",47.366789,8.5480012,Coop
Coop Supermarkt Zumikon Morgental,"Morgental 39, Zumikon",47.3366476,8.6183122,Coop
Coop Supermarkt Küsnacht Dorf,"Dorfstrasse 16, Küsnacht",47.3179866,8.581712099999999,Coop
Coop Supermarkt Zürich Kreuzplatz,"Forchstrasse 4, Zürich",47.364337,8.5551202,Coop
Coop Supermarkt Zollikon,"Alte Landstrasse 101, Zollikon",47.336907,8.5767288,Coop
Coop Supermarkt Kilchberg,"Bahnhofstrasse 11, Kilchberg",47.3231335,8.5489812,Coop
Coop Supermarkt Zürich Brotgasse,"Seefeldstrasse 35, Zürich",47.3631276,8.5498811,Coop
Coop Supermarkt Erlenbach,"Seestrasse 17, Erlenbach",47.3069341,8.5892955,Coop
Coop Supermarkt Rüschlikon,"Weingartenstrasse 11, Rüschlikon",47.3076821,8.5542225,Coop
Coop Supermarkt Zürich Bleicherweg,"Bleicherweg 19, Zürich",47.3678568,8.5360018,Coop
Coop Supermarkt Zollikerberg,"Forchstrasse 180, Zollikerberg",47.3461139,8.6018355,Coop
Coop Supermarkt Zollikerberg Neumünster,"Forchstrasse 134, Zollikerberg",47.34706689999999,8.59681,Coop
Coop Supermarkt Küsnacht Itschnach,"Sonnenrein Ecke, Zumikerstrasse, Küsnacht",47.3270629,8.601719,Coop
Lidl Schweiz,"Fraumünsterstrasse 16, Zürich",47.3688262,8.5411485,Lidl
Lidl Schweiz,"Eggstrasse 88, Rüschlikon",47.3033099,8.5445741,Lidl
Coop Supermarkt City Zürich St. Annahof Food,"Bahnhofstrasse 57, Zürich",47.372955,8.5378441,Lidl
Coop Supermarkt Zürich Bahnhofbrücke,"Bahnhofbrücke 1, Zürich",47.3764584,8.5423575,Lidl
Migros,"Löwenstrasse 31-35 2. und 3. OG, Zürich",47.37538319999999,8.5360797,Lidl
ALDI SUISSE,"Sihlstrasse 3, Zürich",47.37372690000001,8.5376525,Lidl
Coop Supermarkt Zürich Fluntern,"Zürichbergstrasse 75, Zürich",47.3764152,8.5595933,Lidl
Migros Supermarket Zürich Stadelhofen,"Falkenstrasse 19/21, Zürich",47.3654649,8.5479404,Lidl
Migros-Supermarkt - Zürich - Hauptbahnhof,"Hauptbahnhof, Zürich",47.3779303,8.5391097,Lidl
Migros-Supermarkt - Zürich - HB Sihlquai,"Sihlpassage, Zürich",47.3784015,8.535615,Lidl
Coop Supermarket Zurich Train Station ShopVille,"Halle, Löwenstrasse, Zürich",47.3778272,8.540287,Lidl
Coop Supermarkt Zürich Europaallee Passage,"Europaallee 5, Zürich",47.37783599999999,8.534764599999999,Lidl
ALDI SUISSE,"Witikonerstr. 279, Zürich",47.35863060000001,8.5854632,Lidl
Coop Supermarkt Zürich Manessehof,"Uetlibergstrasse 20, Zürich",47.3648791,8.5210603,Lidl
Coop Supermarkt Zürich Stauffacher,"Badenerstrasse 15, Zürich",47.37349589999999,8.5306239,Lidl
ALDI SUISSE,"Badenerstrasse 565, Zürich",47.3837812,8.4975848,Lidl
SPAR,"Spinnereipl. 2, Zürich",47.3383408,8.520264899999999,Lidl
Coop Supermarkt Zürich Puls 5,"Giessereistrasse 18, Zürich",47.3907648,8.518288499999999,Lidl
ALDI SUISSE,"Stadelhoferstrasse 10, Zürich",47.366789,8.5480012,Lidl
Denner Express,"Toblerstrasse 76, Zürich",47.3789028,8.5595124,Denner
Denner Discount,"Hochweidstrasse 3, Kilchberg",47.3170173,8.5387276,Denner
Denner Express,"Kreuzstrasse 40, Zürich",47.3634087,8.5503617,Denner
Denner Express,"Schaffhauserstrasse 11, Zürich",47.3888865,8.538875599999999,Denner
Denner Express,"Apollostrasse 2, Zürich",47.364459,8.5556508,Denner
Denner Express,"Hottingerstrasse 52, Zürich",47.3690299,8.5558873,Denner
Denner Express,"Forchstrasse 261, Zürich",47.358492,8.5721215,Denner
Denner Express,"Winterthurerstrasse 83, Zürich",47.3907509,8.545168199999999,Denner
Denner Discount,"Alte Landstrasse 130, Thalwil",47.2943,8.5641,Denner
Denner Discount,"Parkside, Zürcherstrasse 6, Rüschlikon",47.3002974,8.5489748,Denner
Denner Discount,"Witikonerstrasse 299, Einkaufszentrum Witikon, Zürich",47.3584599,8.5862955,Denner
Denner Discount,"Dorfstrasse 17, Zumikon",47.3365777,8.6189532,Denner
Denner Discount,"Erlibacher Märt, Bahnhofstrasse 40 / 42, Erlenbach",47.3069935,8.5904701,Denner
Coop Supermarkt City Zürich St. Annahof Food,"Bahnhofstrasse 57, Zürich",47.372955,8.5378441,Denner
Migros Daily Take Away - Daily Zürich-Zollstrasse,"Zollstrasse 6, Zürich",47.3798176,8.5369492,Denner
Migros-Supermarkt - Rüschlikon Parkside,"Zürcherstrasse 4, Rüschlikon",47.3000908,8.548938399999999,Denner
ALDI SUISSE,"Sihlstrasse 3, Zürich",47.37372690000001,8.5376525,Aldi
ALDI SUISSE,"Stadelhoferstrasse 10, Zürich",47.366789,8.5480012,Aldi
ALDI SUISSE,"Witikonerstr. 279, Zürich",47.35863060000001,8.5854632,Aldi
ALDI SUISSE,"Dorfpl. 14, Zumikon",47.3324879,8.6235581,Aldi
Migros Supermarket Zürich Stadelhofen,"Falkenstrasse 19/21, Zürich",47.3654649,8.5479404,Aldi
Denner Express,"Toblerstrasse 76, Zürich",47.3789028,8.5595124,Aldi
Coop Supermarkt Zürich Kreuzplatz,"Forchstrasse 4, Zürich",47.364337,8.5551202,Aldi
Coop Supermarkt Zürich Fluntern,"Zürichbergstrasse 75, Zürich",47.3764152,8.5595933,Aldi
Migros-Supermarkt - Zürich - Witikon-Zentrum,"Witikonerstr. 293, Zürich",47.35909299999999,8.5856,Aldi
Coop Supermarkt City Zürich St. Annahof Food,"Bahnhofstrasse 57, Zürich",47.372955,8.5378441,Aldi
Coop Supermarkt Zürich Witikonerstrasse,"Witikonerstr. 409, Zürich",47.36022639999999,8.5946717,Aldi
Migros,"Löwenstrasse 31-35 2. und 3. OG, Zürich",47.37538319999999,8.5360797,Aldi
Coop Supermarkt Küsnacht Itschnach,"Sonnenrein Ecke, Zumikerstrasse, Küsnacht",47.3270629,8.601719,Aldi
Coop Supermarkt Zürich Bahnhofbrücke,"Bahnhofbrücke 1, Zürich",47.3764584,8.5423575,Aldi
Coop Supermarket Zurich Train Station ShopVille,"Halle, Löwenstrasse, Zürich",47.3778272,8.540287,Aldi
Migros-Supermarkt - Zürich - Hauptbahnhof,"Hauptbahnhof, Zürich",47.3779303,8.5391097,Aldi
Lidl Schweiz,"Fraumünsterstrasse 16, Zürich",47.3688262,8.5411485,Aldi
Migros-Supermarkt - Zürich - Rigiplatz,"Winterthurerstrasse 2/4, Zürich",47.3860283,8.548558,Aldi
Migros-Supermarkt - Egg,"Gewerbestrasse 2/10, Egg",47.3026244,8.6913103,Migros
Migros-Supermarkt - Uster - Illuster,"Zürichstrasse 20, Uster",47.34983340000001,8.71517,Migros
Migros-Supermarkt - Fällanden,"Unterdorfstrasse 2, Fällanden",47.3736177,8.6410764,Migros
Migros-Supermarkt - Volketswil,"Im Zentrum 18, Volketswil",47.3880436,8.680959399999999,Migros
Migros-Supermarkt - Uster-West,"Winterthurerstrasse 18, Uster",47.3544989,8.7132171,Migros
Migros-Supermarkt - Greifensee,"Meierwis, Greifensee",47.3677705,8.680069099999999,Migros
Migros-Supermarkt - Ebmatingen,"Zürichstrasse 108, Maur",47.3509788,8.643306899999999,Migros
Coop Supermarkt Egg,"Gewerbestrasse 13, Egg",47.3040831,8.691676800000002,Coop
Coop Supermarkt Uster Bahnhof,"Bankstrasse 10, Uster",47.351551,8.7161194,Coop
Coop Supermarkt Fällanden,"Wigartenstrasse 8, Fällanden",47.3709453,8.641851599999999,Coop
Coop Supermarkt Volketswil Volkiland,"Industriestrasse 1, Volketswil",47.3827751,8.667195699999999,Coop
Coop Supermarkt Uster Oberuster,"Aathalstrasse 40, Uster",47.3450845,8.7307981,Coop
Coop Supermarkt Uster Winterthurerstrasse,"Winterthurerstrasse 22, Uster",47.35503320000001,8.7128684,Coop
Coop Supermarkt Uster Niederuster,"Sonnenbergstrasse 8, Uster",47.34587399999999,8.7020372,Coop
Lidl Schweiz,"Müllerenstrasse 5, Volketswil",47.3790805,8.6771677,Lidl
Lidl Schweiz,"Gschwaderstrasse 24, Uster",47.35655000000001,8.71112,Lidl
ALDI SUISSE,"Industriepark 10, Uster",47.3580135,8.7079214,Lidl
ALDI SUISSE,"Usterstrasse 51, Volketswil",47.3810245,8.6841022,Lidl
Denner Discount,"Mönchaltorferstrasse 6, Egg",47.30254069999999,8.690779299999999,Lidl
Denner Partner,"Bahnstrasse 18, Schwerzenbach",47.3854953,8.658781,Denner
Denner Express,"Fröschbach 59, Fällanden",47.3692514,8.6441208,Denner
Denner Express,"Burstwiesenstrasse 1, Greifensee",47.3677577,8.6800377,Denner
Denner Discount,"Zürichstrasse 20, Uster",47.3503459,8.7154698,Denner
Denner Discount,"Esslingerstrasse 11, Mönchaltorf",47.3079046,8.7215701,Denner
Denner Discount,"Oberlandstrasse 100, Uster",47.35191440000001,8.719021399999999,Denner
Denner Discount,"Mönchaltorferstrasse 6, Egg",47.30254069999999,8.690779299999999,Denner
Denner Discount,"Loren-Allee 22, Uster",47.3590099,8.709109699999999,Denner
Denner Discount,"Einkaufszentrum Volkiland, Industriestrasse 1, Volketswil",47.3830101,8.666756099999999,Denner
Denner Discount,"Einkaufszentrum Zentrum, Im Zentrum 18, Volketswil",47.3887144,8.6800525,Denner
ALDI SUISSE,"Usterstrasse 51, Volketswil",47.3810245,8.6841022,Aldi
ALDI SUISSE,"Isenrietstrasse 20, Mönchaltorf",47.30333539999999,8.7190912,Aldi
ALDI SUISSE,"Industriepark 10, Uster",47.3580135,8.7079214,Aldi
ALDI SUISSE,"Zürichstrasse 1, Uster",47.3484869,8.7167095,Aldi
Lidl Schweiz,"Gschwaderstrasse 24, Uster",47.35655000000001,8.71112,Aldi
migrolino,"Hauptbahnhof, Bahnhofquai, Zürich",47.3778211,8.5404269,Aldi
Migros-Supermarkt - Fehraltorf,"Grundstrasse 4, Fehraltorf",47.3866862,8.7556165,Migros
Migros-Supermarkt - Hittnau,"Jakob Stutz-Strasse 75, Hittnau",47.3631584,8.825415399999999,Migros
Migros-Supermarkt - Pfäffikon ZH,"Turmstrasse 9, Pfäffikon",47.368414,8.7808824,Migros
Migros-Supermarkt - Wetzikon - Züri-Oberland-Märt,"Bahnhofstrasse 151, Wetzikon",47.3279665,8.8002243,Migros
Migros-Supermarkt - Gossau ZH,"Im Zentrum 3, Gossau",47.3069508,8.757653399999999,Migros
Migros-Supermarkt - Unterwetzikon,"Hofstrasse 47, Wetzikon",47.3143471,8.7948042,Migros
Coop Supermarkt Pfäffikon ZH,"Turmstrasse 8, Pfäffikon",47.3690721,8.7818946,Coop
Coop Supermarkt Gossau ZH,"Büelgass, Gossau",47.3055708,8.757349399999999,Coop
Coop Supermarkt Hinwil Center,"Wässeristrasse 38, Hinwil",47.3064281,8.8182944,Coop
Coop Supermarkt Wetzikon,"Kirchgasse 4, Wetzikon",47.3261749,8.7976149,Coop
Coop Supermarkt Fehraltorf,"Grundstrasse 1, Fehraltorf",47.3867775,8.7549285,Coop
Coop Pronto Shop Zürich Klusplatz,"Witikonerstr. 15, Zürich",47.3639816,8.5670317,Coop
Coop Supermarkt Mönchaltorf,"Esslingerstrasse 20, Mönchaltorf",47.3063668,8.7207559,Coop
Coop Pronto Shop mit Tankstelle Volketswil Lindenstrasse,"Lindenstrasse 1, Volketswil",47.388758,8.679061299999999,Coop
Coop Pronto Shop Wetzikon Bahnhof,"Rapperswilerstrasse 4, Wetzikon",47.318001,8.7927882,Coop
Coop Pronto Shop mit Tankstelle Volkiland,"Chlirietstrasse 1, Volketswil",47.3823595,8.6713092,Coop
Coop Pronto Shop mit Tankstelle Volketswil Brunnenstrasse,"Brunnenstrasse 12, Volketswil",47.3807994,8.682970899999999,Coop
Coop Pronto Shop mit Tankstelle Wetzikon Hinwilerstrasse,"Hinwilerstrasse 11, Wetzikon",47.3320677,8.8123034,Coop
Migros-Supermarkt - Zumikon,"Dorfstrasse 17, Zumikon",47.3365527,8.618935000000002,Coop
Migros-Supermarkt - Pfäffikon ZH,"Turmstrasse 9, Pfäffikon",47.368414,8.7808824,Coop
Migros-Supermarkt - Küsnacht ZH,"Zürichstrasse 149, Küsnacht",47.3185082,8.5819262,Coop
Lidl Schweiz,"Schützenhausstrasse 7, Pfäffikon",47.3660627,8.7706745,Lidl
Lidl Schweiz,"Grubenstrasse 18, Wetzikon",47.3148439,8.7960537,Lidl
Migros-Supermarkt - Unterwetzikon,"Hofstrasse 47, Wetzikon",47.3143471,8.7948042,Lidl
Coop Supermarkt Gossau ZH,"Büelgass, Gossau",47.3055708,8.757349399999999,Lidl
ALDI SUISSE,"Wässeristrasse 18, Hinwil",47.3050733,8.8232193,Lidl
Migros-Supermarkt - Hittnau,"Jakob Stutz-Strasse 75, Hittnau",47.3631584,8.825415399999999,Lidl
Denner Express,"Bahnhofstrasse 255, Wetzikon",47.3316334,8.807706999999999,Denner
Denner Discount,"Bahnhofstrasse 19 8620, Wetzikon",47.3199861,8.7922392,Denner
Denner Discount,"Wässeristrasse 20, Hinwil",47.3056038,8.8235037,Denner
Denner Discount,"Bahnhofstrasse 29, Fehraltorf",47.3857004,8.7514132,Denner
Denner Discount,"Seestrasse 27, Pfäffikon",47.3660523,8.7826792,Denner
Denner Bibite,"Bahnhofstrasse 151, Wetzikon",47.327734,8.7998639,Denner
Denner Discount,"Laufenbachstrasse 10, Gossau",47.3058315,8.7589956,Denner
Denner Discount,"Turmstrasse 17, Pfäffikon",47.3682835,8.7805743,Denner
Coop Supermarkt Mönchaltorf,"Esslingerstrasse 20, Mönchaltorf",47.3063668,8.7207559,Denner
Migros-Supermarkt - Zürich - Witikon-Zentrum,"Witikonerstr. 293, Zürich",47.35909299999999,8.5856,Denner
Migros-Supermarkt - Volketswil,"Im Zentrum 18, Volketswil",47.3880436,8.680959399999999,Denner
migrolino Wetzikon Kempten,"Mühlebühlstrasse 3, Wetzikon",47.3328623,8.8054729,Denner
Migros-Supermarkt - Erlenbach - Erlibacher Märt,"Bahnhofstrasse 42, Erlenbach",47.3070228,8.590430999999999,Denner
Migros-Supermarkt - Uster - Illuster,"Zürichstrasse 20, Uster",47.34983340000001,8.71517,Denner
Coop Supermarkt Fällanden,"Wigartenstrasse 8, Fällanden",47.3709453,8.641851599999999,Denner
Migros-Supermarkt - Wetzikon - Züri-Oberland-Märt,"Bahnhofstrasse 151, Wetzikon",47.3279665,8.8002243,Denner
Coop Supermarkt Pfäffikon ZH,"Turmstrasse 8, Pfäffikon",47.3690721,8.7818946,Denner
Coop Supermarkt Hinwil Center,"Wässeristrasse 38, Hinwil",47.3064281,8.8182944,Denner
Migros-Supermarkt - Greifensee,"Meierwis, Greifensee",47.3677705,8.680069099999999,Denner
ALDI SUISSE,"Industriepark 10, Uster",47.3580135,8.7079214,Denner
Migros-Supermarkt - Zumikon,"Dorfstrasse 17, Zumikon",47.3365527,8.618935000000002,Denner
ALDI SUISSE,"Speckstrasse 1, Pfäffikon",47.36967569999999,8.7719291,Aldi
ALDI SUISSE,"Wässeristrasse 18, Hinwil",47.3050733,8.8232193,Aldi
ALDI SUISSE,"Motorenstrasse 99, Wetzikon",47.33198660000001,8.792565699999999,Aldi
Coop Supermarkt Gossau ZH,"Büelgass, Gossau",47.3055708,8.757349399999999,Aldi
Lidl Schweiz,"Schützenhausstrasse 7, Pfäffikon",47.3660627,8.7706745,Aldi
Coop Supermarkt Pfäffikon ZH,"Turmstrasse 8, Pfäffikon",47.3690721,8.7818946,Aldi
Denner Discount,"Oberlandstrasse 100, Uster",47.35191440000001,8.719021399999999,Aldi
Denner Discount,"Mönchaltorferstrasse 6, Egg",47.30254069999999,8.690779299999999,Aldi
Denner Discount,"Erlibacher Märt, Bahnhofstrasse 40 / 42, Erlenbach",47.3069935,8.5904701,Aldi
Denner Discount,"Esslingerstrasse 11, Mönchaltorf",47.3079046,8.7215701,Aldi
Denner Discount,"Wässeristrasse 20, Hinwil",47.3056038,8.8235037,Aldi
Migros-Supermarkt - Hinwil,"Bachtelstrasse 16, Hinwil",47.3003155,8.8446448,Migros
Migros-Supermarkt - Bauma,"Heinrich Gujerstrasse 10, Bauma",47.3679391,8.877896999999999,Migros
Coop Supermarkt Uster Winterthurerstrasse,"Winterthurerstrasse 22, Uster",47.35503320000001,8.7128684,Migros
Coop Supermarkt Wetzikon,"Kirchgasse 4, Wetzikon",47.3261749,8.7976149,Migros
Coop Supermarkt Fehraltorf,"Grundstrasse 1, Fehraltorf",47.3867775,8.7549285,Migros
Coop Supermarkt Uster Bahnhof,"Bankstrasse 10, Uster",47.351551,8.7161194,Migros
Coop Supermarkt Pfäffikon ZH,"Turmstrasse 8, Pfäffikon",47.3690721,8.7818946,Migros
Coop Supermarkt Rapperswil Bahnhof,"u. Bahnhofstrasse 2, Rapperswil-Jona",47.2254105,8.8180932,Migros
Coop Supermarkt Hinwil Hiwi-Märt,"Gossauerstrasse 14, Hinwil",47.2988112,8.8381517,Coop
Coop Supermarkt Bäretswil,"Gupfstrasse 17, Bäretswil",47.3352595,8.855118899999999,Coop
Migros-Supermarkt - Bauma,"Heinrich Gujerstrasse 10, Bauma",47.3679391,8.877896999999999,Coop
Migros-Supermarkt - Fehraltorf,"Grundstrasse 4, Fehraltorf",47.3866862,8.7556165,Coop
Coop Pronto Shop mit Tankstelle Hinwil Center,"Wässeristrasse 38, Hinwil",47.3065179,8.8167409,Coop
SPAR Supermarkt Wetzikon,"Zürcherstrasse 84, Wetzikon",47.3275,8.7836111,Coop
Migros-Supermarkt - Hinwil,"Bachtelstrasse 16, Hinwil",47.3003155,8.8446448,Coop
Migros-Supermarkt - Gossau ZH,"Im Zentrum 3, Gossau",47.3069508,8.757653399999999,Coop
Volg Adetswil,"Adetswilerstrasse 52, Bäretswil",47.3392807,8.8392032,Coop
Lidl Schweiz,"Grubenstrasse 18, Wetzikon",47.3148439,8.7960537,Coop
Migros-Supermarkt - Pfäffikon ZH,"Turmstrasse 9, Pfäffikon",47.368414,8.7808824,Lidl
Denner Express,"Bahnhofstrasse 255, Wetzikon",47.3316334,8.807706999999999,Lidl
Migros-Supermarkt - Bauma,"Heinrich Gujerstrasse 10, Bauma",47.3679391,8.877896999999999,Lidl
Denner Discount,"Laufenbachstrasse 10, Gossau",47.3058315,8.7589956,Lidl
ALDI SUISSE,"Speckstrasse 1, Pfäffikon",47.36967569999999,8.7719291,Lidl
Denner Discount,"Seestrasse 27, Pfäffikon",47.3660523,8.7826792,Lidl
ALDI SUISSE,"Zürichstrasse 1, Uster",47.3484869,8.7167095,Lidl
ALDI SUISSE,"Isenrietstrasse 20, Mönchaltorf",47.30333539999999,8.7190912,Lidl
ALDI SUISSE,"Motorenstrasse 99, Wetzikon",47.33198660000001,8.792565699999999,Lidl
Volg,"Rellikonstrasse 11, Maur",47.33931,8.6714599,Lidl
Denner Partner,"Dürntnerstrasse 19, Hinwil",47.3011258,8.8427948,Denner
Denner Express,"Heinrich Gujerstrasse 28, Bauma",47.3681141,8.8798593,Denner
Volg Uster,"Seestrasse 115, Uster",47.3442574,8.7018728,Denner
Coop Supermarkt Volketswil Volkiland,"Industriestrasse 1, Volketswil",47.3827751,8.667195699999999,Denner
Lidl Schweiz,"Müllerenstrasse 5, Volketswil",47.3790805,8.6771677,Aldi
Lidl Schweiz,"Grubenstrasse 18, Wetzikon",47.3148439,8.7960537,Aldi
migrolino Pfäffikon ZH,"Bahnhofstr. 11, Pfäffikon",47.3670458,8.784689799999999,Migros
migrolino Wetzikon Kempten,"Mühlebühlstrasse 3, Wetzikon",47.3328623,8.8054729,Migros
Lidl Schweiz,"Grubenstrasse 18, Wetzikon",47.3148439,8.7960537,Migros
Denner Bibite,"Bahnhofstrasse 151, Wetzikon",47.327734,8.7998639,Migros
Volg Adetswil,"Adetswilerstrasse 52, Bäretswil",47.3392807,8.8392032,Migros
Coop Supermarkt Hinwil Hiwi-Märt,"Gossauerstrasse 14, Hinwil",47.2988112,8.8381517,Migros
Denner Express,"Bahnhofstrasse 255, Wetzikon",47.3316334,8.807706999999999,Migros
ALDI SUISSE,"Wässeristrasse 18, Hinwil",47.3050733,8.8232193,Denner
Migros-Supermarkt - Wattwil,"Bahnhofstrasse 19, Wattwil",47.29923400000001,9.087404,Migros
Migros-Supermarkt - Bütschwil,"Landstrasse 41, Bütschwil",47.3631945,9.0732008,Migros
Denner Bibite,"Landstrasse 41, Bütschwil",47.3630011,9.073165399999999,Migros
Denner Express,"Heinrich Gujerstrasse 28, Bauma",47.3681141,8.8798593,Migros
Coop Supermarkt Wattwil,"Grüenaustrasse 4, Wattwil",47.303093,9.0864677,Coop
Lidl Schweiz,"Rietwisstrasse 5, Wattwil",47.2975772,9.0915182,Coop
Migros-Supermarkt - Wattwil,"Bahnhofstrasse 19, Wattwil",47.29923400000001,9.087404,Coop
Coop Pronto Shop mit Tankstelle Wattwil,"Wilerstrasse 48, Wattwil",47.3069605,9.08717,Coop
Migros-Supermarkt - Bütschwil,"Landstrasse 41, Bütschwil",47.3631945,9.0732008,Coop
ALDI SUISSE,"Rietwisstrasse 11, Wattwil",47.2960729,9.092631800000001,Coop
Lidl Schweiz,"Rietwisstrasse 5, Wattwil",47.2975772,9.0915182,Lidl
Migros-Supermarkt - Wattwil,"Bahnhofstrasse 19, Wattwil",47.29923400000001,9.087404,Lidl
Denner Bibite,"Landstrasse 41, Bütschwil",47.3630011,9.073165399999999,Denner
Denner Discount,"Rietwisstrasse 7, Wattwil",47.2974734,9.0916187,Denner
Migros-Supermarkt - Wattwil,"Bahnhofstrasse 19, Wattwil",47.29923400000001,9.087404,Denner
Migros-Supermarkt - Bütschwil,"Landstrasse 41, Bütschwil",47.3631945,9.0732008,Denner
ALDI SUISSE,"Rietwisstrasse 11, Wattwil",47.2960729,9.092631800000001,Denner
ALDI SUISSE,"Rietwisstrasse 11, Wattwil",47.2960729,9.092631800000001,Aldi
Migros-Supermarkt - Wattwil,"Bahnhofstrasse 19, Wattwil",47.29923400000001,9.087404,Aldi
Migros-Supermarkt - Degersheim,"Hauptstrasse 81, Degersheim",47.3724131,9.1963359,Migros
Lidl Schweiz,"Rietwisstrasse 5, Wattwil",47.2975772,9.0915182,Migros
Coop Supermarkt Degersheim,"Taastrasse 1, Degersheim",47.3721133,9.1952265,Coop
Migros-Supermarkt - Degersheim,"Hauptstrasse 81, Degersheim",47.3724131,9.1963359,Coop
Volg,"Löwengasse 2, Lichtensteig",47.3235703,9.0876044,Coop
Migros-Supermarkt - Fislisbach,"Zentrum Gugger, Badenerstrasse 7D, Fislisbach",47.43603539999999,8.2901803,Migros
Migros-Supermarkt - Dielsdorf,"Ruchwiesenstrasse 2, Dielsdorf",47.4805972,8.464537,Migros
Migros-Supermarkt - Zürich - Höngg,"Regensdorferstrasse 20, Zürich",47.4037164,8.497165299999999,Migros
Migros-Supermarkt - Schlieren - Rietbach,"Rietbachstrasse 14, Schlieren",47.4004418,8.4350087,Migros
Migros-Supermarkt - Zürich - Affoltern,"Jonas-Furrer-Strasse 21, Zürich",47.4203808,8.5085333,Migros
Migros-Supermarkt - Baden - City,"Bahnhofstrasse 40/42, Baden",47.4769437,8.3085122,Migros
Migros-Supermarkt - Dietikon - Löwenzentrum,"Löwenstrasse 28, Dietikon",47.4050615,8.4021644,Migros
Migros supermarket,"Landstrasse 69, Wettingen",47.46711380000001,8.3241973,Migros
Migros-Supermarkt - Zürich - Wipkingen,"Scheffelstrasse 3, Zürich",47.3936979,8.5292409,Migros
Migros-Supermarkt - Schlieren - Zentrum,"Güterstrasse 5, Schlieren",47.3985321,8.4471104,Migros
Migros-Supermarkt - Mellingen,"Lenzburgerstrasse 50, Mellingen",47.4132358,8.267057399999999,Migros
Migros-Supermarkt - Regensdorf - Zentrum,"Im Zentrum 1, Regensdorf",47.4310112,8.4691587,Migros
Migros-Supermarkt - Neuenhof,"Zürcherstrasse 113, Neuenhof",47.4501649,8.327685299999999,Migros
Migros-Supermarkt - Niederhasli,"Dorfstrasse 20, Niederhasli",47.4799429,8.4854114,Migros
Migros-Supermarkt - Oberengstringen,"Im Zentrum 2, Oberengstringen",47.40861109999999,8.4633333,Migros
Migros-Supermarkt - Dietikon - Limmatfeld,"Ueberlandstrasse 22, Dietikon",47.4091846,8.4050919,Migros
Migros-Supermarkt - Nussbaumen - Markthof,"Schulstrasse 2, Nussbaumen b.Baden",47.4881919,8.2923799,Migros
Migros-Supermarkt - Spreitenbach - Tivoli,"Shoppi Tivoli, Spreitenbach",47.42216330000001,8.367677200000001,Migros
Migros-Supermarkt - Oberglatt,"Lägernstrasse 6, Oberglatt",47.47555999999999,8.507587,Migros
Migros-Supermarkt - Dietikon Silbern,"Riedstrasse 3, Dietikon",47.4200148,8.393833599999999,Migros
VOI Zürich - Grünau,"Grünauring 37, Zürich",47.3960909,8.4864909,Migros
VOI Rümlang,"Lindenstrasse 16, Rümlang",47.4498948,8.5317267,Migros
VOI Buchs ZH,"Meierwiesenstrasse 20, Buchs",47.456165,8.4399321,Migros
VOI Geroldswil,"Huebwiesenstrasse 26, Geroldswil",47.4213927,8.411537599999999,Migros
VOI Baden - Mellingerstrasse,"Mellingerstrasse 142, Baden",47.4673628,8.2933994,Migros
VOI Zürich - Hönggerstrasse,"Hönggerstrasse 117, Zürich",47.3953281,8.5183059,Migros
Coop Supermarkt Zürich Hönggermarkt,"Regensdorferstrasse 9, Zürich",47.4027093,8.498407300000002,Coop
Coop Supermarkt Dietikon Silbern,"Silbernstrasse 9, Dietikon",47.4185483,8.3920055,Coop
Coop Supermarkt Baden Bahnhof,"Langhaus 5, Baden",47.4768646,8.307085599999999,Coop
Coop,"Frankentalerstrasse 20, Zürich",47.4059137,8.4812576,Coop
Coop Supermarkt Zürich Mühlackerstrasse,"Mühlackerstrasse 199, Zürich",47.4255113,8.4969846,Coop
Coop Supermarkt Zürich Scheffelstrasse,"Scheffelstrasse 12, Zürich",47.3938049,8.5295752,Coop
Coop Supermarkt Wettingen Tägipark,"Jurastrasse 42, Wettingen",47.4583916,8.3292988,Coop
Coop Supermarkt Dällikon,"Industriestrasse 14, Dällikon",47.4452005,8.4384056,Coop
Coop Supermarkt Dielsdorf,"Niederhaslistrasse 5, Dielsdorf",47.484392,8.4655937,Coop
Coop Supermarkt Regensdorf Rägi Märt,"Feldstrasse 2, Regensdorf",47.4374853,8.474880299999999,Coop
Coop Supermarkt Schlieren Lilie,"Zürcherstrasse 6, Schlieren",47.3974443,8.4487629,Coop
Coop Supermarkt Oberengstringen,"Zürcherstrasse 149, Oberengstringen",47.4105615,8.457950199999999,Coop
Coop Supermarkt Würenlos,"Poststrasse 1, Würenlos",47.44304469999999,8.362426,Coop
Coop Supermarkt Buchs ZH,"Zürcherstrasse 10, Buchs",47.4577995,8.4381726,Coop
Coop Supermarkt City Baden Food,"Bahnhofstrasse 28, Baden",47.4758225,8.3079958,Coop
Coop Supermarkt Zürich Rütihof,"Rütihofstrasse 15, Zürich",47.4137365,8.479615800000001,Coop
Coop Supermarkt Dietikon Steinmürlistrasse,"Steinmürlistrasse 38, Dietikon",47.4057097,8.392097399999999,Coop
Coop Supermarkt Zürich Wehntalerstrasse,"Wehntalerstrasse 549, Zürich",47.418887,8.5055923,Coop
Coop Supermarkt Dietikon Florastrasse,"Florastrasse 22, Dietikon",47.4037652,8.4023827,Coop
Coop Supermarkt Schlieren Rietpark,"Goldschlägipl. 5, Schlieren",47.3997318,8.4418153,Coop
Coop Supermarkt Regensdorf Zentrum,"Im Zentrum 1, Regensdorf",47.4315226,8.4694463,Coop
Coop Supermarkt Rümlang Riedmatt,"Oberglatterstrasse 35, Rümlang",47.4632596,8.5255447,Coop
Coop Supermarkt Würenlos Autobahnraststätte,"Shopping-Raststätte A1, Würenlos",47.43836,8.34718,Coop
Coop Supermarkt Neuenhof,"Albertstrasse 2, Neuenhof",47.4491504,8.3283972,Coop
Coop Supermarkt Dietikon Brunau,"Birmensdorferstrasse 9, Dietikon",47.3981458,8.4178599,Coop
Coop Supermarkt Zürich Wipkingerbrücke,"Röschibachstrasse 22, Zürich",47.39277389999999,8.524647,Coop
Coop Supermarkt Zürich ETH Hönggerberg,"Wolfgang-Pauli-Strasse 14, Zürich",47.4084059,8.5079195,Coop
Lidl Schweiz,"Schwimmbadstrasse 29, Wettingen",47.46167,8.31073,Lidl
Lidl Baden - Bahnhofsstrasse,"Bahnhofstrasse 31, Baden",47.4769788,8.3081908,Lidl
Lidl Schweiz,"Rapidpl. 5, Dietikon",47.4103875,8.4042018,Lidl
Lidl,"Grütpark, Adlikerstrasse 295, Regensdorf",47.4443098,8.465036399999999,Lidl
Lidl Schweiz,"Im Langacker 19, Baden",47.45656,8.2868199,Lidl
Lidl,"Lägernstrasse 4, Oberglatt",47.4753271,8.5070482,Lidl
Lidl,"Reitmenstrasse 5, Schlieren",47.3993447,8.4324879,Lidl
Lidl Schweiz,"Zürcherstrasse 133, Schlieren",47.39753,8.46486,Lidl
Lidl Schweiz,"Förrlibuckstrasse 62, Zürich",47.39252,8.51569,Lidl
Lidl Schweiz,"Wehntalerstrasse 625, Zürich",47.4223948,8.4991909,Lidl
Lidl,"Shopping Center 4, Spreitenbach",47.4208605,8.3688118,Lidl
Migros-Supermarkt - Oberglatt,"Lägernstrasse 6, Oberglatt",47.47555999999999,8.507587,Lidl
7 DAY-SHOP AG | Filiale Baden - Cordulapassage,"Cordulapassage 1, Baden",47.4716798,8.306649799999999,Lidl
ALDI SUISSE,"Bahnhofstrasse 31, Baden",47.47687699999999,8.3081651,Lidl
Migros-Supermarkt - Spreitenbach - Tivoli,"Shoppi Tivoli, Spreitenbach",47.42216330000001,8.367677200000001,Lidl
Migros-Supermarkt - Baden - City,"Bahnhofstrasse 40/42, Baden",47.4769437,8.3085122,Lidl
SPAR Supermarkt,"Regensdorferstrasse 22, Dällikon",47.4392647,8.4413089,Lidl
Migros-Supermarkt - Dietikon - Limmatfeld,"Ueberlandstrasse 22, Dietikon",47.4091846,8.4050919,Lidl
Denner Express,"Hofwiesenstrasse 135, Zürich",47.3990363,8.5325936,Denner
Denner Partner,"Fliederweg 2, Buchs",47.45675199999999,8.438929,Denner
Denner Express,"Landenbergstrasse 22, Zürich",47.39278669999999,8.528594,Denner
Denner Express,"Huebwiesenstrasse 29, Geroldswil",47.4220652,8.408465699999999,Denner
Denner Express,"Limmattalstrasse 177, Zürich",47.4018108,8.4994459,Denner
Denner Express,"Güterstrasse 4/6, Schlieren",47.39890030000001,8.446334199999999,Denner
Denner Discount,"In Böden 174, Zürich",47.4200123,8.508447600000002,Denner
Denner Satellit,"Kirchweg 25, Obersiggenthal",47.4887029,8.2923888,Denner
Denner Express,"Freiestrasse 52, Schlieren",47.3960882,8.439414,Denner
Denner Express,"Wehntalerstrasse 190, Regensdorf",47.4440132,8.467528999999999,Denner
Denner Discount,"Riedmattstrasse 4, Rümlang",47.461834,8.525781,Denner
Denner Discount,"Badenerstrasse 21, Dietikon",47.4060671,8.3972191,Denner
Denner Discount,"Regensbergstrasse 309, Zürich",47.4114292,8.5265716,Denner
Denner Discount,"Rietbachstrasse 14, Schlieren",47.400771,8.4354392,Denner
Denner Discount,"Zentrum Kirchplatz, Löwenstrasse 15, Dietikon",47.405584,8.402434999999999,Denner
Denner Discount,"Landstrasse 79, Wettingen",47.4667306,8.325018,Denner
Denner Discount,"Im Zentrum 1, Regensdorf",47.4310757,8.4696723,Denner
Denner Discount,"Hochhaus 9, Spreitenbach",47.4226336,8.3704576,Denner
Denner Discount,"Einkaufszentrum, Lenzburgerstrasse 50, Mellingen",47.413208,8.267026999999999,Denner
Denner Discount,"Ruchwiesenstrasse 2, Dielsdorf",47.48023980000001,8.4637628,Denner
Denner Discount,"Badenerstrasse 5c, Fislisbach",47.43592109999999,8.291046699999999,Denner
Denner Discount,"Einkaufszentrum Lilie, Uitikonerstrasse 9, Schlieren",47.39682939999999,8.448775699999999,Denner
Denner Discount,"Einkaufszentrum, Regensdorferstrasse 16, Zürich",47.4032859,8.4982778,Denner
Denner Discount,"Ladengasse 1, Oberengstringen",47.4085506,8.4635141,Denner
Denner Discount,"Hochhaus 9, Spreitenbach",47.4213625,8.3695048,Denner
Denner Discount,"Althardstrasse 52/A, Regensdorf",47.4370924,8.4723486,Denner
Migros-Supermarkt - Schlieren - Rietbach,"Rietbachstrasse 14, Schlieren",47.4004418,8.4350087,Denner
ALDI SUISSE,"Ofenhalle, Wehntalerstrasse 634, Zürich",47.42319,8.4994569,Aldi
ALDI SUISSE,"Goldschlägipl. 3, Schlieren",47.4001171,8.441642400000001,Aldi
ALDI SUISSE,"Landstrasse 99, Wettingen",47.4658547,8.3273079,Aldi
ALDI SUISSE,"Bahnhofstrasse 31, Baden",47.47687699999999,8.3081651,Aldi
ALDI SUISSE,"Birmenstorferstrasse 1, Fislisbach",47.4385121,8.2913813,Aldi
ALDI SUISSE,"Wagistrasse 20, Schlieren",47.3984406,8.4597418,Aldi
ALDI SUISSE,"Zürcherstrasse 55, Dietikon",47.4031325,8.4061442,Aldi
ALDI SUISSE,"Dammstrasse 24, Otelfingen",47.4594554,8.4013037,Aldi
ALDI SUISSE,"Ruchwiesenstrasse 5, Dielsdorf",47.4819575,8.4663398,Aldi
ALDI SUISSE,"Feldstrasse 32, Regensdorf",47.4383568,8.4730396,Aldi
SPAR Supermarkt,"Regensdorferstrasse 22, Dällikon",47.4392647,8.4413089,Aldi
7 DAY-SHOP AG | Filiale Baden - Cordulapassage,"Cordulapassage 1, Baden",47.4716798,8.306649799999999,Aldi
Lidl Schweiz,"Rapidpl. 5, Dietikon",47.4103875,8.4042018,Aldi
Lidl Baden - Bahnhofsstrasse,"Bahnhofstrasse 31, Baden",47.4769788,8.3081908,Aldi
SPAR Supermarkt Baden-Rütihof,"Fislisbacherstrasse 4, Baden",47.438542,8.271346,Aldi
Lidl Schweiz,"Im Langacker 19, Baden",47.45656,8.2868199,Aldi
Coop Supermarkt Dietikon Florastrasse,"Florastrasse 22, Dietikon",47.4037652,8.4023827,Aldi
Coop Supermarkt Baden-Dättwil,"Mellingerstrasse 212, Baden",47.4507293,8.2905123,Aldi
Migros-Supermarkt - Baden - City,"Bahnhofstrasse 40/42, Baden",47.4769437,8.3085122,Aldi
Coop Supermarkt Rümlang Riedmatt,"Oberglatterstrasse 35, Rümlang",47.4632596,8.5255447,Aldi
Migros-Supermarkt - Zürich - Affoltern,"Jonas-Furrer-Strasse 21, Zürich",47.4203808,8.5085333,Aldi
Coop Supermarkt Schlieren Rietpark,"Goldschlägipl. 5, Schlieren",47.3997318,8.4418153,Aldi
Denner Discount,"Limmatstrasse 152, Zürich",47.3857949,8.5319332,Aldi
Migros-Supermarkt - Bassersdorf,"Baltenswilerstrasse 5, Bassersdorf",47.4425003,8.629419600000002,Migros
Migros-Supermarkt - Kloten,"Kirchgasse 5, Kloten",47.45097029999999,8.581442899999999,Migros
Migros-Supermarkt - Zürich - Seebach,"Schaffhauserstrasse 470, Zürich",47.4195523,8.5482806,Migros
Migros-Supermarkt - Glattbrugg,"Wallisellerstrasse 8, Opfikon",47.4342512,8.5677226,Migros
Migros-Supermarkt - Zürich - Schwamendingen,"Winterthurerstrasse 524, Zürich",47.4039286,8.5729928,Migros
Migros-Supermarkt - Rümlang Hofwisencenter,"Hofwisenstrasse 40A, Rümlang",47.4506554,8.537538999999999,Migros
Migros,"Neue Winterthurerstrasse 99, Wallisellen",47.4086459,8.595885599999999,Migros
Migros-Supermarkt - Zürich - Oerlikon Neumarkt,"Einkaufszentrum Neumarkt, Hofwiesenstrasse 350, Zürich",47.4105054,8.5430437,Migros
Migros-Supermarkt - Dübendorf,"Unterdorfstrasse 7, Dübendorf",47.3981096,8.6176206,Migros
Migros-Supermarkt - Dübendorf - Hochbord Nord,"Neugutstrasse 83, Dübendorf",47.4009438,8.60372,Migros
Migros-Supermarkt - Opfikon - Glattpark,"Thurgauerstrasse 106, Opfikon",47.4210946,8.5577823,Migros
MIGROS,"Zurich Airport, Flughafen, Kloten",47.450269,8.5625336,Migros
Migros-Supermarkt - Wallisellen,"Bahnhofstrasse 30, Wallisellen",47.4135735,8.591844199999999,Migros
Migros-Supermarkt - Zürich - Schaffhauserplatz,"Schaffhauserstrasse 75, Zürich",47.3925426,8.5384811,Migros
Coop Supermarkt Opfikon Lindbergh-Allee,"Boulevard Lilienthal 20, Opfikon",47.4238199,8.562039,Coop
Coop Supermarkt Dübendorf Center,"Adlerstrasse 1, Dübendorf",47.3976122,8.616562199999999,Coop
Coop Supermarkt Zürich Dorflinde,"Schwamendingenstrasse 39/41, Zürich",47.4076063,8.5492653,Coop
Coop Supermarkt Zürich Schwamendingen,"Saatlenstrasse 12, Zürich",47.4049183,8.5716621,Coop
Coop Supermarkt Zürich Hirzenbachstrasse,"Hirzenbachstrasse 40, Zürich",47.4035067,8.5890649,Coop
Coop Supermarkt Zürich Precisa,"Wallisellenstrasse 333, Zürich",47.4113695,8.5625841,Coop
Coop Supermarkt Dietlikon Center,"Industriestrasse 28, Dietlikon",47.4132653,8.6189685,Coop
Coop,"Hofwiesenstrasse 370, Zürich",47.4111959,8.5444925,Coop
Coop Supermarkt Zürich Eleven,"Sophie-Taeuber-Strasse 4, Zürich",47.4134803,8.5410152,Coop
Coop Supermarkt Bassersdorf,"Breitistrasse 32, Bassersdorf",47.44264949999999,8.6309054,Coop
Coop Supermarkt Zürich Airport Shopping,"Airport Center, Prime Center 1, Zürich",47.4507076,8.5626971,Coop
Lidl Schweiz,"Ohmstrasse 11, Zürich",47.41014,8.5468199,Lidl
Lidl,"Schaffhauserstrasse 165, Kloten",47.45470330000001,8.579192899999999,Lidl
Lidl,"Neue Winterthurerstrasse 2, Wallisellen",47.41238,8.61366,Lidl
Lidl,"Ueberlandstrasse 381, Zürich",47.4078526,8.585158,Lidl
Lidl Schweiz,"Hofwiesenstrasse 350, Zürich",47.4105,8.542729999999999,Lidl
Lidl Schweiz,"Zürichstrasse 127/131, Dübendorf",47.3959144,8.5990662,Lidl
Neumarkt Oerlikon,"Hofwiesenstrasse 350, Zürich",47.4104775,8.5429323,Lidl
ALDI SUISSE,"Balz-Zimmermannstrasse 7, Opfikon",47.4390209,8.5704309,Lidl
MIGROS,"Zurich Airport, Flughafen, Kloten",47.450269,8.5625336,Lidl
Coop Supermarkt Zürich Milchbuck,"Milchbuckstrasse 1/5, Zürich",47.3956956,8.5404087,Lidl
Migros-Supermarkt - Zürich - Oerlikon Neumarkt,"Einkaufszentrum Neumarkt, Hofwiesenstrasse 350, Zürich",47.4105054,8.5430437,Lidl
Coop Supermarkt City Zürich Oerlikon Food,"Wallisellenstrasse 1, Zürich",47.4103731,8.546684299999999,Lidl
Coop,"Hofwiesenstrasse 370, Zürich",47.4111959,8.5444925,Lidl
Coop Pronto Shop Zürich-Oerlikon Bahnhof,"Hofwiesenstrasse 369, Zürich",47.4112509,8.543221299999999,Lidl
Coop Supermarkt Zürich Andreasturm,"Andreasstrasse 5, Zürich",47.4128992,8.5473685,Lidl
ALDI SUISSE,"Binzmühlestrasse 102, Zürich",47.4137869,8.5390221,Lidl
Coop Supermarkt Zürich Eleven,"Sophie-Taeuber-Strasse 4, Zürich",47.4134803,8.5410152,Lidl
Denner Partner,"Zürichstrasse 28, Wangen-Brüttisellen",47.4237414,8.6301214,Denner
Denner Discount,"Winterthurerstrasse 524, Zürich",47.4039316,8.5726414,Denner
Denner Discount,"Hofwiesenstrasse 350, Zürich",47.4103609,8.5434623,Denner
Denner Partner,"Wallisellerstrasse 114/116, Opfikon",47.428244,8.573966,Denner
Denner Express,"Bahnhofpl. 8a, Opfikon",47.4301842,8.5598768,Denner
Denner Express,"Glattalstrasse 76, Zürich",47.4271913,8.5467132,Denner
Denner Express,"Strehlgasse 11, Dübendorf",47.3981094,8.6213332,Denner
Denner Discount,"Klotenerstrasse 26, Bassersdorf",47.4442208,8.626474,Denner
Denner Express,"Schaffhauserstrasse 126, Kloten",47.4511344,8.5818165,Denner
Denner Discount,"Dorfstrasse 16, Kloten",47.452987,8.582771000000001,Denner
Denner Discount,"Schaffhauserstrasse 141, Opfikon",47.436237,8.568358,Denner
Denner Discount,"Schaffhauserstrasse 491, Zürich",47.4209472,8.5490585,Denner
Denner Discount,"Bahnhofstrasse 9, Wallisellen",47.41438489999999,8.5910449,Denner
Denner Discount,"Neuweg 4, Dübendorf",47.3964542,8.6129094,Denner
Denner Discount,"Schwamendingenstrasse 24, Zürich",47.407371,8.5484403,Denner
Denner Discount,"Wallisellenstrasse 17, Dübendorf",47.3985912,8.6180703,Denner
Denner Discount,"Neue Winterthurerstrasse 99, Wallisellen",47.4078875,8.5965549,Denner
Denner Discount,"Düberndorfstrasse 271, Dübendorfstrasse 271, Zürich",47.3999788,8.5877915,Denner
ALDI SUISSE,"Hofwiesenstrasse 42, Rümlang",47.4504138,8.5381529,Aldi
ALDI SUISSE,"Balz-Zimmermannstrasse 7, Opfikon",47.4390209,8.5704309,Aldi
ALDI SUISSE,"Bahnhofstrasse 6, Kloten",47.448978,8.582613,Aldi
ALDI SUISSE,"Ueberlandstrasse 441, Zürich",47.4058514,8.5921951,Aldi
ALDI SUISSE,"Schärenmoosstrasse 77, Zürich",47.4194852,8.556865,Aldi
ALDI SUISSE,"Binzmühlestrasse 102, Zürich",47.4137869,8.5390221,Aldi
ALDI SUISSE,"Baumackerstrasse 35, Zürich",47.4089561,8.5438043,Aldi
ALDI SUISSE,"Zwirnereistrasse 7/9, Wallisellen",47.4046146,8.6026861,Aldi
ALDI SUISSE,"Einkaufszentrum Glatt, Neue Winterthurerstrasse 99, Wallisellen",47.4084666,8.5960524,Aldi
ALDI SUISSE,"Industriestrasse 31, Dietlikon",47.4122774,8.619218199999999,Aldi
Migros-Supermarkt - Rümlang Hofwisencenter,"Hofwisenstrasse 40A, Rümlang",47.4506554,8.537538999999999,Aldi
SPAR Supermarkt Kloten,"Breitistrasse 24, Kloten",47.4477285,8.5842285,Aldi
Coop,"Hofwiesenstrasse 370, Zürich",47.4111959,8.5444925,Aldi
Neumarkt Oerlikon,"Hofwiesenstrasse 350, Zürich",47.4104775,8.5429323,Aldi
Coop Supermarkt City Zürich Oerlikon Food,"Wallisellenstrasse 1, Zürich",47.4103731,8.546684299999999,Aldi
Migros-Supermarkt - Glattbrugg,"Wallisellerstrasse 8, Opfikon",47.4342512,8.5677226,Aldi
Migros-Supermarkt - Kloten,"Kirchgasse 5, Kloten",47.45097029999999,8.581442899999999,Aldi
Migros-Supermarkt - Zürich - Seebach,"Schaffhauserstrasse 470, Zürich",47.4195523,8.5482806,Aldi
Coop Supermarkt Opfikon Lindbergh-Allee,"Boulevard Lilienthal 20, Opfikon",47.4238199,8.562039,Aldi
SPAR Supermarkt Kloten Bramen,"Schaffhauserstrasse 60, Kloten",47.4441178,8.5788917,Aldi
Lidl Schweiz,"Hofwiesenstrasse 350, Zürich",47.4105,8.542729999999999,Aldi
Migros-Supermarkt - Winterthur - Töss,"Zürcherstrasse 102, Winterthur",47.4917855,8.7064372,Migros
Migros-Supermarkt - Effretikon - Effi-Märt,"Märtpl. 5, Illnau-Effretikon",47.4288561,8.6849426,Migros
Coop Supermarkt Wallisellen Bahnhofplatz,"Bahnhofpl. 2, Wallisellen",47.4130775,8.592942599999999,Coop
Coop Supermarkt Zürich Schwellistrasse,"Schwellistrasse 69, Zürich",47.4249581,8.5377008,Coop
Lidl,"In der Au 10, Winterthur",47.4861158,8.7043792,Lidl
Lidl,"Im Schörli 20, Dübendorf",47.395218,8.6382266,Lidl
ALDI SUISSE,"Im Schossacher 24, Dübendorf",47.3928061,8.642375,Lidl
Denner Bibite,"Ziegeleipl. 2, Winterthur",47.477352,8.6994268,Denner
Denner Discount,"Grendelbachstrasse 30, Illnau-Effretikon",47.4239233,8.691243300000002,Denner
Denner Discount,"Zürcherstrasse 120, Winterthur",47.4910315,8.705626600000002,Denner
ALDI SUISSE,"Im Schossacher 24, Dübendorf",47.3928061,8.642375,Aldi
Migros-Supermarkt - Winterthur - Seen,"Hinterdorfstrasse 40, Winterthur",47.4852907,8.7625727,Migros
Migros-Supermarkt - Kollbrunn,"Tösstalstrasse 24, Kollbrunn",47.4580159,8.7699986,Migros
Migros-Supermarkt - Dättnau,"Ziegeleipl. 2, Dättnau",47.4773023,8.6993628,Migros
Migros-Supermarkt - Dübendorf Stettbach,"Am Stadtrand 5, Dübendorf",47.3970997,8.5972637,Migros
Migros-Supermarkt - Nürensdorf,"Alte Winterthurerstrasse 7, Nürensdorf",47.4456656,8.6423276,Migros
VOI Wallisellen,"Schäfligrabenstrasse 45, Wallisellen",47.4197171,8.5974416,Migros
Coop Supermarkt Winterthur Seen,"Tösstalstrasse 236, Winterthur",47.4845913,8.758720499999999,Coop
Coop Supermarkt Glattbrugg,"Schaffhauserstrasse 124, Opfikon",47.43440380000001,8.5669302,Coop
Coop Supermarkt Dietlikon Bahnhofstrasse,"Bahnhofstrasse 41, Dietlikon",47.4220714,8.618797299999999,Coop
Coop Supermarkt Kollbrunn,"Dorfstrasse 8a, Zell",47.4565058,8.7736091,Coop
Coop Supermarkt Effretikon Watt,"Illnauerstrasse 16, Illnau-Effretikon",47.426901,8.6920444,Coop
Coop Pronto Shop Zürich-Stettbach Bahnhof,"Dübendorfstrasse 447, Zürich",47.3972876,8.596333099999999,Coop
Coop Supermarkt Kloten Marktgasse,"Bahnhofstrasse 3, Kloten",47.4494847,8.5826868,Coop
Coop Supermarkt Effretikon Effimärt,"Haldenstrasse 10, Illnau-Effretikon",47.4282208,8.6850655,Coop
Coop Supermarkt Opfikon,"Talackerstrasse 68, Opfikon",47.4284888,8.563879499999999,Coop
Migros-Supermarkt - Bassersdorf,"Baltenswilerstrasse 5, Bassersdorf",47.4425003,8.629419600000002,Coop
Coop Pronto Shop mit Tankstelle Kloten,"Bassersdorferstrasse 113, Kloten",47.4503837,8.5971724,Coop
Coop Pronto Shop Kemptthal Raststätte,"Autobahnraststätte A1, Lindau",47.44874369999999,8.6995585,Coop
Coop Pronto Shop mit Tankstelle Dietlikon,"Erlenweg 1, Dietlikon",47.4130571,8.6168816,Coop
ALDI SUISSE,"Tösstalstrasse 11, Turbenthal",47.4416895,8.8339348,Lidl
Coop Supermarkt Kollbrunn,"Dorfstrasse 8a, Zell",47.4565058,8.7736091,Lidl
Migros-Supermarkt - Dübendorf Stettbach,"Am Stadtrand 5, Dübendorf",47.3970997,8.5972637,Lidl
Migros-Supermarkt - Kollbrunn,"Tösstalstrasse 24, Kollbrunn",47.4580159,8.7699986,Lidl
ALDI SUISSE,"Ueberlandstrasse 441, Zürich",47.4058514,8.5921951,Lidl
ALDI SUISSE,"Industriestrasse 31, Dietlikon",47.4122774,8.619218199999999,Lidl
Denner Discount,"Hinterdorfstrasse 40, Winterthur",47.4852907,8.7625727,Denner
Denner Discount,"Märtpl. 5, Illnau-Effretikon",47.4283377,8.685635,Denner
ALDI SUISSE,"Kanzleistrasse 23, Winterthur",47.4851041,8.763022399999999,Aldi
ALDI SUISSE,"Tösstalstrasse 11, Turbenthal",47.4416895,8.8339348,Aldi
Migros-Supermarkt - Winterthur - Seen,"Hinterdorfstrasse 40, Winterthur",47.4852907,8.7625727,Aldi
Lidl,"Im Schörli 20, Dübendorf",47.395218,8.6382266,Aldi
Coop Supermarkt Kloten Marktgasse,"Bahnhofstrasse 3, Kloten",47.4494847,8.5826868,Aldi
SPAR Supermarkt Winterthur Tösstalstrasse,"Tösstalstrasse 139, Winterthur",47.49065539999999,8.7482343,Aldi
Denner Discount,"Schaffhauserstrasse 141, Opfikon",47.436237,8.568358,Aldi
Lidl,"Ueberlandstrasse 381, Zürich",47.4078526,8.585158,Aldi
Migros-Supermarkt - Kollbrunn,"Tösstalstrasse 24, Kollbrunn",47.4580159,8.7699986,Aldi
Migros-Supermarkt - Dübendorf Stettbach,"Am Stadtrand 5, Dübendorf",47.3970997,8.5972637,Aldi
Lidl,"In der Au 10, Winterthur",47.4861158,8.7043792,Aldi
Migros-Supermarkt - Aadorf,"Bahnhofstrasse 2, Aadorf",47.490191,8.899659,Migros
Migros-Supermarkt - Turbenthal,"Tösstalstrasse 54, Turbenthal",47.438686,8.8443798,Migros
Coop Supermarkt Turbenthal,"Hofwiesweg 2, Turbenthal",47.44005670000001,8.844311,Coop
Migros-Supermarkt - Effretikon - Effi-Märt,"Märtpl. 5, Illnau-Effretikon",47.4288561,8.6849426,Coop
Migros-Supermarkt - Aadorf,"Bahnhofstrasse 2, Aadorf",47.490191,8.899659,Coop
Migros-Supermarkt - Kollbrunn,"Tösstalstrasse 24, Kollbrunn",47.4580159,8.7699986,Coop
Migros-Supermarkt - Winterthur - Seen,"Hinterdorfstrasse 40, Winterthur",47.4852907,8.7625727,Denner
Migros-Supermarkt - Dättnau,"Ziegeleipl. 2, Dättnau",47.4773023,8.6993628,Denner
Coop Supermarkt Turbenthal,"Hofwiesweg 2, Turbenthal",47.44005670000001,8.844311,Aldi
Migros-Supermarkt - Sirnach,"Winterthurerstrasse 27, Sirnach",47.4637749,8.991790199999999,Migros
Migros-Supermarkt - Münchwilen,"Wilerstrasse 5, Münchwilen",47.4777369,8.9981834,Migros
Migros-Supermarkt - Bronschhofen,"Amp-Strasse 2, Bronschhofen",47.4807063,9.032590299999999,Migros
Lidl Schweiz,"Frauenfelderstrasse 20c, Münchwilen",47.4815937,8.9925166,Migros
Coop Supermarkt Münchwilen,"Frauenfelderstrasse 4, Münchwilen",47.4794085,8.9953547,Coop
Migros-Supermarkt - Münchwilen,"Wilerstrasse 5, Münchwilen",47.4777369,8.9981834,Coop
Coop Supermarkt Sirnach NEU,"Unterdorfstrasse 18, Sirnach",47.4631553,8.9949043,Coop
Coop Pronto Shop mit Tankstelle Münchwilen,"Frauenfelderstrasse 6, Münchwilen",47.4798741,8.9950115,Coop
Coop Pronto Shop mit Tankstelle Sirnach,"Wilerstrasse 100, Sirnach",47.462891,9.0219832,Coop
Lidl Schweiz,"Frauenfelderstrasse 20c, Münchwilen",47.4815937,8.9925166,Coop
Migros-Supermarkt - Sirnach,"Winterthurerstrasse 27, Sirnach",47.4637749,8.991790199999999,Coop
Lidl Schweiz,"Frauenfelderstrasse 20c, Münchwilen",47.4815937,8.9925166,Lidl
Migros-Supermarkt - Münchwilen,"Wilerstrasse 5, Münchwilen",47.4777369,8.9981834,Lidl
SPAR Supermarkt Eschlikon,"Winterthurerstrasse 4, Eschlikon",47.4623775,8.9550302,Lidl
Coop Supermarkt Münchwilen,"Frauenfelderstrasse 4, Münchwilen",47.4794085,8.9953547,Lidl
Volg,"Bahnhofstrasse 50, Eschlikon",47.4645148,8.9692395,Lidl
Migros-Supermarkt - Sirnach,"Winterthurerstrasse 27, Sirnach",47.4637749,8.991790199999999,Lidl
Denner Express,"Wilerstrasse 6, Sirnach",47.4616471,8.9986116,Denner
Denner Partner,"Ebnetstrasse 5, Sirnach",47.4688273,8.9927672,Denner
Denner Express,"Weinfelderstrasse 13a, Münchwilen",47.4786529,8.9993105,Denner
Lidl Schweiz,"Frauenfelderstrasse 20c, Münchwilen",47.4815937,8.9925166,Denner
Migros-Supermarkt - Sirnach,"Winterthurerstrasse 27, Sirnach",47.4637749,8.991790199999999,Denner
ALDI SUISSE,"Wilerstrasse 98, Sirnach",47.462552,9.020765599999999,Aldi
Migros-Supermarkt - Kirchberg-Stelz,"Wilerstrasse 204, Kirchberg",47.4389567,9.056758,Migros
Migros-Supermarkt - Bazenheid,"Wilerstrasse 17, Bazenheid",47.4127462,9.0684864,Migros
Migros-Supermarkt - Wil SG,"Obere Bahnhofstrasse 5, Wil",47.4626579,9.042736999999999,Migros
Migros-Supermarkt - Uzwil - Birkenhof,"Lindenstrasse 5, Uzwil",47.4366031,9.1349219,Migros
Migros-Supermarkt - Zuzwil,"Herbergstrasse 17, Zuzwil",47.4719369,9.112627699999999,Migros
migrolino Zuzwil,"St. Gallerstrasse 22, Zuzwil",47.4683377,9.109635599999999,Migros
migrolino Kirchberg Stelz,"Wilerstrasse 208, Kirchberg",47.4395104,9.0558634,Migros
Coop Supermarkt Wil Stadtmarkt,"Obere Bahnhofstrasse 39, Wil",47.4646192,9.045373,Migros
Coop Supermarkt Rickenbach,"Breitestrasse 4, Rickenbach",47.4469776,9.0535898,Migros
Lidl Schweiz,"Glärnischstrasse 5, Wilen",47.45388,9.04135,Migros
Coop Supermarkt Rickenbach,"Breitestrasse 4, Rickenbach",47.4469776,9.0535898,Coop
Coop Supermarkt Wil Stadtmarkt,"Obere Bahnhofstrasse 39, Wil",47.4646192,9.045373,Coop
Coop Supermarkt Zuzwil Herbergmarkt,"Herbergstrasse 12, Zuzwil",47.4732184,9.112735299999999,Coop
Migros-Supermarkt - Kirchberg-Stelz,"Wilerstrasse 204, Kirchberg",47.4389567,9.056758,Coop
SPAR Supermarkt Eschlikon,"Winterthurerstrasse 4, Eschlikon",47.4623775,8.9550302,Coop
Coop Pronto Shop mit Tankstelle Kirchberg,"Wilerstrasse 228, Kirchberg",47.4386373,9.0565375,Coop
Coop Pronto Shop mit Tankstelle Wil,"Toggenburgerstrasse 103, Wil",47.4584522,9.0481454,Coop
Migros-Supermarkt - Wil SG,"Obere Bahnhofstrasse 5, Wil",47.4626579,9.042736999999999,Coop
Migros-Supermarkt - Uzwil - Birkenhof,"Lindenstrasse 5, Uzwil",47.4366031,9.1349219,Coop
Lidl Schweiz,"Glärnischstrasse 5, Wilen",47.45388,9.04135,Lidl
ALDI SUISSE,"Herbergstrasse 26, Zuzwil",47.4703953,9.1102882,Lidl
ALDI SUISSE AG.,"Niederstettenstrasse 3, Jonschwil",47.4474562,9.066923599999999,Lidl
Denner Partner,"Wilerstrasse 15, Bazenheid",47.4122222,9.068333299999999,Denner
Denner Partner,"Konstanzerstrasse 28, Rossrüti",47.4742549,9.062267499999999,Denner
Denner Express,"Bronschhoferstrasse 79, Wil",47.4717681,9.039285,Denner
Denner Partner,"Herbergstrasse 11, Zuzwil",47.47295829999999,9.1131052,Denner
Denner Express,"Bahnhofstrasse 2, Wil",47.46241819999999,9.0413602,Denner
Denner Discount,"J.-G. Müllerstrasse 2, Wil",47.4653211,9.044435199999999,Denner
Denner Discount,"Bahnhofstrasse 82, Uzwil",47.4368482,9.1333951,Denner
Denner Discount,"Weidstrasse 4, Wilen",47.4535674,9.039629099999999,Denner
Denner Discount,"b. WIL SG CH, Wilerstrasse 202/204, Kirchberg",47.439084,9.0567405,Denner
Migros-Supermarkt - Kirchberg-Stelz,"Wilerstrasse 204, Kirchberg",47.4389567,9.056758,Denner
Coop Supermarkt Rickenbach,"Breitestrasse 4, Rickenbach",47.4469776,9.0535898,Denner
Coop Supermarkt Zuzwil Herbergmarkt,"Herbergstrasse 12, Zuzwil",47.4732184,9.112735299999999,Denner
ALDI SUISSE AG.,"Niederstettenstrasse 3, Jonschwil",47.4474562,9.066923599999999,Aldi
ALDI SUISSE,"Obere Bahnhofstrasse 19, Wil",47.4639744,9.0432425,Aldi
ALDI SUISSE,"Breitestrasse 5, Rickenbach",47.4460506,9.0525323,Aldi
ALDI SUISSE,"Herbergstrasse 26, Zuzwil",47.4703953,9.1102882,Aldi
ALDI SUISSE,"Wilerstrasse 50, Bazenheid",47.4165924,9.0654694,Aldi
Migros-Supermarkt - Münchwilen,"Wilerstrasse 5, Münchwilen",47.4777369,8.9981834,Aldi
Migros-Supermarkt - Wil SG,"Obere Bahnhofstrasse 5, Wil",47.4626579,9.042736999999999,Aldi
Migros-Supermarkt - Zuzwil,"Herbergstrasse 17, Zuzwil",47.4719369,9.112627699999999,Aldi
Coop Supermarkt Rickenbach,"Breitestrasse 4, Rickenbach",47.4469776,9.0535898,Aldi
Migros-Supermarkt - Bronschhofen,"Amp-Strasse 2, Bronschhofen",47.4807063,9.032590299999999,Aldi
Lidl Schweiz,"Glärnischstrasse 5, Wilen",47.45388,9.04135,Aldi
Lidl Schweiz,"Frauenfelderstrasse 20c, Münchwilen",47.4815937,8.9925166,Aldi
Migros-Supermarkt - Flawil,"Magdenauerstrasse 10, Flawil",47.4128303,9.1861496,Migros
migrolino Flawil,"Bahnhofpl. 8, Flawil",47.4154568,9.1892427,Migros
Coop Supermarkt Zuzwil Herbergmarkt,"Herbergstrasse 12, Zuzwil",47.4732184,9.112735299999999,Migros
Coop Supermarkt Münchwilen,"Frauenfelderstrasse 4, Münchwilen",47.4794085,8.9953547,Migros
migrolino Wil,"Toggenburgerstrasse 129, Wil",47.4555484,9.0490038,Migros
Denner Discount,"Magdenauerstrasse 10, Flawil",47.4130419,9.1854473,Migros
Denner Discount,"b. WIL SG CH, Wilerstrasse 202/204, Kirchberg",47.439084,9.0567405,Migros
Coop Supermarkt Uzwil,"Wattstrasse 1, Uzwil",47.4361447,9.139066999999999,Migros
Coop Supermarkt Niederuzwil,"Henauerstrasse 18, Niederuzwil",47.4456999,9.139792,Migros
ALDI SUISSE,"Grossacker 2, Niederuzwil",47.4445762,9.1474513,Migros
Coop Supermarkt Uzwil,"Wattstrasse 1, Uzwil",47.4361447,9.139066999999999,Coop
Coop Supermarkt Niederuzwil,"Henauerstrasse 18, Niederuzwil",47.4456999,9.139792,Coop
Coop Supermarkt Flawil,"Schweissbrunnstrasse 4, Flawil",47.4139111,9.1853232,Coop
Lidl,"Waldburgstrasse 11, Uzwil",47.4426096,9.1463638,Lidl
ALDI SUISSE,"Grossacker 2, Niederuzwil",47.4445762,9.1474513,Lidl
Denner Discount,"Oswald-Heergasse 4, Niederuzwil",47.446018,9.141712,Denner
Denner Discount,"Magdenauerstrasse 10, Flawil",47.4130419,9.1854473,Denner
Migros-Supermarkt - Flawil,"Magdenauerstrasse 10, Flawil",47.4128303,9.1861496,Denner
Coop Supermarkt Uzwil,"Wattstrasse 1, Uzwil",47.4361447,9.139066999999999,Denner
ALDI SUISSE,"Wilerstrasse 82, Gossau",47.4183043,9.2359932,Denner
ALDI SUISSE,"Wilerstrasse 117, Flawil",47.4154613,9.1801654,Aldi
ALDI SUISSE,"Grossacker 2, Niederuzwil",47.4445762,9.1474513,Aldi
ALDI SUISSE,"Wilerstrasse 82, Gossau",47.4183043,9.2359932,Aldi
Lidl,"Waldburgstrasse 11, Uzwil",47.4426096,9.1463638,Aldi
Migros-Supermarkt - Bad Zurzach,"Promenadestrasse 10, Bad Zurzach",47.5859375,8.2962551,Migros
Migros-Supermarkt - Eglisau-Nord,"Bauelenzelgstrasse 16, Eglisau",47.5803378,8.5130167,Migros
Coop Supermarkt Glattfelden,"Emmerstrasse 12, Glattfelden",47.55682849999999,8.5027777,Coop
Coop Supermarkt Niederglatt,"Sägereistrasse 2, Niederglatt",47.4913766,8.5038672,Coop
Coop Supermarkt Hüntwangen,"Bauelenzelgstrasse 8, Hüntwangen",47.5819202,8.5141853,Coop
Coop Supermarkt Mellingen,"Birrfeldstrasse 21, Mellingen",47.4185543,8.2698939,Coop
Coop Supermarkt Geroldswil,"Huebwiesenstrasse 25, Geroldswil",47.4214154,8.4097181,Coop
Coop Supermarkt Bad Zurzach,"Baslerstrasse 11, Bad Zurzach",47.5893643,8.2917905,Coop
Coop Supermarkt Ehrendingen,"Dorfstrasse 17, Ehrendingen",47.4943592,8.341014099999999,Coop
Coop Supermarkt Baden-Dättwil,"Mellingerstrasse 212, Baden",47.4507293,8.2905123,Coop
Coop Supermarkt Niederrohrdorf,"Zentrum 2, Niederrohrdorf",47.4235135,8.3050596,Coop
Coop Supermarkt Nussbaumen,"Kirchweg 27, Nussbaumen",47.4883282,8.2920119,Coop
Coop Supermarkt Bülach im Guss,"Schaffhauserstrasse 110, Bülach",47.5266515,8.536158,Coop
Coop Pronto Shop Wettingen Landstrasse 79,"Landstrasse 79, Wettingen",47.46692909999999,8.3248733,Coop
Coop Pronto Shop mit Tankstelle Wettingen Landstrasse,"Landstrasse 151, Wettingen",47.462003,8.3355246,Coop
Coop Pronto Shop mit Tankstelle Baden,"Mellingerstrasse 160, Baden",47.4666563,8.2916782,Coop
ALDI SÜD,"Hauptstraße 66, Hohentengen am Hochrhein",47.5729107,8.4480617,Lidl
Coop Supermarkt Mellingen,"Birrfeldstrasse 21, Mellingen",47.4185543,8.2698939,Lidl
Migros-Supermarkt - Nussbaumen - Markthof,"Schulstrasse 2, Nussbaumen b.Baden",47.4881919,8.2923799,Lidl
Denner Discount,"Hochhaus 9, Spreitenbach",47.4226336,8.3704576,Lidl
Denner Partner,"Marktgasse 12, Endingen",47.5372005,8.290831599999999,Lidl
Denner Partner,"Marktgasse 12, Endingen",47.5372005,8.290831599999999,Denner
Denner Partner,"Zürcherstrasse 17, Neerach",47.5118245,8.4777033,Denner
Denner Discount,"Sandgruebstrasse 1, Eglisau",47.5684055,8.5231897,Denner
Denner Discount,"Baslerstrasse 1, Bad Zurzach",47.5897288,8.2920091,Denner
Denner Discount,"Bauelenzelgstrasse 16, Eglisau",47.5803378,8.5130167,Denner
Denner Discount,"Glasistrasse 4, Bülach",47.52630689999999,8.535392,Denner
SPAR,"Regensbergstrasse 300, Zürich",47.4115648,8.5279289,Denner
Migros-Supermarkt - Zürich - Affoltern,"Jonas-Furrer-Strasse 21, Zürich",47.4203808,8.5085333,Denner
Coop Supermarkt Dietikon Silbern,"Silbernstrasse 9, Dietikon",47.4185483,8.3920055,Denner
Coop Supermarkt Zürich Wehntalerstrasse,"Wehntalerstrasse 549, Zürich",47.418887,8.5055923,Denner
Coop Supermarkt Regensdorf Zentrum,"Im Zentrum 1, Regensdorf",47.4315226,8.4694463,Denner
SPAR,"Pumpwerkstrasse 56, Regensdorf",47.445349,8.4640988,Denner
Lidl Schweiz,"Schwimmbadstrasse 29, Wettingen",47.46167,8.31073,Denner
Coop Supermarkt Rümlang Riedmatt,"Oberglatterstrasse 35, Rümlang",47.4632596,8.5255447,Denner
ALDI SUISSE,"Feldstrasse 32, Regensdorf",47.4383568,8.4730396,Denner
Migros-Supermarkt - Nussbaumen - Markthof,"Schulstrasse 2, Nussbaumen b.Baden",47.4881919,8.2923799,Denner
Coop Supermarkt Baden Bahnhof,"Langhaus 5, Baden",47.4768646,8.307085599999999,Denner
VOLG Schneisingen mit Postagentur,"Dorfstrasse 9, Schneisingen",47.5168798,8.3652126,Denner
Migros-Supermarkt - Regensdorf - Zentrum,"Im Zentrum 1, Regensdorf",47.4310112,8.4691587,Denner
Coop Supermarkt Hüntwangen,"Bauelenzelgstrasse 8, Hüntwangen",47.5819202,8.5141853,Denner
Aksa Food Höngg AG,"Wehntalerstrasse 280, Zürich",47.411176,8.5263726,Denner
ALDI SÜD,"Hauptstraße 66, Hohentengen am Hochrhein",47.5729107,8.4480617,Aldi
ALDI SÜD,"Zwischen den Rainen 8, Küssaberg",47.5905783,8.3079032,Aldi
Volg Niederweningen,"Alte Poststrasse 2, Niederweningen",47.5075976,8.3805219,Aldi
Migros-Supermarkt - Bad Zurzach,"Promenadestrasse 10, Bad Zurzach",47.5859375,8.2962551,Aldi
Denner Partner,"Marktgasse 12, Endingen",47.5372005,8.290831599999999,Aldi
Denner Discount,"Baslerstrasse 1, Bad Zurzach",47.5897288,8.2920091,Aldi
Volg,"Stadlerstrasse 4, Weiach",47.557312,8.4359512,Aldi
Migros-Supermarkt - Niederhasli,"Dorfstrasse 20, Niederhasli",47.4799429,8.4854114,Aldi
Volg Obersteinmaur,"Hauptstrasse 55, Steinmaur",47.4989324,8.454485499999999,Aldi
Aksa Food Höngg AG,"Wehntalerstrasse 280, Zürich",47.411176,8.5263726,Aldi
Lidl Schweiz,"Schwimmbadstrasse 29, Wettingen",47.46167,8.31073,Aldi
Coop Supermarkt Mellingen,"Birrfeldstrasse 21, Mellingen",47.4185543,8.2698939,Aldi
Optimal Food,"Meienbreitenstrasse 15, Rümlang",47.459011,8.525418,Aldi
Lidl,"Lägernstrasse 4, Oberglatt",47.4753271,8.5070482,Aldi
Volg Würenlos,"Schulstrasse 22, Würenlos",47.442429,8.3656279,Aldi
Migros-Supermarkt - Embrach,"Bülacherstrasse 17, Embrach",47.5101605,8.591849999999999,Migros
Migros-Supermarkt - Bülach - Sonnenhof,"Bahnhofstrasse 28, Bülach",47.5211257,8.5403165,Migros
Migros-Supermarkt - Bülach Süd,"Feldstrasse 85, Bülach",47.5094771,8.5400268,Migros
Bülach Süd Center,"Feldstrasse 85, Bülach",47.51,8.5402778,Migros
Coop Supermarkt Zürich Airport Shopping,"Airport Center, Prime Center 1, Zürich",47.4507076,8.5626971,Migros
Coop Supermarkt Hüntwangen,"Bauelenzelgstrasse 8, Hüntwangen",47.5819202,8.5141853,Migros
migrolino Glattbrugg,"Schaffhauserstrasse 40, Opfikon",47.4289971,8.5593152,Migros
Coop,"Hofwiesenstrasse 370, Zürich",47.4111959,8.5444925,Migros
Coop Supermarkt Zürich Andreasturm,"Andreasstrasse 5, Zürich",47.4128992,8.5473685,Coop
Coop Supermarkt City Zürich Oerlikon Food,"Wallisellenstrasse 1, Zürich",47.4103731,8.546684299999999,Coop
Coop Supermarkt Glattbrugg Bahnhof,"Europa-Strasse 4, Opfikon",47.4306799,8.5600273,Coop
Coop Pronto Shop Zürich-Oerlikon Bahnhof,"Hofwiesenstrasse 369, Zürich",47.4112509,8.543221299999999,Coop
Coop Supermarkt Bachenbülach,"Grabenstrasse 6, Bachenbülach",47.5058927,8.541820099999999,Coop
Coop Supermarkt Zürich Leutschenbach,"Leutschenbachstrasse 70, Zürich",47.416754,8.5564286,Coop
Coop Supermarkt Embrach,"Dorfstrasse 138, Embrach",47.5109947,8.594256699999999,Coop
Coop Pronto Shop Zürich Main Tower,"Thurgauerstrasse 36, Zürich",47.4138904,8.5514837,Coop
Migros-Supermarkt - Embrach,"Bülacherstrasse 17, Embrach",47.5101605,8.591849999999999,Coop
Coop Pronto Shop mit Tankstelle Geroldswil,"Limmattalstrasse 25, Geroldswil",47.4192575,8.414420999999999,Coop
Coop Pronto Shop Zürich Seebach,"Schaffhauserstrasse 499, Zürich",47.4214274,8.5497304,Coop
MIGROS,"Zurich Airport, Flughafen, Kloten",47.450269,8.5625336,Coop
Migros-Supermarkt - Dielsdorf,"Ruchwiesenstrasse 2, Dielsdorf",47.4805972,8.464537,Coop
Coop Pronto Shop mit Tankstelle Dietikon Silbernstrasse,"Silbernstrasse 8A, Dietikon",47.416572,8.3961413,Coop
Coop Pronto Shop mit Tankstelle Regensdorf,"Adlikerstrasse 285, Regensdorf",47.4436755,8.465683,Coop
Bülach Süd Center,"Feldstrasse 85, Bülach",47.51,8.5402778,Coop
Coop Pronto Shop mit Tankstelle Glattbrugg,"Schaffhauserstrasse 29, Opfikon",47.4293168,8.558990999999999,Coop
Migros-Supermarkt - Eglisau-Nord,"Bauelenzelgstrasse 16, Eglisau",47.5803378,8.5130167,Coop
Migros-Supermarkt - Oberglatt,"Lägernstrasse 6, Oberglatt",47.47555999999999,8.507587,Coop
Migros-Supermarkt - Regensdorf - Zentrum,"Im Zentrum 1, Regensdorf",47.4310112,8.4691587,Coop
Lidl Schweiz,"Grabenstrasse 2, Bachenbülach",47.504424,8.542432699999999,Lidl
Bülach Süd Center,"Feldstrasse 85, Bülach",47.51,8.5402778,Lidl
Migros-Supermarkt - Bülach - Sonnenhof,"Bahnhofstrasse 28, Bülach",47.5211257,8.5403165,Lidl
ALDI SUISSE,"Industriestrasse 4, Embrach",47.5164998,8.594326299999999,Lidl
Migros-Supermarkt - Bülach Süd,"Feldstrasse 85, Bülach",47.5094771,8.5400268,Lidl
Denner Discount,"Sonnenhof, Bahnhofstrasse 28 Einkaufszentrum, Bahnhofstrasse 28, Bülach",47.5210629,8.540381,Lidl
Richard Wagner E. K.,"Hauptstraße 14, Hohentengen am Hochrhein",47.56973989999999,8.433904499999999,Lidl
ALDI SUISSE,"Ruchwiesenstrasse 5, Dielsdorf",47.4819575,8.4663398,Lidl
ALDI SUISSE,"Dammstrasse 24, Otelfingen",47.4594554,8.4013037,Lidl
migrolino Regensdorf,"Feldstrasse 6, Regensdorf",47.437556,8.474373,Lidl
Denner Discount,"Grabenstrasse 2, Bachenbülach",47.5042736,8.541869499999999,Denner
Denner Express,"Dorfstrasse 147, Embrach",47.5125,8.593397999999999,Denner
Denner Discount,"Sonnenhof, Bahnhofstrasse 28 Einkaufszentrum, Bahnhofstrasse 28, Bülach",47.5210629,8.540381,Denner
Denner Discount,"Thurgauerstrasse 106, Opfikon",47.4211328,8.557648,Denner
Denner Discount,"Feldstrasse 85 Center Bülach Süd, Feldstrasse 85, Bülach",47.50962149999999,8.539253,Denner
Denner Discount,"Hardhofstrasse 9, Embrach",47.51814,8.59442,Denner
Denner Discount,"Binzmühlestrasse 80, Zürich",47.4143106,8.5421529,Denner
Neumarkt Oerlikon,"Hofwiesenstrasse 350, Zürich",47.4104775,8.5429323,Denner
Bülach Süd Center,"Feldstrasse 85, Bülach",47.51,8.5402778,Denner
Migros-Supermarkt - Glattbrugg,"Wallisellerstrasse 8, Opfikon",47.4342512,8.5677226,Denner
ALDI SUISSE,"Industriestrasse 4, Embrach",47.5164998,8.594326299999999,Aldi
ALDI SUISSE,"Grabenstrasse 5, Bachenbülach",47.5053705,8.5404533,Aldi
Bülach Süd Center,"Feldstrasse 85, Bülach",47.51,8.5402778,Aldi
Coop Supermarkt Zürich Eleven,"Sophie-Taeuber-Strasse 4, Zürich",47.4134803,8.5410152,Aldi
Migros-Supermarkt - Zürich - Oerlikon Neumarkt,"Einkaufszentrum Neumarkt, Hofwiesenstrasse 350, Zürich",47.4105054,8.5430437,Aldi
Lidl Schweiz,"Ohmstrasse 11, Zürich",47.41014,8.5468199,Aldi
Denner Express,"Dorfstrasse 147, Embrach",47.5125,8.593397999999999,Aldi
migrolino Zürich Thurgauerstrasse,"Thurgauerstrasse 100, Zürich",47.41979689999999,8.5563336,Aldi
Volg,"Dorfstrasse 8, Freienstein-Teufen",47.5303583,8.5825631,Aldi
Art of food,"Franklinstrasse 4, Zürich",47.4088687,8.5461118,Aldi
MIGROS,"Zurich Airport, Flughafen, Kloten",47.450269,8.5625336,Aldi
Lidl,"Neue Winterthurerstrasse 2, Wallisellen",47.41238,8.61366,Aldi
Denner Discount,"Sonnenhof, Bahnhofstrasse 28 Einkaufszentrum, Bahnhofstrasse 28, Bülach",47.5210629,8.540381,Aldi
Migros-Supermarkt - Winterthur - Neuwiesen,"Strickerstrasse 3, Winterthur",47.499456,8.7207168,Migros
Migros-Supermarkt - Winterthur - Rosenberg,"Schaffhauserstrasse 154, Winterthur",47.5189185,8.7202173,Migros
Migros-Supermarkt - Winterthur - Obertor,"Stadthausstrasse 31, Winterthur",47.500087,8.7318106,Migros
Migros-Supermarkt - Winterthur - Blumenau,"Wülflingerstrasse 71, Winterthur",47.5069369,8.7121699,Migros
Migros-Supermarkt - Winterthur - Wülflingen,"Lindenplatz 1, Winterthur",47.5107063,8.693848299999999,Migros
Migros-Supermarkt - Seuzach,"Winterthurerstrasse 5, Seuzach",47.5355789,8.7302761,Migros
Migros-Supermarkt - teo Lokstadt,"Dialogpl. 10, Winterthur",47.4959277,8.7154063,Migros
Migros-Supermarkt - teo Ohringen,"Schaffhauserstrasse 77, Seuzach",47.5285023,8.709372499999999,Migros
migrolino,"Bahnhofpl. 15/17, Winterthur",47.50119979999999,8.7247328,Migros
Coop Supermarkt Embrach,"Dorfstrasse 138, Embrach",47.5109947,8.594256699999999,Migros
Coop Supermarkt Winterthur Stadttor,"Bahnhofpl. 5, Winterthur",47.4996644,8.723561,Coop
Lidl Schweiz,"Tössallmend 2a, Neftenbach",47.51926,8.65762,Lidl
Coop Supermarkt Winterthur Feldstrasse,"Feldstrasse 11, Winterthur",47.5085541,8.717882399999999,Lidl
ALDI SUISSE,"Archhöfe, Archpl. 2, Winterthur",47.4980845,8.7243629,Lidl
ALDI SUISSE,"Feldstrasse 32, Regensdorf",47.4383568,8.4730396,Lidl
ALDI SUISSE,"Archhöfe, Archpl. 2, Winterthur",47.4980845,8.7243629,Aldi
ALDI SUISSE,"Parkhaus Rosenberg, Schaffhauserstrasse 152, Winterthur",47.51863,8.7199086,Aldi
ALDI SUISSE,"Schlosstalstrasse 96, Winterthur",47.4986712,8.6968228,Aldi
Migros-Supermarkt - Winterthur - Rosenberg,"Schaffhauserstrasse 154, Winterthur",47.5189185,8.7202173,Aldi
Caritas-Markt Winterthur,"Zürcherstrasse 77, Winterthur",47.4928096,8.7093738,Aldi
Migros-Supermarkt - Seuzach,"Winterthurerstrasse 5, Seuzach",47.5355789,8.7302761,Aldi
Denner Discount,"Hardhofstrasse 9, Embrach",47.51814,8.59442,Aldi
Lidl,"Schaffhauserstrasse 165, Kloten",47.45470330000001,8.579192899999999,Aldi
Coop Supermarkt Embrach,"Dorfstrasse 138, Embrach",47.5109947,8.594256699999999,Aldi
Volg Bülach,"Berglistrasse 24, Bülach",47.5230077,8.5468342,Aldi
Migros-Supermarkt - Winterthur - Oberwinterthur,"Guggenbühlstrasse 1, Winterthur",47.5111956,8.7590408,Migros
Migros-Supermarkt - Winterthur - Deutweg,"Pflanzschulstrasse 9, Winterthur",47.4947443,8.740240499999999,Migros
Migros-Supermarkt - Winterthur - Hegi,"Hintermühlenstrasse 4, Winterthur",47.5042359,8.772159799999999,Migros
Migros-Supermarkt - teo Neuhegi,"Sulzerallee 54, Winterthur",47.5021268,8.7632312,Migros
Migros-Supermarkt - Wiesendangen,"Alte Frauenfelderstrasse 9, Wiesendangen",47.5230848,8.773190699999999,Migros
Coop Supermarkt Winterthur Lokwerk,"Zürcherstrasse 51, Winterthur",47.494827,8.7127721,Migros
gooods Winterthur,"Bahnhofpl. 6, Winterthur",47.4994212,8.724114199999999,Migros
migrolino Winterthur Seen,"Tösstalstrasse 205, Winterthur",47.4872427,8.7549745,Migros
Coop Supermarkt Winterthur Grüzemarkt,"Rudolf-Diesel-Strasse 19, Winterthur",47.4952888,8.7587267,Coop
Coop Supermarkt Winterthur Oberi,"Römertorstrasse 16, Winterthur",47.50913689999999,8.7583856,Coop
Coop Supermarkt Winterthur Lokwerk,"Zürcherstrasse 51, Winterthur",47.494827,8.7127721,Coop
Coop Supermarkt Winterthur Wülflingen,"Wülflingerstrasse 271, Winterthur",47.5102949,8.6916922,Coop
Coop Supermarkt Winterthur Feldstrasse,"Feldstrasse 11, Winterthur",47.5085541,8.717882399999999,Coop
Coop Supermarkt Winterthur Stadtgarten,"Bankstrasse 8, Winterthur",47.5006559,8.7258918,Coop
Coop Supermarkt Winterthur Hegi,"Stäffelistrasse 7, Winterthur",47.5038982,8.7708385,Coop
Coop Supermarkt Neftenbach,"Winterthurstrasse 17, Neftenbach",47.5261899,8.6690899,Coop
Coop Supermarkt Seuzach,"Strehlgasse 27, Seuzach",47.5369484,8.7340807,Coop
Coop Supermarkt Wiesendangen,"Attikerstrasse 1, Wiesendangen",47.5230753,8.7875044,Coop
Migros-Supermarkt - Winterthur - Wülflingen,"Lindenplatz 1, Winterthur",47.5107063,8.693848299999999,Coop
Coop Supermarkt Räterschen,"Stationsstrasse 2A, Elsau",47.498692,8.7975997,Coop
SPAR Supermarkt Kloten,"Breitistrasse 24, Kloten",47.4477285,8.5842285,Coop
Coop Supermarkt City Winterthur Food,"Bahnhofpl. 3, Winterthur",47.4993784,8.7235009,Coop
Coop Pronto Shop mit Tankstelle Winterthur Grüze,"Rudolf-Diesel-Strasse 13, Winterthur",47.4948033,8.756827399999999,Coop
Coop Pronto Shop mit Tankstelle Embrach,"Industriestrasse 2, Embrach",47.5172939,8.5942191,Coop
Coop Pronto Shop mit Tankstelle Winterthur Schönengrund,"Im Schönengrund 1, Winterthur",47.4999015,8.7640961,Coop
Coop Pronto Shop mit Tankstelle Winterthur Albert Einstein,"Albert-Einstein-Strasse 1, Winterthur",47.51596350000001,8.7663993,Coop
Lidl Schweiz,"Im Schönengrund 3, Winterthur",47.49897,8.7636,Coop
Lidl Schweiz,"Im Schönengrund 3, Winterthur",47.49897,8.7636,Lidl
ALDI SUISSE,"Industriestrasse 9, Winterthur",47.4969978,8.7523574,Lidl
Denner Discount,"Schützenstrasse 39, Winterthur",47.5043843,8.7191378,Lidl
Volg Sulz,"Sulz CH, Stationsstrasse 32, Rickenbach",47.5408284,8.7880361,Lidl
Denner Discount,"Weiacherstrasse 1, Pfungen",47.5174697,8.6503136,Denner
Denner Express,"Zwischenweg 1, Neftenbach",47.5270623,8.6672658,Denner
Denner Discount,"Hintermühlenstrasse 4, Winterthur",47.5043424,8.7723531,Denner
Denner Express,"Stadthausstrasse 10a, Winterthur",47.5004427,8.7264614,Denner
Denner Discount,"Einkaufszentrum Rosenberg, Schaffhauserstrasse 152, Winterthur",47.518314,8.719864,Denner
Denner Discount,"Schützenstrasse 39, Winterthur",47.5043843,8.7191378,Denner
Denner Discount,"Grüzefeldstrasse 24, Winterthur",47.4968166,8.746644,Denner
Denner Discount,"Pflanzschulstrasse 9 Einkaufszentrum Deutweg, Winterthur",47.4949564,8.7407276,Denner
Denner Express,"Römerstrasse 243, Winterthur",47.5101458,8.7586756,Denner
Denner Discount,"Strickerstrasse 3, Winterthur",47.499084,8.720397,Denner
Denner Discount,"Frauenfelderstrasse 124, Winterthur",47.5022189,8.7484021,Denner
Migros-Supermarkt - Winterthur - Rosenberg,"Schaffhauserstrasse 154, Winterthur",47.5189185,8.7202173,Denner
Migros-Supermarkt - Winterthur - Töss,"Zürcherstrasse 102, Winterthur",47.4917855,8.7064372,Denner
Coop Supermarkt Kloten Marktgasse,"Bahnhofstrasse 3, Kloten",47.4494847,8.5826868,Denner
Coop Supermarkt Dietlikon Center,"Industriestrasse 28, Dietlikon",47.4132653,8.6189685,Denner
Migros-Supermarkt - Winterthur - Hegi,"Hintermühlenstrasse 4, Winterthur",47.5042359,8.772159799999999,Denner
Coop Supermarkt Winterthur Feldstrasse,"Feldstrasse 11, Winterthur",47.5085541,8.717882399999999,Denner
Migros-Supermarkt - Winterthur - Deutweg,"Pflanzschulstrasse 9, Winterthur",47.4947443,8.740240499999999,Denner
Migros-Supermarkt - Winterthur - Oberwinterthur,"Guggenbühlstrasse 1, Winterthur",47.5111956,8.7590408,Denner
SPAR express Winterthur,"Frauenfelderstrasse 44, Winterthur",47.5062452,8.7569497,Denner
Coop Supermarkt Winterthur Grüzemarkt,"Rudolf-Diesel-Strasse 19, Winterthur",47.4952888,8.7587267,Denner
ALDI SUISSE,"Bahnhofstrasse 6, Kloten",47.448978,8.582613,Denner
ALDI SUISSE,"Guggenbühlstrasse 6, Winterthur",47.5109491,8.759488,Aldi
ALDI SUISSE,"Industriestrasse 9, Winterthur",47.4969978,8.7523574,Aldi
Migros-Supermarkt - Winterthur - Oberwinterthur,"Guggenbühlstrasse 1, Winterthur",47.5111956,8.7590408,Aldi
Coop Supermarkt Winterthur Grüzemarkt,"Rudolf-Diesel-Strasse 19, Winterthur",47.4952888,8.7587267,Aldi
SPAR express Winterthur,"Frauenfelderstrasse 44, Winterthur",47.5062452,8.7569497,Aldi
Lidl Schweiz,"Im Schönengrund 3, Winterthur",47.49897,8.7636,Aldi
Coop Supermarkt Winterthur Oberi,"Römertorstrasse 16, Winterthur",47.50913689999999,8.7583856,Aldi
Migros-Supermarkt - Frauenfeld - Multiplex,"Langfeldstrasse 53a, Frauenfeld",47.5655588,8.9050453,Migros
Migros-Supermarkt - Frauenfeld - Passage,"Bahnhofpl. 72, Frauenfeld",47.5572283,8.896273599999999,Migros
Migros-Supermarkt - Matzingen,"Frauenfelderstrasse 95, Matzingen",47.5266094,8.922372,Migros
Migros-Supermarkt - Elgg,"St. Gallerstrasse 16, Elgg",47.49832989999999,8.8616235,Migros
Coop Supermarkt Winterthur Seen,"Tösstalstrasse 236, Winterthur",47.4845913,8.758720499999999,Migros
Coop Supermarkt Effretikon Effimärt,"Haldenstrasse 10, Illnau-Effretikon",47.4282208,8.6850655,Migros
Coop Supermarkt Frauenfeld Schlosspark,"Zürcherstrasse 138, Frauenfeld",47.5542174,8.8962605,Coop
Coop Supermarkt Frauenfeld Fallengatter,"Schaffhauserstrasse 17, Frauenfeld",47.5612755,8.8872141,Coop
Coop Supermarkt Aadorf,"Wiesentalstrasse 23, Aadorf",47.4928318,8.8997998,Coop
Coop Supermarkt Elgg,"Bahnhofstrasse 26, Elgg",47.4938555,8.865311499999999,Coop
Coop Supermarkt Frauenfeld Allmendcenter,"Juchstrasse 16, Frauenfeld",47.5674352,8.9064266,Coop
Coop Supermarkt Matzingen,"Thundorferstrasse 1, Matzingen",47.520299,8.9350578,Coop
Coop Pronto Shop mit Tankstelle Aadorf,"Morgentalstrasse 22, Aadorf",47.4932623,8.8987733,Coop
Coop Pronto Shop mit Tankstelle Frauenfeld Zürcherstrasse,"Zürcherstrasse 32, Frauenfeld",47.5520169,8.8787763,Coop
Coop Pronto Shop mit Tankstelle Frauenfeld Maurerstrasse,"Maurerstrasse 2, Frauenfeld",47.56699769999999,8.908503699999999,Coop
Coop Pronto Shop mit Tankstelle Frauenfeld Schaffhauserstr.,"Schaffhauserstrasse 84, Frauenfeld",47.5642157,8.8728348,Coop
Coop Pronto Shop mit Tankstelle Winterthur Wülflingenstrasse,"Wülflingerstrasse 394, Winterthur",47.5164177,8.6800447,Coop
Coop Pronto Shop mit Tankstelle Matzingen,"Frauenfelderstrasse 93, Matzingen",47.52636529999999,8.9227171,Coop
Migros-Supermarkt - Matzingen,"Frauenfelderstrasse 95, Matzingen",47.5266094,8.922372,Coop
Coop haltstelle,"Wülflingerstrasse 392, Winterthur",47.5163322,8.6799717,Coop
Lidl Schweiz,"Langfeldstrasse 70, Frauenfeld",47.5655874,8.9076819,Lidl
Migros-Supermarkt - Elgg,"St. Gallerstrasse 16, Elgg",47.49832989999999,8.8616235,Lidl
ALDI SUISSE,"Wittenwilerstrasse 45, Aadorf",47.498657,8.905691599999999,Lidl
ALDI SUISSE,"Wespenstrasse 16, Frauenfeld",47.5636579,8.8797648,Lidl
Denner Discount,"Zürcherstrasse 65 / 67, Frauenfeld",47.5527393,8.8844944,Lidl
Denner Discount,"Zürcherstrasse 297, Frauenfeld",47.5638606,8.9081643,Lidl
Denner Partner,"St. Gallerstrasse 18, Elgg",47.4980088,8.8620928,Denner
Denner Discount,"Frauenfelderstrasse 27, Matzingen",47.5215397,8.9305466,Denner
Denner Discount,"Oberwiesenstrasse 63, Frauenfeld",47.5567425,8.8812994,Denner
Denner Discount,"Zürcherstrasse 297, Frauenfeld",47.5638606,8.9081643,Denner
Denner Discount,"Zürcherstrasse 65 / 67, Frauenfeld",47.5527393,8.8844944,Denner
Denner Partner,"Weiernstrasse 20a, Aadorf",47.4969096,8.8984876,Denner
Denner Discount,"Bahnhofpl. 72, Frauenfeld",47.5572283,8.896273599999999,Denner
Migros-Supermarkt - Elgg,"St. Gallerstrasse 16, Elgg",47.49832989999999,8.8616235,Denner
Migros-Supermarkt - Frauenfeld - Passage,"Bahnhofpl. 72, Frauenfeld",47.5572283,8.896273599999999,Denner
Migros-Supermarkt - Effretikon - Effi-Märt,"Märtpl. 5, Illnau-Effretikon",47.4288561,8.6849426,Denner
ALDI SUISSE,"Wittenwilerstrasse 45, Aadorf",47.498657,8.905691599999999,Denner
migrolino Frauenfeld,"Bahnhofpl. 75, Frauenfeld",47.5583731,8.8969753,Denner
Lidl Schweiz,"Langfeldstrasse 70, Frauenfeld",47.5655874,8.9076819,Denner
Coop Supermarkt Winterthur Oberi,"Römertorstrasse 16, Winterthur",47.50913689999999,8.7583856,Denner
ALDI SUISSE,"Wespenstrasse 16, Frauenfeld",47.5636579,8.8797648,Aldi
ALDI SUISSE,"Wittenwilerstrasse 45, Aadorf",47.498657,8.905691599999999,Aldi
ALDI SUISSE Langfeld,"Juchstrasse 22, Frauenfeld",47.5689286,8.9089592,Aldi
migrolino Frauenfeld,"Schaffhauserstrasse 6, Frauenfeld",47.561228,8.889353,Migros
Coop Supermarkt Winterthur Hegi,"Stäffelistrasse 7, Winterthur",47.5038982,8.7708385,Migros
Coop Supermarkt Wängi,"Dorfstrasse 11, Wängi",47.4978401,8.9535999,Coop
Volg,"Welsikerstrasse 1, Dinhard",47.5550129,8.7692693,Coop
Volg Affeltrangen,"Märwilerstrasse 3, Affeltrangen",47.5272138,9.0315298,Lidl
Coop Pronto Shop mit Tankstelle Frauenfeld Maurerstrasse,"Maurerstrasse 2, Frauenfeld",47.56699769999999,8.908503699999999,Lidl
Denner Express,"Hauptstrasse 47, Lommis",47.5177,8.994299,Denner
Migros-Supermarkt - Elgg,"St. Gallerstrasse 16, Elgg",47.49832989999999,8.8616235,Aldi
Migros-Supermarkt - Winterthur - Hegi,"Hintermühlenstrasse 4, Winterthur",47.5042359,8.772159799999999,Aldi
Denner Discount,"Zürcherstrasse 297, Frauenfeld",47.5638606,8.9081643,Aldi
Volg Affeltrangen,"Märwilerstrasse 3, Affeltrangen",47.5272138,9.0315298,Aldi
Lidl Schweiz,"Langfeldstrasse 70, Frauenfeld",47.5655874,8.9076819,Aldi
Migros-Supermarkt - Weinfelden - Rösslifelsen,"Amriswilerstrasse 12, Weinfelden",47.5675849,9.1107625,Migros
Migros-Supermarkt - Weinfelden Weststrasse,"Weststrasse 27/29, Weinfelden",47.5674618,9.0941716,Migros
Lidl Schweiz,"Langfeldstrasse 70, Frauenfeld",47.5655874,8.9076819,Migros
Coop Supermarkt Frauenfeld Schlosspark,"Zürcherstrasse 138, Frauenfeld",47.5542174,8.8962605,Migros
Coop Supermarkt Frauenfeld Fallengatter,"Schaffhauserstrasse 17, Frauenfeld",47.5612755,8.8872141,Migros
Coop Supermarkt Wängi,"Dorfstrasse 11, Wängi",47.4978401,8.9535999,Migros
Coop Supermarkt Matzingen,"Thundorferstrasse 1, Matzingen",47.520299,8.9350578,Migros
Denner Discount,"Amriswilerstrasse 12, Weinfelden",47.56757959999999,9.1106765,Migros
Coop Supermarkt Weinfelden Thurmarkt,"Fichtenstrasse 18, Weinfelden",47.5667616,9.0968241,Coop
Coop Pronto Shop mit Tankstelle Weinfelden Thurmarkt,"Fichtenstrasse 18, Weinfelden",47.5658637,9.0969378,Coop
Migros-Supermarkt - Weinfelden - Rösslifelsen,"Amriswilerstrasse 12, Weinfelden",47.5675849,9.1107625,Coop
JUMBO Weinfelden Thurmarkt,"Fichtenstrasse 18, Weinfelden",47.5666786,9.0968941,Coop
Migros-Supermarkt - Weinfelden Weststrasse,"Weststrasse 27/29, Weinfelden",47.5674618,9.0941716,Coop
ALDI SUISSE,"Weststrasse 22, Weinfelden",47.5684607,9.0956979,Coop
Migros-Supermarkt - Zuzwil,"Herbergstrasse 17, Zuzwil",47.4719369,9.112627699999999,Coop
Volg,"Im Geere 1, Felben-Wellhausen",47.578126,8.944358,Coop
Lidl Schweiz,"Walkestrasse 28, Weinfelden",47.56474,9.0964972,Coop
ALDI SUISSE,"Breitestrasse 5, Rickenbach",47.4460506,9.0525323,Coop
Volg Wängi,"Aadorferstrasse 2, Wängi",47.4965646,8.9522697,Coop
Lidl Schweiz,"Walkestrasse 28, Weinfelden",47.56474,9.0964972,Lidl
Warenverteilzentrum Lidl Schweiz,"Dunantstrasse 16, Weinfelden",47.56541929999999,9.089411,Lidl
ALDI SUISSE,"Weststrasse 22, Weinfelden",47.5684607,9.0956979,Lidl
Migros-Supermarkt - Weinfelden - Rösslifelsen,"Amriswilerstrasse 12, Weinfelden",47.5675849,9.1107625,Lidl
Migros-Supermarkt - Weinfelden Weststrasse,"Weststrasse 27/29, Weinfelden",47.5674618,9.0941716,Lidl
Denner Discount,"Weststrasse 27 / 29, Weinfelden",47.5674922,9.0941942,Lidl
Volg Märstetten,"Dorfstrasse 16, Märstetten",47.5919611,9.0682683,Lidl
JUMBO Weinfelden Thurmarkt,"Fichtenstrasse 18, Weinfelden",47.5666786,9.0968941,Lidl
Denner Discount,"Weststrasse 27 / 29, Weinfelden",47.5674922,9.0941942,Denner
Denner Discount,"Amriswilerstrasse 12, Weinfelden",47.56757959999999,9.1106765,Denner
Migros-Supermarkt - Weinfelden Weststrasse,"Weststrasse 27/29, Weinfelden",47.5674618,9.0941716,Denner
Migros-Supermarkt - Weinfelden - Rösslifelsen,"Amriswilerstrasse 12, Weinfelden",47.5675849,9.1107625,Denner
Coop Supermarkt Frauenfeld Schlosspark,"Zürcherstrasse 138, Frauenfeld",47.5542174,8.8962605,Denner
Lidl Schweiz,"Walkestrasse 28, Weinfelden",47.56474,9.0964972,Denner
Coop Supermarkt Weinfelden Thurmarkt,"Fichtenstrasse 18, Weinfelden",47.5667616,9.0968241,Denner
ALDI SUISSE,"Weststrasse 22, Weinfelden",47.5684607,9.0956979,Aldi
Migros-Supermarkt - Weinfelden Weststrasse,"Weststrasse 27/29, Weinfelden",47.5674618,9.0941716,Aldi
Lidl Schweiz,"Walkestrasse 28, Weinfelden",47.56474,9.0964972,Aldi
Warenverteilzentrum Lidl Schweiz,"Dunantstrasse 16, Weinfelden",47.56541929999999,9.089411,Aldi
Volg Märstetten,"Dorfstrasse 16, Märstetten",47.5919611,9.0682683,Aldi
Migros-Supermarkt - Sulgen - Passerelle,"Hauptstrasse 3, Sulgen",47.540288,9.1827826,Migros
Migros-Supermarkt - teo Bürglen,"Weinfelderstrasse 33a, Bürglen",47.5529795,9.1457863,Migros
Coop Supermarkt Sulgen,"Bahnhofstrasse 13, Sulgen",47.54084779999999,9.1835241,Migros
Coop Supermarkt Sulgen,"Bahnhofstrasse 13, Sulgen",47.54084779999999,9.1835241,Coop
Coop Pronto Shop mit Tankstelle Uzwil,"Wattstrasse 3, Uzwil",47.4352727,9.138975499999999,Coop
SPAR Supermarkt Oberbüren,"Neudorf 2, Oberbüren",47.4514021,9.160419899999999,Coop
Coop Pronto Shop mit Tankstelle Flawil,"Wilerstrasse 228, Flawil",47.4174619,9.1696566,Coop
Lidl,"Waldburgstrasse 11, Uzwil",47.4426096,9.1463638,Coop
Denner Bibite,"Hauptstrasse 3, Sulgen",47.5403988,9.1822983,Denner
Denner Satellit,"Bahnhofstrasse 1, Berg",47.5815835,9.1688219,Denner
SPAR Supermarkt Bürglen,"Bahnhofstrasse 1, Bürglen",47.5493918,9.1528165,Denner
Volg,"Hauptstrasse 47a, Berg",47.579361,9.1667671,Denner
Migros-Supermarkt - Sulgen - Passerelle,"Hauptstrasse 3, Sulgen",47.540288,9.1827826,Denner
Migros-Supermarkt - Neunkirch,"Löhningerstrasse 4, Neunkirch",47.69034749999999,8.5043746,Migros
Denner Discount,"Sandgruebstrasse 1, Eglisau",47.5684055,8.5231897,Migros
Coop Supermarkt Neunkirch,"Bahnhofstrasse 1A, Neunkirch",47.6894701,8.4957978,Coop
Migros-Supermarkt - Neunkirch,"Löhningerstrasse 4, Neunkirch",47.69034749999999,8.5043746,Coop
Denner Discount,"Baslerstrasse 1, Bad Zurzach",47.5897288,8.2920091,Coop
Lidl,"Riedstraße 11, Lauchringen",47.62986,8.31433,Lidl
Lidl,"Hebelstraße 2, Waldshut-Tiengen",47.6303,8.266499999999999,Lidl
Lidl,"Hauptstraße 29, Küssaberg",47.613475,8.294235,Lidl
NORMA Filiale,"Berliner Str. 8, Waldshut-Tiengen",47.63250250000001,8.27956,Lidl
Netto Marken-Discount,"Gartenstraße 2A, Küssaberg",47.6126544,8.295784099999999,Lidl
ALDI SÜD,"Riedstraße 18, Lauchringen",47.6302495,8.316004999999999,Lidl
ALDI SÜD,"Porschestraße 24, Waldshut-Tiengen",47.6305464,8.2678162,Lidl
Mix Markt,"Brandenburger Str. 2, Waldshut-Tiengen",47.63175,8.2720988,Lidl
PENNY,"Breitenfelder Str. 4, Waldshut-Tiengen",47.63590600000001,8.2810773,Lidl
Netto Marken-Discount,"Weisweiler Str. 6, Klettgau",47.6577145,8.4290295,Lidl
EDEKA Lemke,"Silberwiese 8, Wutöschingen",47.6673658,8.3747843,Lidl
Migros-Supermarkt - Eglisau-Nord,"Bauelenzelgstrasse 16, Eglisau",47.5803378,8.5130167,Denner
ALDI SÜD,"Zwischen den Rainen 8, Küssaberg",47.5905783,8.3079032,Denner
ALDI SÜD,"Riedstraße 18, Lauchringen",47.6302495,8.316004999999999,Aldi
ALDI SÜD,"Porschestraße 24, Waldshut-Tiengen",47.6305464,8.2678162,Aldi
Netto Marken-Discount,"Gartenstraße 2A, Küssaberg",47.6126544,8.295784099999999,Aldi
NORMA Filiale,"Berliner Str. 8, Waldshut-Tiengen",47.63250250000001,8.27956,Aldi
PENNY,"Breitenfelder Str. 4, Waldshut-Tiengen",47.63590600000001,8.2810773,Aldi
Lidl,"Riedstraße 11, Lauchringen",47.62986,8.31433,Aldi
Lidl,"Hauptstraße 29, Küssaberg",47.613475,8.294235,Aldi
Lidl,"Hebelstraße 2, Waldshut-Tiengen",47.6303,8.266499999999999,Aldi
PENNY,"Am Güterbahnhof 8, Klettgau",47.6589817,8.4312905,Aldi
Netto Marken-Discount,"Weisweiler Str. 6, Klettgau",47.6577145,8.4290295,Aldi
EDEKA Lemke,"Silberwiese 8, Wutöschingen",47.6673658,8.3747843,Aldi
Boller´s Kaufhüsle,"Stettener Str. 2, Hohentengen am Hochrhein",47.5708432,8.4346839,Aldi
Migros-Supermarkt - Neuhausen,"Im Rhytech 4, Neuhausen am Rheinfall",47.68262,8.613567999999999,Migros
migrolino Neuhausen Rheinfall,"Schaffhauserstrasse 38, Neuhausen am Rheinfall",47.6861092,8.6215522,Migros
Alnatura Bio Super Markt Bülach Sonnenhof,"Sonnenhof, Bahnhofstrasse 28, Bülach",47.52115930000001,8.5400023,Migros
Coop Supermarkt Neuhausen Posthof,"Poststrasse 9, Neuhausen am Rheinfall",47.68276789999999,8.619652,Migros
Coop Supermarkt Neuhausen Posthof,"Poststrasse 9, Neuhausen am Rheinfall",47.68276789999999,8.619652,Coop
Coop Supermarkt Neuhausen Schützengut,"Zollstrasse 54, Neuhausen am Rheinfall",47.6800566,8.606555499999999,Coop
Migros-Supermarkt - Bülach - Sonnenhof,"Bahnhofstrasse 28, Bülach",47.5211257,8.5403165,Coop
ALDI SUISSE,"Industriestrasse 4, Embrach",47.5164998,8.594326299999999,Coop
Migros-Supermarkt - Neuhausen,"Im Rhytech 4, Neuhausen am Rheinfall",47.68262,8.613567999999999,Coop
Denner Discount,"Hardhofstrasse 9, Embrach",47.51814,8.59442,Coop
Denner Discount,"Poststrasse 18, Neuhausen am Rheinfall",47.683002,8.619211,Coop
Lidl,"Schaffhauser Str. 41, Jestetten",47.6542964,8.5757573,Lidl
Lidl,"Industriestraße 36, Lottstetten",47.6310049,8.579229999999999,Lidl
ALDI,"Schaffhauser Str. 29, Jestetten",47.6543261,8.574718599999999,Lidl
Barış Turkish Grocery Store,"Hauptstraße 45, Lottstetten",47.6269156,8.5725807,Lidl
PENNY,"Waldshuter Str. 1, Jestetten",47.6492823,8.567834200000002,Lidl
Denner Discount,"Poststrasse 18, Neuhausen am Rheinfall",47.683002,8.619211,Denner
Denner Discount,"Im Rhytech 4, Neuhausen am Rheinfall",47.6828197,8.613337099999999,Denner
Migros-Supermarkt - Bülach Süd,"Feldstrasse 85, Bülach",47.5094771,8.5400268,Denner
Migros-Supermarkt - Bülach - Sonnenhof,"Bahnhofstrasse 28, Bülach",47.5211257,8.5403165,Denner
ALDI SUISSE,"Industriestrasse 4, Embrach",47.5164998,8.594326299999999,Denner
Coop Supermarkt Neuhausen Posthof,"Poststrasse 9, Neuhausen am Rheinfall",47.68276789999999,8.619652,Denner
Coop Supermarkt Neuhausen Schützengut,"Zollstrasse 54, Neuhausen am Rheinfall",47.6800566,8.606555499999999,Denner
Coop Pronto Shop mit Tankstelle Embrach,"Industriestrasse 2, Embrach",47.5172939,8.5942191,Denner
ALDI,"Schaffhauser Str. 29, Jestetten",47.6543261,8.574718599999999,Aldi
Lidl,"Schaffhauser Str. 41, Jestetten",47.6542964,8.5757573,Aldi
Lidl,"Industriestraße 36, Lottstetten",47.6310049,8.579229999999999,Aldi
Barış Turkish Grocery Store,"Hauptstraße 45, Lottstetten",47.6269156,8.5725807,Aldi
EDEKA Jestetten,"Waldshuter Str. 17, Jestetten",47.6475523,8.565249699999999,Aldi
FRISTO Getränkemarkt,"Saarstraße 8, Jestetten",47.65344959999999,8.5744768,Aldi
PENNY,"Waldshuter Str. 1, Jestetten",47.6492823,8.567834200000002,Aldi
Coop Pronto Shop mit Tankstelle Embrach,"Industriestrasse 2, Embrach",47.5172939,8.5942191,Aldi
Migros-Supermarkt - Andelfingen,"Weinlandstrasse 4, Kleinandelfingen",47.6019644,8.6887168,Migros
migrolino Winterthur Rosenberg,"Schaffhauserstrasse 152, Winterthur",47.51849379999999,8.7194407,Migros
Migros-Supermarkt - Pfungen,"Weiacherstrasse 1, Pfungen",47.5174613,8.650236699999999,Migros
Coop Supermarkt Kleinandelfingen,"Schaffhauserstrasse 62, Kleinandelfingen",47.6030463,8.6884763,Coop
Coop Supermarkt Feuerthalen Rhymarkt,"Schützenstrasse 30, Feuerthalen",47.6909869,8.6466513,Coop
Coop,"Schützenstrasse 40, Feuerthalen",47.6905061,8.648729699999999,Coop
Denner Partner,"Gewerbestrasse 9c, Kleinandelfingen",47.6048401,8.6872816,Denner
Coop Supermarkt Feuerthalen Rhymarkt,"Schützenstrasse 30, Feuerthalen",47.6909869,8.6466513,Denner
Volg Andelfingen,"Thurtalstrasse 3, Andelfingen",47.5949754,8.679372899999999,Denner
Volg Bülach,"Berglistrasse 24, Bülach",47.5230077,8.5468342,Denner
Migros-Supermarkt - Diessenhofen,"Bahnhofstrasse 15, Diessenhofen",47.685955,8.752137,Migros
Coop Supermarkt Diessenhofen,"Bahnhofstrasse 28, Diessenhofen",47.6870296,8.7539645,Coop
Migros-Supermarkt - Diessenhofen,"Bahnhofstrasse 15, Diessenhofen",47.685955,8.752137,Coop
Volg-supermarkt Marthalen mit postagentur,"Maiengasse 2, Marthalen",47.6261012,8.6491615,Coop
Migros-Supermarkt - Andelfingen,"Weinlandstrasse 4, Kleinandelfingen",47.6019644,8.6887168,Coop
Coop Pronto Shop mit Tankstelle Langwiesen,"Hauptstrasse 29, Feuerthalen",47.6842878,8.6602858,Coop
Migros-Supermarkt - Seuzach,"Winterthurerstrasse 5, Seuzach",47.5355789,8.7302761,Coop
Volg Sulz,"Sulz CH, Stationsstrasse 32, Rickenbach",47.5408284,8.7880361,Coop
Volg Schlatt,"Frauenfelderstrasse 67, Schlatt",47.6619207,8.703105599999999,Coop
Volg Unterstammheim,"Kellhofstrasse 1A, Unterstammheim",47.639434,8.7901946,Coop
Migros-Supermarkt - Stein am Rhein,"Kaltenbacherstrasse 41, Stein am Rhein",47.65139430000001,8.853030799999999,Migros
migrolino Frauenfeld,"Zürcherstrasse 276, Frauenfeld",47.5620263,8.906229300000001,Migros
migrolino Frauenfeld,"Bahnhofpl. 75, Frauenfeld",47.5583731,8.8969753,Migros
Coop Supermarkt Stein am Rhein,"Kaltenbacherstrasse 32, Stein am Rhein",47.6530618,8.853229899999999,Coop
Lidl,"Höristraße 3a, Öhningen",47.65939,8.88913,Lidl
Denner Bibite,"Hofwiesenstrasse, Stein am Rhein",47.6519756,8.8564385,Denner
Migros-Supermarkt - Stein am Rhein,"Kaltenbacherstrasse 41, Stein am Rhein",47.65139430000001,8.853030799999999,Denner
Coop Supermarkt Stein am Rhein,"Kaltenbacherstrasse 32, Stein am Rhein",47.6530618,8.853229899999999,Denner
Coop Supermarkt Stein am Rhein,"Kaltenbacherstrasse 32, Stein am Rhein",47.6530618,8.853229899999999,Aldi
Lidl,"Höristraße 3a, Öhningen",47.65939,8.88913,Aldi
Migros-Supermarkt - Stein am Rhein,"Kaltenbacherstrasse 41, Stein am Rhein",47.65139430000001,8.853030799999999,Aldi
Migros-Supermarkt - Müllheim,"Thurstrasse 3, Müllheim",47.5996892,9.0004914,Migros
Migros-Supermarkt - Steckborn,"Im, Feldbach 1b, Steckborn",47.6637209,8.975910899999999,Migros
Coop Supermarkt Steckborn,"Seestrasse 149, Steckborn",47.664038,8.9791502,Coop
Coop Supermarkt Müllheim,"Frauenfelderstrasse 6, Müllheim",47.60159669999999,9.0006948,Coop
JUMBO Stein am Rhein,"Kaltenbacherstrasse 32, Stein am Rhein",47.6532287,8.8532304,Coop
Migros-Supermarkt - Müllheim,"Thurstrasse 3, Müllheim",47.5996892,9.0004914,Lidl
Migros-Supermarkt - Steckborn,"Im, Feldbach 1b, Steckborn",47.6637209,8.975910899999999,Lidl
Coop Supermarkt Steckborn,"Seestrasse 149, Steckborn",47.664038,8.9791502,Lidl
Denner Partner,"Im, Feldbach 1c, Steckborn",47.6635853,8.9772389,Denner
Coop Supermarkt Steckborn,"Seestrasse 149, Steckborn",47.664038,8.9791502,Denner
Coop Supermarkt Steckborn,"Seestrasse 149, Steckborn",47.664038,8.9791502,Aldi
Coop Supermarkt Frauenfeld Allmendcenter,"Juchstrasse 16, Frauenfeld",47.5674352,8.9064266,Migros
Coop Supermarkt Müllheim,"Frauenfelderstrasse 6, Müllheim",47.60159669999999,9.0006948,Migros
Denner Discount,"Weststrasse 27 / 29, Weinfelden",47.5674922,9.0941942,Migros
VOLG Müllheim,"Kreuzlingerstrasse 18, Müllheim",47.6032539,9.0050854,Migros
Coop Supermarkt Tägerwilen,"Bahnhofstrasse 6, Tägerwilen",47.6565808,9.1330298,Coop
SPAR Supermarkt Ermatingen,"Hauptstrasse 129, Ermatingen",47.6689783,9.084604299999999,Coop
Denner Discount,"Weststrasse 27 / 29, Weinfelden",47.5674922,9.0941942,Coop
Volg,"Hauptstrasse 121, Ermatingen",47.6693072,9.0833348,Coop
Migros-Supermarkt - Steckborn,"Im, Feldbach 1b, Steckborn",47.6637209,8.975910899999999,Coop
Volg,"Hauptstrasse 30, Pfyn",47.5957266,8.954593,Coop
Volg,"Amriswilerstrasse 31, Weinfelden",47.5668343,9.1170825,Coop
ALIGRO Frauenfeld,"Neuhofstrasse 8, Frauenfeld",47.5622178,8.8861799,Coop
Lidl,"Am Wollmatinger Ried 2, Reichenau",47.6884401,9.1235088,Lidl
Lidl,"Am Wollmatinger Ried 2, Reichenau",47.6884401,9.1235088,Aldi
Migros-Supermarkt - Steckborn,"Im, Feldbach 1b, Steckborn",47.6637209,8.975910899999999,Aldi
Migros-Supermarkt - Kreuzlingen,"Hauptstrasse 63, Kreuzlingen",47.6478869,9.1754696,Migros
Migros-Supermarkt - Tägerwilen,"Hauptstrasse 117, Tägerwilen",47.6539472,9.1414384,Migros
Migros-Supermarkt - Kreuzlingen - Seepark,"Bleichestrasse 15, Kreuzlingen",47.6422351,9.1957228,Migros
Migros-Supermarkt - teo Scherzingen,"Dorfstrasse 38, Scherzingen",47.6341432,9.220841199999999,Migros
migrolino Sulgen,"Kradolfstrasse 54, Sulgen",47.53248809999999,9.1884781,Migros
Edeka Baur,"Reichenaustraße 36, Konstanz",47.6718011,9.1685875,Migros
Coop Supermarkt Kreuzlingen Ziilcenter,"Leubernstrasse 3, Kreuzlingen",47.6384646,9.2021129,Migros
Coop Supermarkt Kreuzlingen Karussell,"Sonnenstrasse 16, Kreuzlingen",47.6506848,9.1723337,Migros
Coop Supermarkt Kreuzlingen Karussell,"Sonnenstrasse 16, Kreuzlingen",47.6506848,9.1723337,Coop
Coop Supermarkt Kreuzlingen Ziilcenter,"Leubernstrasse 3, Kreuzlingen",47.6384646,9.2021129,Coop
SPAR Supermarkt Kreuzlingen,"Weinstrasse 23/25, Kreuzlingen",47.6446295,9.1861407,Coop
Coop Pronto Shop mit Tankstelle Kreuzlingen Romanshornerstr.,"Romanshornerstrasse 126, Kreuzlingen",47.6395571,9.203316,Coop
Migros-Supermarkt - Müllheim,"Thurstrasse 3, Müllheim",47.5996892,9.0004914,Coop
Coop Pronto Shop mit Tankstelle Kreuzlingen Karussell,"Sonnenstrasse 16, Kreuzlingen",47.6502389,9.1721127,Coop
Migros-Supermarkt - Kreuzlingen,"Hauptstrasse 63, Kreuzlingen",47.6478869,9.1754696,Coop
Migros-Supermarkt - Kreuzlingen - Seepark,"Bleichestrasse 15, Kreuzlingen",47.6422351,9.1957228,Coop
Denner Bibite,"Hauptstrasse 3, Sulgen",47.5403988,9.1822983,Coop
Migros-Supermarkt - Sulgen - Passerelle,"Hauptstrasse 3, Sulgen",47.540288,9.1827826,Coop
Edeka Baur,"Reichenaustraße 36, Konstanz",47.6718011,9.1685875,Coop
Migros-Supermarkt - Tägerwilen,"Hauptstrasse 117, Tägerwilen",47.6539472,9.1414384,Coop
LANDI Mittelthurgau,"Tägerwilerstrasse 6, Kreuzlingen",47.6556384,9.163058699999999,Coop
VOLG Aachbrüggli Erlen,"Heerenwies 1, Erlen",47.5503074,9.2287648,Coop
Migros-Supermarkt - teo Bürglen,"Weinfelderstrasse 33a, Bürglen",47.5529795,9.1457863,Coop
Volg Bürglen TG,"Kennerwiesstrasse 1, Bürglen",47.5507492,9.1518056,Coop
Lidl Schweiz,"Seetalstrasse 90, Kreuzlingen",47.6404377,9.1993223,Lidl
Lidl,"Kreuzlinger Str. 24, Konstanz",47.657158,9.1714685,Lidl
Lidl,"Max-Stromeyer-Straße 15, Konstanz",47.67481000000001,9.16459,Lidl
NORMA Filiale,"Radolfzeller Straße 19, Konstanz",47.6902682,9.147122,Lidl
NORMA Filiale,"Carl-Benz-Straße 5, Konstanz",47.6742554,9.150153099999999,Lidl
ALDI SÜD,"Bodanstraße 1, Konstanz",47.6565506,9.1763654,Lidl
Kaufland Konstanz-Petershausen,"Zähringerpl. 7, Konstanz",47.6726038,9.1833304,Lidl
PENNY,"Sonnenbühlstraße 98, Konstanz",47.675393,9.197433,Lidl
EDEKA BAUR,"Bodanstraße 20-26, Konstanz",47.6583602,9.1741235,Lidl
ALDI SÜD,"Oberlohnstraße 7, Konstanz",47.6748627,9.158418,Lidl
Migros-Supermarkt - Kreuzlingen,"Hauptstrasse 63, Kreuzlingen",47.6478869,9.1754696,Lidl
SPAR Supermarkt Kreuzlingen,"Weinstrasse 23/25, Kreuzlingen",47.6446295,9.1861407,Lidl
Edeka Baur,"Reichenaustraße 36, Konstanz",47.6718011,9.1685875,Lidl
ALDI SUISSE,"Lengwilerstrasse 2, Kreuzlingen",47.6389228,9.2043049,Lidl
Denner Discount,"Tägerwilerstrasse 6, Kreuzlingen",47.6555824,9.163515799999999,Denner
Denner Discount,"Bleichestrasse 15, Kreuzlingen",47.6419457,9.1961806,Denner
Denner Discount,"Hauptstrasse 63, Kreuzlingen",47.6480192,9.175355,Denner
Migros-Supermarkt - Kreuzlingen,"Hauptstrasse 63, Kreuzlingen",47.6478869,9.1754696,Denner
Migros-Supermarkt - Kreuzlingen - Seepark,"Bleichestrasse 15, Kreuzlingen",47.6422351,9.1957228,Denner
SPAR Supermarkt Kreuzlingen,"Weinstrasse 23/25, Kreuzlingen",47.6446295,9.1861407,Denner
LANDI Mittelthurgau,"Tägerwilerstrasse 6, Kreuzlingen",47.6556384,9.163058699999999,Denner
ALDI SÜD,"Bodanstraße 1, Konstanz",47.6565506,9.1763654,Aldi
ALDI SÜD,"Oberlohnstraße 7, Konstanz",47.6748627,9.158418,Aldi
ALDI SUISSE,"Tägerwilerstrasse 2, + 4, Kreuzlingen",47.6554538,9.1638434,Aldi
ALDI SUISSE,"Lengwilerstrasse 2, Kreuzlingen",47.6389228,9.2043049,Aldi
Netto City,"Sepp-Biehler-Straße 1, Konstanz",47.6812853,9.2006427,Aldi
NORMA Filiale,"Radolfzeller Straße 19, Konstanz",47.6902682,9.147122,Aldi
Kaufland Konstanz-Petershausen,"Zähringerpl. 7, Konstanz",47.6726038,9.1833304,Aldi
Lidl,"Max-Stromeyer-Straße 15, Konstanz",47.67481000000001,9.16459,Aldi
Lidl,"Kreuzlinger Str. 24, Konstanz",47.657158,9.1714685,Aldi
SPAR Supermarkt Kreuzlingen,"Weinstrasse 23/25, Kreuzlingen",47.6446295,9.1861407,Aldi
REWE Albion Karaxha oHG,"Schneckenburgstraße 3, Konstanz",47.6725652,9.1693689,Aldi
NORMA Filiale,"Carl-Benz-Straße 5, Konstanz",47.6742554,9.150153099999999,Aldi
PENNY,"Mainaustraße 149, Konstanz",47.682197,9.2021787,Aldi
PENNY,"Sonnenbühlstraße 98, Konstanz",47.675393,9.197433,Aldi
Migros-Supermarkt - Tägerwilen,"Hauptstrasse 117, Tägerwilen",47.6539472,9.1414384,Aldi
LANDI Mittelthurgau,"Tägerwilerstrasse 6, Kreuzlingen",47.6556384,9.163058699999999,Aldi
PENNY,"Wollmatinger Str. 22, Konstanz",47.6761187,9.1804632,Aldi
Lidl Schweiz,"Seetalstrasse 90, Kreuzlingen",47.6404377,9.1993223,Aldi
Edeka Baur,"Reichenaustraße 36, Konstanz",47.6718011,9.1685875,Aldi
Coop Supermarkt Hallau,"Hauptstrasse 56, Hallau",47.6978269,8.4605043,Migros
Coop Supermarkt Schleitheim,"Schaffhauserstrasse 3, Schleitheim",47.7466261,8.480677499999999,Migros
Coop Supermarkt Neunkirch,"Bahnhofstrasse 1A, Neunkirch",47.6894701,8.4957978,Migros
Coop Supermarkt Hallau,"Hauptstrasse 56, Hallau",47.6978269,8.4605043,Coop
Coop Supermarkt Schleitheim,"Schaffhauserstrasse 3, Schleitheim",47.7466261,8.480677499999999,Coop
REWE,"Lindenweg 2, Stühlingen",47.7443438,8.4499317,Coop
PENNY,"Lindenweg 6, Stühlingen",47.7434473,8.4485583,Lidl
Migros-Supermarkt - Beringen,"Schaffhauserstrasse 72, Beringen",47.6960032,8.5824228,Migros
Migros-Supermarkt - Schaffhausen - Vorstadt,"Bahnhofstrasse 56/58, Schaffhausen",47.6987877,8.6340494,Migros
Migros-Supermarkt - Schaffhausen - Breite,"Hohlenbaumstrasse 79, Schaffhausen",47.7063307,8.619999199999999,Migros
migrolino fresh Schaffhausen,"Schwertstrasse 4, Schaffhausen",47.6973126,8.6329139,Migros
Coop Supermarkt Schaffhausen Fronwagplatz,"Fronwagpl. 1, Schaffhausen",47.69634749999999,8.633765,Migros
Coop Supermarkt Beringen,"Schaffhauserstrasse 2, Beringen",47.6962288,8.5756433,Migros
Denner Discount,"Poststrasse 18, Neuhausen am Rheinfall",47.683002,8.619211,Migros
Coop Supermarkt Schaffhausen Riet,"Rietstrasse 169, Schaffhausen",47.7039747,8.6155534,Migros
Coop Supermarkt Schaffhausen Fronwagplatz,"Fronwagpl. 1, Schaffhausen",47.69634749999999,8.633765,Coop
Coop Supermarkt Schaffhausen Riet,"Rietstrasse 169, Schaffhausen",47.7039747,8.6155534,Coop
Coop Supermarkt Beringen,"Schaffhauserstrasse 2, Beringen",47.6962288,8.5756433,Coop
Coop City Schaffhausen,"Vordergasse 69, Schaffhausen",47.6962488,8.634637,Coop
Coop Pronto Shop Schaffhausen Bahnhof,"Bahnhofstrasse 29, Schaffhausen",47.69814150000001,8.632686,Coop
Coop Pronto Shop mit Tankstelle Beringen,"Schaffhauserstrasse 238, Beringen",47.69396889999999,8.6051807,Coop
Migros-Supermarkt - Beringen,"Schaffhauserstrasse 72, Beringen",47.6960032,8.5824228,Coop
Migros-Supermarkt - Schaffhausen - Vorstadt,"Bahnhofstrasse 56/58, Schaffhausen",47.6987877,8.6340494,Coop
Volg,"Hauptstrasse 33, Löhningen",47.7012049,8.5528168,Coop
Asian Markt GmbH,"Schützengraben 20, Schaffhausen",47.698952,8.6357983,Coop
Denner Discount,"Bleichepl. 7, Schaffhausen",47.6988883,8.6322548,Coop
Denner Discount,"Hohlenbaumstrasse 88, Schaffhausen",47.7059658,8.6189263,Lidl
Denner Discount,"Bleichepl. 7, Schaffhausen",47.6988883,8.6322548,Denner
Denner Discount,"Hohlenbaumstrasse 88, Schaffhausen",47.7059658,8.6189263,Denner
Denner Express,"Vorstadt 46, Schaffhausen",47.69889939999999,8.6349168,Denner
Coop City Schaffhausen,"Vordergasse 69, Schaffhausen",47.6962488,8.634637,Denner
Denner Discount,"Hohlenbaumstrasse 88, Schaffhausen",47.7059658,8.6189263,Aldi
Migros-Supermarkt - Schaffhausen - Buchthalen,"Dürstlingweg 2, Schaffhausen",47.6990862,8.654574,Migros
Migros-Supermarkt - Schaffhausen - Herblinger Markt,"Stüdliackerstrasse 4, Schaffhausen",47.7202796,8.6642599,Migros
Migros-Supermarkt - Thayngen,"Biberstrasse 30, Thayngen",47.7487635,8.7065511,Migros
migrolino Schaffhausen Grubenstrasse,"Grubenstrasse 80, Schaffhausen",47.7030105,8.6454538,Migros
Lidl Schweiz,"Im Majorenacker 16, Schaffhausen",47.7169667,8.661579,Migros
migrolino Thayngen,"Grenzstrasse 72, Thayngen",47.74036,8.714842299999999,Migros
Coop Supermarkt Schaffhausen Herblingen,"Stüdliackerstrasse 10, Schaffhausen",47.72155069999999,8.666085599999999,Migros
Coop Supermarkt Schaffhausen Gruben,"In Gruben 1, Schaffhausen",47.7027412,8.6459231,Coop
Coop Supermarkt Schaffhausen Herblingen,"Stüdliackerstrasse 10, Schaffhausen",47.72155069999999,8.666085599999999,Coop
Coop Supermarkt Thayngen,"Bahnhofstrasse 26, Thayngen",47.74628209999999,8.7058834,Coop
Migros-Supermarkt - Schaffhausen - Herblinger Markt,"Stüdliackerstrasse 4, Schaffhausen",47.7202796,8.6642599,Coop
Migros-Supermarkt - Thayngen,"Biberstrasse 30, Thayngen",47.7487635,8.7065511,Coop
Lidl Schweiz,"Im Majorenacker 16, Schaffhausen",47.7169667,8.661579,Coop
TopCC Diessenhofen,"Ratihard 1, Diessenhofen",47.68516580000001,8.730092599999999,Coop
Lidl Schweiz,"Im Majorenacker 16, Schaffhausen",47.7169667,8.661579,Lidl
ALDI SUISSE,"Gennersbrunnerstraße 63, Schaffhausen",47.7162829,8.664720299999999,Lidl
Coop Supermarkt Schaffhausen Gruben,"In Gruben 1, Schaffhausen",47.7027412,8.6459231,Lidl
Denner Discount,"Hochstrasse 295, Schaffhausen",47.7151787,8.645693399999999,Denner
Denner Discount,"Alpenstrasse 134, Schaffhausen",47.6987147,8.6551108,Denner
Denner Discount,"Stüdliackerstrasse 4, Schaffhausen",47.7205632,8.6635878,Denner
Coop Supermarkt Schaffhausen Herblingen,"Stüdliackerstrasse 10, Schaffhausen",47.72155069999999,8.666085599999999,Denner
Migros-Supermarkt - Schaffhausen - Herblinger Markt,"Stüdliackerstrasse 4, Schaffhausen",47.7202796,8.6642599,Denner
ALDI SUISSE,"Gennersbrunnerstraße 63, Schaffhausen",47.7162829,8.664720299999999,Aldi
Lidl Schweiz,"Im Majorenacker 16, Schaffhausen",47.7169667,8.661579,Aldi
GVS Markt Landi,"Gennersbrunnerstraße 65, Schaffhausen",47.7165285,8.664947999999999,Aldi
Migros-Partner - Ramsen,"Petersburg 416, Ramsen",47.7068679,8.820864799999999,Migros
Coop Supermarkt Thayngen,"Bahnhofstrasse 26, Thayngen",47.74628209999999,8.7058834,Migros
Coop Supermarkt Diessenhofen,"Bahnhofstrasse 28, Diessenhofen",47.6870296,8.7539645,Migros
Coop Supermarkt Feuerthalen Rhymarkt,"Schützenstrasse 30, Feuerthalen",47.6909869,8.6466513,Migros
Asian Markt GmbH,"Schützengraben 20, Schaffhausen",47.698952,8.6357983,Migros
Coop Supermarkt Schaffhausen Gruben,"In Gruben 1, Schaffhausen",47.7027412,8.6459231,Migros
SPAR,"Stettemerstrasse 40, Schaffhausen",47.7223304,8.655230699999999,Migros
Migros-Partner - Ramsen,"Petersburg 416, Ramsen",47.7068679,8.820864799999999,Coop
Volg Oberstammheim,"Hauptstrasse 68, Oberstammheim",47.63227819999999,8.7994721,Coop
Lidl,"Im Rheinauer 7, Gailingen am Hochrhein",47.69741,8.7456,Lidl
Lidl,"Stockenweg 4, Gottmadingen",47.73828,8.73987,Lidl
Lidl,"Hauptstraße 5, Gottmadingen",47.73642,8.7719,Lidl
REWE,"Hauptstraße 7, Gottmadingen",47.7368789,8.7726417,Lidl
ALDI SÜD,"Auf der Höhe 2, Gailingen am Hochrhein",47.6970997,8.7446139,Lidl
EDEKA BAUR,"Auf der Höhe 4, Gailingen am Hochrhein",47.6965029,8.7451723,Lidl
ALDI SÜD,"Auf der Höhe 2, Gailingen am Hochrhein",47.6970997,8.7446139,Aldi
ALDI SÜD,"Kornblumenweg 39, Gottmadingen",47.73583,8.78702,Aldi
EDEKA BAUR,"Auf der Höhe 4, Gailingen am Hochrhein",47.6965029,8.7451723,Aldi
Lidl,"Im Rheinauer 7, Gailingen am Hochrhein",47.69741,8.7456,Aldi
Lidl,"Stockenweg 4, Gottmadingen",47.73828,8.73987,Aldi
FRISTO Getränkemarkt,"Kornblumenweg 41, Gottmadingen",47.7361254,8.787844699999999,Aldi
Coop Supermarkt Stein am Rhein,"Kaltenbacherstrasse 32, Stein am Rhein",47.6530618,8.853229899999999,Migros
Denner Bibite,"Hofwiesenstrasse, Stein am Rhein",47.6519756,8.8564385,Migros
Migros-Supermarkt - Stein am Rhein,"Kaltenbacherstrasse 41, Stein am Rhein",47.65139430000001,8.853030799999999,Coop
Lidl,"Maggistraße 20, Singen (Hohentwiel)",47.75471,8.8393,Lidl
Lidl,"Freiheitstraße 23, Singen (Hohentwiel)",47.762992,8.838187,Lidl
REWE,"Zolltafel 4, Singen (Hohentwiel)",47.7448041,8.8502524,Lidl
Netto Marken-Discount,"Hauptstraße 39, Rielasingen-Worblingen",47.7346279,8.8370072,Lidl
ALDI SÜD,"Industriestraße 5, Singen (Hohentwiel)",47.7505323,8.8514388,Lidl
EDEKA Münchow,"Zeppelinstraße 4, Rielasingen-Worblingen",47.7310014,8.8473405,Lidl
Mix Markt,"Berliner Str. 6, Singen (Hohentwiel)",47.7430735,8.850537,Lidl
ALDI SÜD,"Industriestraße 5, Singen (Hohentwiel)",47.7505323,8.8514388,Aldi
ALDI SÜD,"Werner-von-Siemens-Straße 3, Rielasingen-Worblingen",47.73590739999999,8.8479608,Aldi
Aldi SÜD,"Wehrdstraße 6, Singen (Hohentwiel)",47.756034,8.8387622,Aldi
Netto Marken-Discount,"Hauptstraße 39, Rielasingen-Worblingen",47.7346279,8.8370072,Aldi
Lidl,"Freiheitstraße 23, Singen (Hohentwiel)",47.762992,8.838187,Aldi
Lidl,"Maggistraße 20, Singen (Hohentwiel)",47.75471,8.8393,Aldi
PENNY,"Gänseweide 10, Rielasingen-Worblingen",47.7283656,8.850144199999999,Aldi
EDEKA Münchow,"Zeppelinstraße 4, Rielasingen-Worblingen",47.7310014,8.8473405,Aldi
Mix Markt,"Berliner Str. 6, Singen (Hohentwiel)",47.7430735,8.850537,Aldi
Coop Supermarkt Steckborn,"Seestrasse 149, Steckborn",47.664038,8.9791502,Migros
Lidl,"Lippenwiesen 11, Radolfzell am Bodensee",47.74598,8.95556,Lidl
NORMA Filiale,"Robert-Gerwig-Straße 12, Radolfzell am Bodensee",47.7459551,8.954566999999999,Lidl
Kaufland Radolfzell,"Markthallenstraße 1, Radolfzell am Bodensee",47.7396451,8.9704663,Lidl
Aldi Süd,"Eisenbahnstraße 1/2, Radolfzell am Bodensee",47.7397634,8.9589007,Lidl
Netto Marken-Discount,"Badener Str. 32, Radolfzell am Bodensee",47.7725064,8.983286399999999,Lidl
FRISTO Getränkemarkt,"Lippenwiesen 11, Radolfzell am Bodensee",47.7453167,8.954718399999999,Lidl
Aldi Süd,"Eisenbahnstraße 1/2, Radolfzell am Bodensee",47.7397634,8.9589007,Aldi
Netto Marken-Discount,"Badener Str. 32, Radolfzell am Bodensee",47.7725064,8.983286399999999,Aldi
NORMA Filiale,"Robert-Gerwig-Straße 12, Radolfzell am Bodensee",47.7459551,8.954566999999999,Aldi
Kaufland Radolfzell,"Markthallenstraße 1, Radolfzell am Bodensee",47.7396451,8.9704663,Aldi
Lidl,"Lippenwiesen 11, Radolfzell am Bodensee",47.74598,8.95556,Aldi
Coop Supermarkt Tägerwilen,"Bahnhofstrasse 6, Tägerwilen",47.6565808,9.1330298,Migros
ALDI SÜD,"Prof.-Maier-Leibnitz-Straße 14, Allensbach",47.7247327,9.0708203,Lidl
Norma,"Prof.-Maier-Leibnitz-Straße 9-11, Allensbach",47.7241911,9.0718307,Lidl
ALDI SÜD,"Prof.-Maier-Leibnitz-Straße 14, Allensbach",47.7247327,9.0708203,Aldi
Norma,"Prof.-Maier-Leibnitz-Straße 9-11, Allensbach",47.7241911,9.0718307,Aldi
Netto City,"Konstanzer Str. 13, Allensbach",47.7149849,9.0687525,Aldi
Lidl Schweiz,"Seetalstrasse 90, Kreuzlingen",47.6404377,9.1993223,Migros
ALDI SUISSE,"Lengwilerstrasse 2, Kreuzlingen",47.6389228,9.2043049,Migros
LANDI Mittelthurgau,"Tägerwilerstrasse 6, Kreuzlingen",47.6556384,9.163058699999999,Migros
Lidl,"Oberriedweg 7, Überlingen",47.7732432,9.18502,Lidl
EDEKA Überlingen,"Lippertsreuter Str. 1, Überlingen",47.7696058,9.170363,Lidl
NORMA,"Lippertsreuter Str. 35, Überlingen",47.77194180000001,9.1745518,Lidl
Kaufland,"Nußdorfer Str. 101, Überlingen",47.7540089,9.1907459,Lidl
ALDI SUISSE,"Tägerwilerstrasse 2, + 4, Kreuzlingen",47.6554538,9.1638434,Denner
ALDI Süd,"Heiligenbreite 3, Überlingen",47.7810897,9.2023078,Aldi
Lidl,"Oberriedweg 7, Überlingen",47.7732432,9.18502,Aldi
NORMA,"Lippertsreuter Str. 35, Überlingen",47.77194180000001,9.1745518,Aldi
